restaurant;address;country;country_code;neighborhood;type;cost;addressGoogle
'Cesca;164 W 75th St;New York;NY;Upper West Side;Italian;$$$;164 W 75th St
'Ino;21 Bedford St;New York;NY;Greenwich Village;Italian;$;21 Bedford St
'Inoteca;98 Rivington St;New York;NY;Lower East Side;Italian;$$;98 Rivington St
107 West;811 W 187th St;New York;NY;Harlem;Creole-Cajun;$$$;811 W 187th St
15 East;15 E. 15th Street;New York;NY;Union Square;Japanese;$$$$;15 E 15th St
2 Rivers Bar and ReStaurant;10 Murray St;New York;NY;;American;;10 Murray Street
2 West;2 West St;New York;NY;Financial District;American;$$$;2 West St
21 Club;21 W 52nd St;New York;NY;Midtown West;American;$$$;21 W 52nd St
26 Seats;168 Ave B;New York;NY;East Village;French;$$;168 Avenue B
44;44 W 44th Street;New York;NY;Midtown West;American;$$$;44 W 44th St
44 & X Hell's Kitchen;622 10th Ave;New York;NY;Midtown West;American;$$$;622 10th Ave
5 Napkin Burger;630 Ninth Ave;New York;NY;Hell's Kitchen;American;$$;630 9th Ave
5 Ninth;5 Ninth Ave;New York;NY;Meatpacking District;International;$$$;5 9th Ave
71 Irving Place;71 Irving Pl;New York;NY;Gramercy Park;American;$;71 Irving Pl
77493;1633 Broadway;New York;NY;Midtown West;American;$$;1633 Broadway
A;947 Columbus Ave;New York;NY;Harlem;Caribbean;$;947 Columbus Ave
A Cafe;973 Columbus Avenue;New York;NY;Upper West Side;French;$$$;973 Columbus Ave
A Voce;41 Madison Ave;New York;NY;Gramercy Park;Italian;$$$$;41 Madison Ave
A.O.C.;314 Bleecker St;New York;NY;West Village;French;$$;314 Bleecker St
A.O.C. Bedford;14 Bedford St;New York;NY;Greenwich Village;French;$$$;14 Bedford St
Abboccato;136 W 55th St;New York;NY;Midtown West;Italian;$$$$;136 W 55th St
Acqua;718 Amsterdam Ave.;New York;NY;;Italian;$$$$;718 Amsterdam Ave
Ada;208 E 58th Street;New York;NY;Midtown East;Indian;$$$;208 E 58th St
Agave;140 7th Ave South;New York;NY;Greenwich Village;Southwestern;$$;140 7th Ave S
Aix Brasserie;2398 Broadway;New York;NY;Upper West Side;French;$$$$;2398 Broadway
Aj Maxwell's - Steakhouse;57 West 48th Street;New York;NY;Midtown West;Steakhouse;$$$$;57 W 48th St
Akdeniz;19 W 46th St;New York;NY;Midtown West;Mediterranean;$;19 W 46th St
Aki;181 W Fourth St;New York;NY;Greenwich Village;Caribbean;$$$;181 West 4th Street
Al Bustan Restaurant;827 Third Ave;New York;NY;Midtown East;Middle Eastern;$$$;827 3rd Ave
Alexandra;455 Hudson St;New York;NY;West Village;American;$$;455 Hudson St
Alfama;551 Hudson St;New York;NY;Greenwich Village;Portuguese;$$;551 Hudson St
Alfredo Of Rome;4 W 49th St;New York;NY;;;;4 W 49th St
Ali Baba;206 E 34th St;New York;NY;Murray Hill;Turkish;$;206 E 34th St
Alias;76 Clinton St;New York;NY;Lower East Side;American;$$$;76 Clinton St
Alice's Tea Cup;102 West. 73 st;New York;NY;Upper West Side;American;$;102 W 73rd St
Allegretti;46 West 22nd St;New York;NY;Flatiron;French;$$$$;46 W 22nd St
Allen & Delancey;115 Allen St;New York;NY;Lower East Side;American;$$$;115 Allen St
Almond;12 E 22nd Street;New York;NY;Flatiron;French;$$$$$;12 E 22nd St
Alonso's Steakhouse;265 West 20th St;New York;NY;Chelsea;Steakhouse;$$$;265 W 20th St
Alouette;2588 Broadway;New York;NY;Upper West Side;French;$$$;2588 Broadway
Alta;64 West 10th Street;New York;NY;Greenwich Village;Mediterranean;$$$;64 W 10th St
Alto;520 Madison Ave;New York;NY;Midtown East;Italian;$$$$$;520 Madison Ave
Amalia;;New York;NY;Midtown West;Mediterranean;$$$$;
Amaranth;21 E. 62nd St.;New York;NY;;Mediterranean;$$$;21 E 62nd St
Amazing 66;66 Mott Street;New York;NY;Chinatown;Chinese;$$;66 Mott St
Ambassador Grill and Lounge;1 United Nations Plaza;New York;NY;Midtown East;International;$$$;1 United Nations Plaza
Amber;1406 Third Ave.;New York;NY;;Pan-Asian;$$;1406 3rd Ave
Amma;246 E 51st St;New York;NY;Midtown East;Indian;$$$$;246 E 51st St
Ammos Estiatorio;52 Vanderbilt Ave;New York;NY;Midtown East;Greek;$$$;52 Vanderbilt Ave
Amy Ruth's;113 W 116th St;New York;NY;Harlem;Southern;$;113 W 116th St
Amy's Bread;75 Ninth Ave;New York;NY;Midtown West;American;$;75 9th Ave
Angelica Kitchen;300 E 12th St;New York;NY;East Village;Vegetarian;$;300 E 12th St
Angelo & Maxies Steakhouse;233 Park Ave South (19th St);New York;NY;Midtown West;Steakhouse;$$$;233 Park Ave S
Angelo's Of Mulberry Street;146 Mulberry St Fl 1;New York;NY;Little Italy;Italian;$$$;146 Mulberry St Fl 1
Angon on The Sixth;320 E Sixth St;New York;NY;East Village;Indian;$;320 E 6th St
Annisa;13 Barrow Street;New York;NY;Greenwich Village;American;$$$$$;13 Barrow St
Anthos;36 W 52nd St;New York;NY;Midtown West;Mediterranean;$$$$;36 W 52nd St
Apiary;60 Third Ave.;New York;NY;East Village;American;$$$$;60 3rd Ave
Apizz;217 Eldridge St;New York;NY;Lower East Side;Italian;$$$;217 Eldridge St
Aq Cafe;58 Park Ave;New York;NY;Murray Hill;Scandinavian;$;58 Park Ave
Aquagrill;210 Spring St;New York;NY;SOHO;Seafood;$$$$;210 Spring St
Aquavit;65 East 55th Street;New York;NY;Midtown West;Scandinavian;$$$$;65 E 55th St
Arezzo;46 W 22nd St;New York;NY;Flatiron;Italian;$$$;46 W 22nd St
Aroma;36 E Fourth St;New York;NY;NoLita;Italian;$$;36 E 4th St
Arqua;281 Church Street;New York;NY;TriBeCa;Italian;$$$;281 Church St
Arriba Arriba!;1463 Third Ave;New York;NY;Upper East Side;American;$;1463 3rd Ave
Arte Cafe;106 W 73rd St;New York;NY;Upper West Side;Italian;$$;106 W 73rd St
Artichoke;328 E 14th St;New York;NY;East Village;Pizza;$$;328 E 14th St
Artie's Deli;2290 Broadway;New York;NY;;;;2290 Broadway
Artisanal;2 Park Avenue;New York;NY;Lower East Side;French;$$$;2 Park Ave
Arturo's Restaurants;106 W Houston St;New York;NY;Greenwich Village;Italian;$;106 W Houston St
Asia De Cuba;237 Madison Ave;New York;NY;Murray Hill;Asian;$$$$;237 Madison Ave
Asiakan;710 Amsterdam Ave.;New York;NY;Upper West Side;Pan-Asian;$;710 Amsterdam Ave
Asiate;80 Columbus Cir at 60th Street;New York;NY;Upper West Side;French;$$$$;80 Columbus Cir
Aspen;30 W 22nd St;New York;NY;;;;30 W 22nd St
Aspen Social Club;157 W 47th St;New York;NY;Midtown West;American;$$$$;157 W 47th St
Atlantic Grill;1341 Third Ave;New York;NY;Upper East Side;Seafood;$$$;1341 3rd Ave
Atnhos;36 W. 52nd Street;New York;NY;;Greek;$$$$;36 W 52nd St
Au Mandarin;200-250 Vesey St;New York;NY;Financial District;Chinese;$$;200 Vesey St
August;359 Bleecker St;New York;NY;West Village;European;$$$;359 Bleecker St
Aureole;34 E 61st St (Between Park and Madison);New York;NY;Midtown East;American;$$$$$;34 E 61st St (Between Park and Madison)
Aurora;51 Broome St.;New York;NY;SOHO;Italian;$$;51 Broome St
Avra Estiatorio;141 E 48th St;New York;NY;Midtown East;Greek;$$$$;141 E 48th St
Awash;947 Amsterdam Ave.;New York;NY;;Ethiopian;;947 Amsterdam Ave
Azafran;77 Warren St;New York;NY;TriBeCa;Spanish;$$$;77 Warren St
Azucar;939 Eighth Avenue;New York;NY;Midtown West;Cuban;$$;939 8th Ave
Azuri Cafe;465 W 51st St;New York;NY;Midtown West;Jewish;$;465 W 51st St
Azza;137 E. 55th Street;New York;NY;Midtown East;Moroccan;$$$$;137 E 55th St
B. Smith's Restaurant Row;320 West 46th St;New York;NY;Midtown West;Southern;$$$;320 W 46th St
BLT Fish;21 W 17th St;New York;NY;Flatiron;Seafood;$$;21 W 17th St
BLT Prime;111 East 22nd Street;New York;NY;Gramercy Park;American;$$$$;111 E 22nd St
BLT Steak;106 E 57th St;New York;NY;Midtown East;Steakhouse;$$$$$;106 E 57th St
Babbo;110 Waverly Pl;New York;NY;Greenwich Village;Italian;$$$$;110 Waverly Pl
Baldoria;249 West 49th Street;New York;NY;Midtown West;Italian;$$$$;249 W 49th St
Bali Nusa Indah Restaurant Inc;651 9th Ave;New York;NY;;Indonesian;;651 9th Ave
Balthazar;80 Spring Street;New York;NY;SOHO;French;$$$;80 Spring St
Banjara;97 First Ave;New York;NY;East Village;Indian;$$;97 1st Avenue
Bann;350 W 50th St;New York;NY;Theater;Korean;$$$;350 W 50th St
Bao 111;111 Ave C;New York;NY;East Village;Asian;$$;111 Loisaida Ave
Bar Americain;152 W 52nd St;New York;NY;Midtown West;American;$$$$;152 W 52nd St
Bar Boa;100 W 82nd Street;New York;NY;Upper West Side;Vietnamese;$$$$;100 W 82nd St
Bar Jamon;52 Irving Pl.;New York;NY;NY;Spanish;$$$;52 Irving Pl
Bar Martignetti;406 Broome St.;New York;NY;;;;406 Broome St
Bar Pitti;268 Sixth Avenue;New York;NY;Greenwich Village;Italian;$$;268 6th Ave
Baraonda;1439 Second Avenue;New York;NY;;;;1439 2nd Ave
Barbetta;321 W 46th Street;New York;NY;Midtown East;Italian;$$$;321 W 46th St
Barbounia;250 Park Ave South;New York;NY;Flatiron;Mediterranean;$$$$;250 Park Ave S
Barmarche;14 Spring St;New York;NY;NoLita;American;$$;14 Spring St
Barney Greengrass;541 Amsterdam Ave;New York;NY;Upper West Side;Deli;$;541 Amsterdam Ave
Barolo;398 West Broadway;New York;NY;SOHO;Italian;$$$;398 W Broadway
Basta Pasta;37 W 17th St;New York;NY;Flatiron;Italian;$$;37 W 17th St
Battery Gardens;Inside Battery Parkacross From 17 State St;New York;NY;Financial District;American;$$$;17 State St
Bay Leaf;49 W 56th Street;New York;NY;Midtown West;Indian;$$;49 W 56th St
Bb Sandwich Bar;120 W Third St;New York;NY;West Village;American;$;120 W 3rd St
Beacon;25 West 56th St (Between 5th & 6th Avenues);New York;NY;Midtown West;American;$$$$;25 W 56th St
Becco;355 W 46th St;New York;NY;Midtown West;Italian;$$$;355 W 46th St
Bellavitae;21 Minetta Ln;New York;NY;Greenwich Village;Italian;$$$;21 Minetta Ln
Bello;863 Ninth Ave;New York;NY;;;;863 9th Ave
Bello Sguardo;410 Amsterdam Ave;New York;NY;Upper West Side;Mediterranean;$$;410 Amsterdam Ave
Ben & Jack's Steak House;219 E 44th St;New York;NY;Midtown East;Steakhouse;$$$$;219 E 44th St
Ben's Kosher Deli;209 West 38th Street;New York;NY;Midtown West;Deli;$;209 W 38th St
Beppe;45 E 22nd St;New York;NY;Flatiron;Italian;$$$;45 E 22nd St
Bette;461 W 23rd St;New York;NY;Chelsea;European;$$$;461 W 23rd St
Bettola;412 Amsterdam Ave;New York;NY;Upper West Side;Italian;$$;412 Amsterdam Ave
Beyoglu;1431 Third Avenue;New York;NY;Upper East Side;Mediterranean;$$;1431 3rd Ave
Bianca;5 Bleecker St;New York;NY;NoLita;Italian;$$;5 Bleecker St
Big Nick's Burger Joint;2175 Broadway;New York;NY;Upper West Side;American;$;2175 Broadway
Big Wong;67 Mott St;New York;NY;;;;67 Mott St
Bistro Cassis;225 Columbus Ave;New York;NY;Upper West Side;French;$$;225 Columbus Ave
Bistro Citron;473 Columbus Ave.;New York;NY;;;;473 Columbus Ave
Bistro Les Amis;180 Spring St/Thompson;New York;NY;SOHO;French;$$;180 Spring St
Bistro Ten 18;1018 Amsterdam Ave;New York;NY;Upper West Side;American;$$;1018 Amsterdam Ave
Black Iron Burger Shop;540 E 5th St;New York;NY;East Village;American;$$$;540 E 5th St
Black Pearl;37 W. 26th Street;New York;NY;Chelsea;Seafood;$$;37 W 26th St
Blaue Gans;139 Duane Street;New York;NY;TriBeCa;German;$$$;139 Duane St
Blockheads Mexican Diner;954 Second Ave;New York;NY;Midtown West;Mexican;$;954 2nd Ave
Bloomingdale Road;2398 Broadway;New York;NY;;American;$$$;2398 Broadway
Blossom;187 Ninth Ave.;New York;NY;;Vegetarian;$$;187 9th Ave
Blue 9 Burger;92 3rd Ave;New York;NY;East Village;American;$;92 3rd Ave
Blue Fin;1567 Broadway at 47th;New York;NY;Midtown West;Seafood;$$$;1567 Broadway
Blue Hill;75 Washington Place;New York;NY;Greenwich Village;American;$$$$;75 Washington Pl
Blue Ribbon;97 Sullivan Street;New York;NY;SOHO;American;$$$;97 Sullivan St
Blue Ribbon Bakery;33 Downing Street;New York;NY;Greenwich Village;American;$$;33 Downing St
Blue Ribbon Sushi;119 Sullivan St;New York;NY;SOHO;Sushi;$$$;119 Sullivan St
Blue Smoke;116 E 27th St;New York;NY;Gramercy Park;Barbecue;$$;116 E 27th St
Blue Water Grill;31 Union Square West;New York;NY;Union Square;Seafood;$$$;31 Union Square W
Bluechili;251 W 51st St;New York;NY;Midtown West;Asian;$$;251 W 51st St
Bobby Van's Grill - 50th Street;135 W 50th St;New York;NY;Midtown West;Italian;$$$;135 W 50th St
Bobby Van's Steakhouse-54th Street;131 E 54th Street;New York;NY;Midtown East;Steakhouse;$$$;131 E 54th St
Bobby Van's Steakhouse-Park Avenue;230 Park Avenue;New York;NY;Midtown East;Steakhouse;$$$;230 Park Ave
Bobo;181 W. 10th St.;New York;NY;Greenwich Village;European;$$$$;181 W 10th St
Boca Chica;13 First Avenue;New York;NY;East Village;South American;$;13 1st Avenue
Boi;246 East 44th Street;New York;NY;Midtown East;Vietnamese;$$;246 E 44th St
Boi To Go;800 Second Ave;New York;NY;Midtown East;Vietnamese;$$;800 2nd Ave
Bolo;23 E 22nd St;New York;NY;Flatiron;Spanish;$$$$;23 E 22nd St
Bombay Grill;344 Lexington Ave;New York;NY;;Indian;$$;344 Lexington Ave
Bombay Palace;30 W 52nd St;New York;NY;Midtown West;Indian;$$;30 W 52nd St
Bombay Talkie;189 Ninth Ave;New York;NY;Chelsea;Indian;$$;189 9th Ave
Bond 45;154 W 45th St;New York;NY;Midtown West;Italian;$$$;154 W 45th St
Bondi Road;153 Rivington St.;New York;NY;;Australian;$$;153 Rivington St
Bondst;6 Bond Street;New York;NY;TriBeCa;Japanese;$$$$;6 Bond St
Boom;152 Spring Street;New York;NY;SOHO;Italian;$$;152 Spring St
Boqueria;53 W. 19th St.;New York;NY;;Spanish;$$$;53 W 19th St
Borgo Antico;22 E 13th St;New York;NY;East Village;Italian;$$$;22 E 13th St
Bottino;246 10th Ave;New York;NY;Chelsea;Italian;$$$;246 10th Ave
Bouley;120 West Broadway;New York;NY;TriBeCa;French;$$$$$;120 W Broadway
Bourbon Street Bar & Grille;346 W 46th Street;New York;NY;;Creole-Cajun;$$$$;346 W 46th St
Brasserie;100 East 53rd St;New York;NY;Midtown East;French;$$$;100 E 53rd St
Brasserie 8 1/2;9 W 57th St;New York;NY;Midtown West;French;$$$$;East River Realty Company
Brasserie Julien;1422 3rd Ave (Between 80th & 81st Streets);New York;NY;Upper East Side;French;$$;1420-1422 3rd Ave
Bread;20 Spring St;New York;NY;NoLita;American;$$;20 Spring St
Bricco Ristorante;304 W 56th St;New York;NY;;;;304 W 56th St
Brick Lane Curry;342 East 6th St;New York;NY;East Village;Indian;$;342 E 6th St
Bridge Cafe;279 Water St;New York;NY;Financial District;American;$$$;279 Water St
Bright Food Shop;218 Eighth Ave;New York;NY;Chelsea;Asian;$;218 8th Ave
Broadway East;171 East Broadway;New York;NY;Lower East Side;American;$$$;171 E Broadway
Broadway Joe Steakhouse;315 West 46th Street;New York;NY;Theater;Steakhouse;$$$;315 W 46th St
Brother Jimmy's Bbq;1461 1st Ave;New York;NY;Midtown East;Southern;$;1461 1st Avenue
Bubba Gump Shrimp Co.;1501 Broadway;New York;NY;Midtown West;American;$;1501 Broadway
Bubble Loung;228 W Broadway;New York;NY;TriBeCa;Small Plates;$$$;228 W Broadway
Bubby's;120 Hudson St;New York;NY;TriBeCa;American;$;120 Hudson St
Buddakan;75 Ninth Ave;New York;NY;Chelsea;Fusion;$$$$;75 9th Ave
Buddha BBeeQ;1750 Second Ave.;New York;NY;Upper East Side;Korean;$;1750 2nd Ave
Buddha Bar;25 Little West 12th Street;New York;NY;Meatpacking District;Asian;$$$$;25 Little W 12th St
Buenos Aires;513 E Sixth St;New York;NY;East Village;Argentinean;$$;513 E 6th St
Bukhara Grill;217 E 49th St;New York;NY;Midtown East;Indian;$$;217 E 49th St
Bull Run;52 William St;New York;NY;Financial District;American;$$$;52 William St
Burger Joint;190 Bleecker St;New York;NY;Gramercy Park;American;$;190 Bleecker St
Burritoville;352 W 39th St;New York;NY;Midtown West;Southwestern;$;352 W 39th St
Butai;115 E 18th St;New York;NY;Gramercy Park;Japanese;$$$;115 E 18th St
Butter;415 Lafayette St;New York;NY;East Village;American;$$$;415 Lafayette St
Cabana;89 S St Pier 17 Pavilion;New York;NY;Upper East Side;Nuevo Latino;$$;89 South St
Cabrito;50 Carmine St.;New York;NY;;Fusion;;50 Carmine St
Cacio E Pepe;182 Second Ave;New York;NY;East Village;Italian;$$;182 2nd Ave
Cafe Asean;117 West 10th Street;New York;NY;;;;117 W 10th St
Cafe Blossom;466 Columbus Ave;New York;NY;;;;466 Columbus Ave
Cafe Centro;200 Park Ave;New York;NY;Midtown East;Mediterranean;$$$;MetLife Building
Cafe Con Leche;726 Amsterdam Ave;New York;NY;Upper West Side;Cuban;$;726 Amsterdam Ave
Cafe De Bruxelles;118 Greenwich Ave;New York;NY;West Village;Belgian;$$;118 Greenwich Ave
Cafe Des Artistes;1 W 67th Street;New York;NY;Upper West Side;French;$$$;1 W 67th St
Cafe Du Soleil;2723 Broadway;New York;NY;Upper West Side;French;$$$;2723 Broadway
Cafe Espanol;172 Bleecker Street;New York;NY;Greenwich Village;American;$;172 Bleecker St
Cafe Frida;368 Columbus Ave;New York;NY;Upper West Side;Mexican;$$;368 Columbus Ave
Cafe Gitane;242 Mott St;New York;NY;NoLita;French;$;242 Mott St
Cafe Gray;10 Columbus Circle, 3rd Fl;New York;NY;Upper West Side;French;$$$$$;10 Columbus Cir 3rd Fl
Cafe Habana;229 Elizabeth St;New York;NY;NoLita;Cuban;$;229 Elizabeth St
Cafe Joul;1070 First Avenue;New York;NY;Midtown East;French;$$;1070 1st Avenue
Cafe Lalo;201 W 83rd St;New York;NY;Upper West Side;American;$;201 W 83rd St
Cafe Loup;105 W 13th St;New York;NY;Greenwich Village;French;$$$;105 W 13th St
Cafe Mogador;101 St Marks Pl;New York;NY;East Village;Moroccan;$;101 St Marks Pl
Cafe Ronda;249-251 Columbus Ave;New York;NY;Upper West Side;Mediterranean;$$;249 Columbus Ave
Cafe Rustico East;230 East 29th St.;New York;NY;Midtown East;Italian;$$$;230 E 29th St
Cafe Select;212 Lafayette Street;New York;NY;;International;$$$;212 Lafayette St
Cafe Spice;72 University Pl;New York;NY;;;;72 University Pl
Cafe St. Barts;Park Avenue @ 50th St.;New York;NY;Upper East Side;American;$$$;Park Ave & E 50th St
Cafe Un Deux Trois;123 W 44th St;New York;NY;Midtown West;French;$$$;123 W 44th St
Cafeteria;119 Seventh Avenue;New York;NY;Chelsea;American;$;119 7th Ave
Caffe Falai;68 Clinton St.;New York;NY;SOHO;Italian;$$;68 Clinton St
Café Boulud;20 East 76th St;New York;NY;Upper East Side;French;$$$$;20 E 76th St
Café Sabarsky;1048 Fifth Ave;New York;NY;Upper East Side;Austrian;$$;1048 5th Ave
Calle Ocho;446 Columbus Avenue;New York;NY;Upper West Side;Cuban;$$;446 Columbus Ave
Camaje;85 Macdougal St;New York;NY;Greenwich Village;American;$$;85 MacDougal St
Camino Sur;336 W 37th St;New York;NY;Midtown West;South American;$$$;336 W 37th St
Campagnola;1382 First Ave;New York;NY;Upper East Side;Italian;$$$$;1382 1st Avenue
Candela;Candela, 92 Second Avenue;New York;NY;East Village;Cuban;$$;92 2nd Ave
Candle 79;154 E 79 St;New York;NY;Upper East Side;Vegetarian;$$;154 E 79th St
Candle Cafe;1307 Third Avenue;New York;NY;Upper East Side;Vegetarian;$;1307 3rd Ave
Canyon Road;1470 First Avenue;New York;NY;Upper East Side;Southwestern;$$;1470 1st Avenue
Capital Grille;155 E 42nd St;New York;NY;Midtown East;Steakhouse;$$$$;155 E 42nd St
Caracas Arepa Bar;91 East 7th St;New York;NY;East Village;South American;$;91 E 7th St
Carmine's;2450 Broadway;New York;NY;Midtown West;Italian;$$;2450 Broadway
Carnegie Deli;854 7th Ave;New York;NY;Midtown West;Deli;$;854 7th Ave
Casa;72 Bedford St;New York;NY;West Village;South American;$$;72 Bedford St
Casa La Femme North;1076 First Ave;New York;NY;Midtown East;African;$$$;1076 1st Avenue
Casa Mono;125 East 17th;New York;NY;Gramercy Park;Spanish;$$$;125 E 17th St
Casimir;103-105 Ave B;New York;NY;East Village;French;$$;103 Avenue B
Caterina's;316 East 53rd Street;New York;NY;Midtown East;Hungarian;$$$;316 E 53rd St
Celeste;502 Amsterdam Ave;New York;NY;Upper West Side;Italian;$$;502 Amsterdam Ave
Cellini Restaurant;65 E 54th St;New York;NY;Midtown East;Italian;$$$;65 E 54th St
Cendrillon;45 Mercer St;New York;NY;SOHO;Southeast Asian;$$;45 Mercer St
Central Park Boathouse;Enter on E 72nd St;New York;NY;;;;Enter on E 72nd St
Cercle Rouge;241 W Broadway;New York;NY;TriBeCa;American;$$$;241 W Broadway
Chanterelle;2 Harrison St;New York;NY;TriBeCa;French;$$$$$;2 Harrison St
Charlie Palmer's Metrazur;East Balcony #4, 404 Grand Central Terminal, 42nd Street;New York;NY;Midtown East;American;$$$;89 E 42nd St
Chat 'N Chew;10 E 16th St;New York;NY;Union Square;American;$;10 E 16th St
Chemist Club Grill;Dylan Hotel;New York;NY;Midtown East;American;$$$;52 E 41st St
Chennai Garden;129 E 27 St;New York;NY;Gramercy Park;Indian;$;129 E 27th St
Chez Jacqueline;72 Macdougal St;New York;NY;Greenwich Village;French;$$$;72 MacDougal St
Chikalicious Dessert Bar;203 E 10th St;New York;NY;East Village;American;$;203 E 10th St
Chimichurri Grill;606 9th Avenue;New York;NY;Midtown West;South American;$$$;606 9th Ave
Chin Chin;216 E 49th St;New York;NY;Midtown East;Chinese;$$$;216 E 49th St
China Fun;246 Columbus Ave;New York;NY;Upper West Side;Chinese;$;246 Columbus Ave
China Grill;60 W 53rd St;New York;NY;Midtown West;Asian;$$$$;60 W 53rd St
China de Puebla;3143 Broadway;New York;NY;Harlem;Asian;;3143 Broadway
Chinatown Brasserie;380 Lafayette St;New York;NY;NoLita;Chinese;$$$;380 Lafayette St
Chino's;173 Third Ave;New York;NY;Gramercy Park;Asian;$;173 3rd Ave
Chipotle;100 Maiden Ln.;New York;NY;Financial District;Mexican;$;100 Maiden Ln
Chiyono;328 E. Sixth St.;New York;NY;;Japanese;$$;328 E 6th St
Cho Dang Gol;55 W 35th St;New York;NY;Midtown West;Korean;$;55 W 35th St
Chocolate Bar;48 8th Ave;New York;NY;Greenwich Village;Dessert;$$$;48 8th Ave
Chola;232 E 58th St;New York;NY;Midtown East;Indian;$$;232 E 58th St
Choshi Restaurant;77 Irving Pl;New York;NY;Greenwich Village;Japanese;$$;77 Irving Pl
Chow Bar;230 W Fourth St;New York;NY;West Village;Asian;$$;230 West 4th Street
Churrascaria Plataforma Ny;316 W 49th Street;New York;NY;Midtown West;South American;$$$;316 W 49th St
Cibo;767 Second Avenue;New York;NY;Midtown East;American;$$$;767 2nd Ave
Cilantro;1712 2nd Ave;New York;NY;Upper East Side;Southwestern;$;1712 2nd Ave
Cinema Cafe On 34th;505 3rd Ave;New York;NY;;;;505 3rd Ave
Circus;132 E 61st St;New York;NY;Upper East Side;South American;$$$;132 E 61st St
Citrus Bar & Grill;320 Amsterdam Ave;New York;NY;Upper West Side;Asian;$$;320 Amsterdam Ave
City Bakery;3 W 18th St;New York;NY;Flatiron;American;$;3 W 18th St
City Burger;1410 Broadway;New York;NY;Midtown West;American;$$;1410 Broadway
City Crab & Seafood;235 Park Ave S;New York;NY;Lower East Side;Seafood;$$$;235 Park Ave S
City Hall;131 Duane St;New York;NY;TriBeCa;Seafood;$$$;131 Duane St
Coffee Shop;29 Union Square West;New York;NY;Union Square;American;$;29 Union Square W
Colors;417 Lafayette St;New York;NY;East Village;International;$$$;417 Lafayette St
Columbus Bakery;474 Columbus Ave;New York;NY;;;;474 Columbus Ave
Comfort Diner;25 W 23rd St;New York;NY;Midtown East;American;$;25 W 23rd St
Compass;208 W 70th Street;New York;NY;Upper West Side;American;$$$;208 W 70th St
Convivio;45 Tudor City Pl;New York;NY;Midtown East;Italian;$$$$$;45 Tudor City Pl
Cookshop;156 10th Ave;New York;NY;Chelsea;American;$$$$;156 10th Ave
Coppola's Pizzeria Restaurant;206 W 79th St;New York;NY;Upper West Side;Italian;$$;206 W 79th St
Cornelia Street Cafe;29 Cornelia Street;New York;NY;Greenwich Village;American;$$$;29 Cornelia St
Corner Bistro;331 W 4th St;New York;NY;West Village;American;$;331 West 4th Street
Cosette;163 E 33rd St;New York;NY;Murray Hill;French;$$;163 E 33rd St
Cosi;53 E. Eighth St.;New York;NY;Greenwich Village;American;$;53 E 8th St
Counter;105 First Ave;New York;NY;East Village;Vegetarian;$$;105 1st Avenue
Country;90 Madison Ave, 2nd Fl;New York;NY;Gramercy Park;American;$$$$;90 Madison Ave 2nd Fl
Cowgirl;519 Hudson Street;New York;NY;West Village;Southwestern;$;519 Hudson St
Craft;43 E 19th St;New York;NY;Union Square;American;$$$$$;43 E 19th St
Craftbar;900 Broadway;New York;NY;Flatiron;American;$$$;900 Broadway
Craftsteak;85 10th Ave;New York;NY;Chelsea;Steakhouse;$$$$$;85 10th Ave
Crema Restaurante;111 West 17th Street;New York;NY;Chelsea;Mexican;$$$;111 W 17th St
Creole;2167 Third Ave;New York;NY;Harlem;Creole-Cajun;$$;2167 3rd Ave
Crisp;684 3rd Ave;New York;NY;Midtown East;Middle Eastern;$$;684 3rd Ave
Crispo;240 W 14th St;New York;NY;West Village;Italian;$$$;240 W 14th St
Crooked Knife;29 E. 30th Street;New York;NY;Murray Hill;British;$$;29 E 30th St
Cru;24 Fifth Ave;New York;NY;Greenwich Village;Mediterranean;$$$$;24 5th Ave
Crumbs Bake Shop;1371 3rd Ave;New York;NY;;;;1371 3rd Ave
Cuba;222 Thompson Street;New York;NY;Greenwich Village;Cuban;$$;222 Thompson St
Cuba Cafe;200 Eighth Ave;New York;NY;Chelsea;Cuban;$;200 8th Ave
Cubana Cafe;110 Thompson St;New York;NY;Greenwich Village;Cuban;$;110 Thompson St
Cube 63;63 Clinton St;New York;NY;Lower East Side;Japanese;$$;63 Clinton St
Cucina Di Pesce;87 E 4th St;New York;NY;East Village;Italian;$;87 E 4th St
Da Andrea;557 Hudson St;New York;NY;West Village;Italian;$$;557 Hudson St
Da Antonio;157 E 55th St;New York;NY;Midtown East;Italian;$$$$;157 E 55th St
Da Ciro;229 Lexington Ave;New York;NY;Murray Hill;Italian;$$;229 Lexington Ave
Da Nico;164 Mulberry St.;New York;NY;;Italian;$$;164 Mulberry St
Da Silvano;260 6th Avenue;New York;NY;Greenwich Village;Italian;$$$;260 6th Ave
Da Umberto;107 West 17th Street;New York;NY;;Italian;$$$;107 W 17th St
Dallas Bbq;27 W 72nd St;New York;NY;Upper West Side;American;$;27 W 72nd St
Danal;90 E 10th St;New York;NY;East Village;French;$$;90 E 10th St
Daniel;60 E 65th St;New York;NY;Upper East Side;French;$$$$$;60 E 65th St
Danube;30 Hudson St;New York;NY;TriBeCa;Austrian;$$$$$;30 Hudson St
David Burke at Bloomingdales;1000 Third Avenue;New York;NY;;American;$$$;1000 3rd Ave
Davidburke & Donatella;133 E 61st St;New York;NY;Upper East Side;American;$$$$;133 E 61st St
Dawat;210 E 58th St;New York;NY;Midtown East;Indian;$$$;210 E 58th St
DeGrezia;231 E 50th St;New York;NY;Midtown East;Italian;$$$;231 E 50th St
Degustation;239 E Fifth St;New York;NY;East Village;Spanish;$$$;239 E 5th St
Del Frisco's;1221 Sixth Ave;New York;NY;Midtown West;Steakhouse;$$$$;1221 6th Ave
Del Posto;85 10th Ave;New York;NY;Chelsea;Italian;$$$$$;85 10th Ave
Delmonico's;56 Beaver Street;New York;NY;Financial District;American;$$$$$;56 Beaver St
Delta Grill;700 Ninth Ave;New York;NY;Midtown West;Creole-Cajun;$$;700 9th Ave
Demarchelier;50 E. 86th St.;New York;NY;;;;50 East 86th St
Dervish Turkish;146 West 47th Street;New York;NY;Midtown West;Middle Eastern;$$;146 W 47th St
Desnuda;122 E 7th St;New York;NY;East Village;Seafood;$$$;122 E 7th St
Devi;8 E 18th St;New York;NY;Flatiron;Indian;$$$$;8 E 18th St
Dim Sum Go Go;5 E Broadway;New York;NY;Chinatown;Chinese;$;5 E Broadway
Dinosaur Bar-B-Que;646 W 131st St;New York;NY;Harlem;American;$;646 W 131st St
Ditch Plains;29 Bedford St.;New York;NY;;;;29 Bedford St
Diva;341 W Broadway;New York;NY;SOHO;Italian;$$$;341 W Broadway
Django;480 Lexington Avenue;New York;NY;Midtown East;French;$$$;480 Lexington Ave
Do Hwa;55 Carmine St;New York;NY;Greenwich Village;Korean;$$;55 Carmine St
Dok Suni;119 First Ave;New York;NY;East Village;Korean;$$;119 1st Avenue
Dolce Vita;181 Grand Street;New York;NY;;;;181 Grand St
Don Giovanni Ristorante;214 Tenth Avenue;New York;NY;Chelsea;Italian;$;214 Amsterdam Ave
Don Pedro's;1865 Second Ave;New York;NY;Upper East Side;Caribbean;$$;1865 2nd Ave
Donguri;309 E 83rd St;New York;NY;Upper East Side;Japanese;$$$;309 E 83rd St
Dos Caminos;825 Third Ave.;New York;NY;;Mexican;$$$;825 3rd Ave
Dos Caminos Park;373 Park Ave South;New York;NY;Gramercy Park;Mexican;$$;373 Park Ave S
Dos Caminos Soho;475 West Broadway;New York;NY;SOHO;Mexican;$$$;475 W Broadway
Doyers Vietnamese;11-13 Doyers St;New York;NY;Chinatown;Asian;$;11 Doyers St #13
Duane Park Cafe;157 Duane St;New York;NY;TriBeCa;American;$$$;157 Duane St
Duke's;99 E. 19th St.;New York;NY;;Barbecue;$$$;99 E 19th St
Dylan Prime;62 Laight St;New York;NY;TriBeCa;Steakhouse;$$$$$;62 Laight St
E.A.T.;1064 Madison Avenue;New York;NY;Upper East Side;American;$$;1064 Madison Ave
East Of Eighth;254 West 23rd St;New York;NY;;;;254 W 23rd St
Eatery;798 9th Ave;New York;NY;Midtown West;American;$;798 9th Ave
Eight Mile Creek;240 Mulberry St;New York;NY;Little Italy;Australian;$$;240 Mulberry St
El Charro Espanol;4 Charles St;New York;NY;Greenwich Village;Spanish;$$$;4 Charles St
El Faro;823 Greenwich St;New York;NY;West Village;Spanish;$$;823 Greenwich St
El Malecon;4141 Broadway;New York;NY;Harlem;Caribbean;$;4141 Broadway
El Parador Cafe;325 E 34th St;New York;NY;Murray Hill;Mexican;$$;325 E 34th St
El Pote;718 2nd Ave;New York;NY;Murray Hill;Spanish;$$;718 2nd Ave
El Quijote;226 W 23rd St;New York;NY;Chelsea;Spanish;$$;226 W 23rd St
El Rio Grande;160 East 38th Street;New York;NY;Midtown East;Southwestern;$$$;160 E 38th St
Elaine's Restaurant;1703 Second Ave;New York;NY;Upper East Side;American;$$$;1703 2nd Ave
Elephant;The, 58 E First St;New York;NY;East Village;French;$$;58 E 1st St
Eleven Madison Park;11 Madison Ave;New York;NY;Gramercy Park;American;$$$$$;11 Madison Ave
Elmo;156 Seventh Ave;New York;NY;Chelsea;American;$$;156 7th Ave
Emack & Bolio's;389 Amsterdam Ave;New York;NY;Upper West Side;American;$;389 Amsterdam Ave
Employees Only;510 Hudson St;New York;NY;West Village;European;$$$;510 Hudson St
En Japanese Brasserie;435 Hudson St;New York;NY;West Village;Japanese;$$$;435 Hudson St
Epicerie;170 Orchard St;New York;NY;East Village;French;$$;170 Orchard St
Epices Inc;103 W 70th St;New York;NY;Upper West Side;Mediterranean;$$;103 W 70th St
Erminia;250 E 83rd St;New York;NY;Upper East Side;Italian;$$$;250 E 83rd St
Esca;402 W 43rd St;New York;NY;Midtown West;Italian;$$$$;402 W 43rd St
Esperanto;145 Ave C;New York;NY;East Village;Nuevo Latino;$$;145 Loisaida Ave
Espn Zone;1472 Broadway;New York;NY;Midtown West;American;$;1472 Broadway
Essex;120 Essex St;New York;NY;Lower East Side;American;$;120 Essex St
Estancia 460;460 Greenwich St;New York;NY;Midtown West;Argentinean;$$;460 Greenwich St
Estiatorio Milos;125 West 55th Street;New York;NY;Midtown West;Greek;$$$$;125 W 55th St
Etats-Unis;242 E 81st St;New York;NY;Upper East Side;American;$$$;242 E 81st St
Etcetera Etcetera;352 W 44th St;New York;NY;Theater;Italian;$;352 W 44th St
Ethiopian Restaurant;The, 1582 York Ave;New York;NY;Upper East Side;African;$;1582 York Ave
Eva's Health Food;11 W. 8th Street;New York;NY;;;;11 W 8th St
Extra Virgin;259 W 4th St;New York;NY;West Village;Mediterranean;$$;259 West 4th Street
F.illi Ponte;39 Desbrosses St.;New York;NY;;Italian;$$$$;39 Desbrosses St
FR.OG;71 Spring Street;New York;NY;SOHO;French;$$$;71 Spring St
Falai;68 Clinton St;New York;NY;Lower East Side;Italian;$$$;68 Clinton St
Fat Hippo;71 Clinto St.;New York;NY;;;;71 Clinton St
Fatty Crab;643 Hudson Street;New York;NY;Meatpacking District;Indonesian;$$;643 Hudson St
Felidia;243 East 58th Street;New York;NY;Midtown East;Italian;$$$$;243 E 58th St
Felix;340 W Broadway;New York;NY;SOHO;French;$$;340 W Broadway
Fiamma Osteria;206 Spring Street;New York;NY;SOHO;Italian;$$$;206 Spring St
Fig & Olive Kitchen & Tasting Bar;808 Lexington Ave;New York;NY;Upper East Side;Mediterranean;$$;808 Lexington Ave
Fig and Olive Downton;420 W. 13th Street;New York;NY;Meatpacking District;Mediterranean;$$$;420 W 13th St
Film Center Cafe;635 9th Avenue;New York;NY;Midtown West;American;$$;635 9th Ave
Fish;280 Bleecker St;New York;NY;Greenwich Village;Seafood;$$;280 Bleecker St
Five Points;31 Great Jones Street;New York;NY;NoLita;American;$$$;31 Great Jones St
Flea Market Cafe;131 Ave A;New York;NY;East Village;French;$;131 Avenue A
Fleur De Sel;5 E 20th St;New York;NY;Flatiron;French;$$$$$;5 E 20th St
Flor De Mayo;484 Amsterdam Ave;New York;NY;Upper West Side;Chinese;$;484 Amsterdam Ave
Florent;69 Gansevoort St;New York;NY;Meatpacking District;American;$;69 Gansevoort St
Forge;134 Reade St;New York;NY;TriBeCa;American;$$$$;134 Reade St
Franchia Teahouse & Restaurant;12 Park Ave;New York;NY;Murray Hill;Korean;$$;12 Park Ave
Francisco's Centro Vasco;159 W 23rd St;New York;NY;;;;159 W 23rd St
Frank Restaurant;88 Second Ave;New York;NY;East Village;Italian;$;88 2nd Ave
Frank's;410 W 16th St;New York;NY;Chelsea;Italian;$$$;410 W 16th St
Frankie & Johnnie's Steakhouse;32 W 37th St;New York;NY;Midtown West;Steakhouse;$$$;32 W 37th St
Frankie & Johnnie's Steakhouse;269 West 45th Street;New York;NY;Midtown West;Steakhouse;$$$;269 W 45th St
Fred's Restaurant;476 Amsterdam Ave;New York;NY;;;;476 Amsterdam Ave
Frederick's;8 West 58th Street;New York;NY;Midtown West;Asian;$$$;8 W 58th St
Frederick's Madison;768 Madison Ave;New York;NY;Upper East Side;Mediterranean;$$$$;768 Madison Ave
Freeman;Freeman Alley;New York;NY;Lower East Side;American;$$;Freeman Alley
French Roast;2340 Broadway;New York;NY;Upper West Side;Breakfast;$;2340 Broadway
Fresco by Scotto;34 E 52nd St;New York;NY;Midtown East;Italian;$$$;34 E 52nd St
Fresh;105 Reade St;New York;NY;TriBeCa;Seafood;$$$;105 Reade St
Friend Of a Farmer;77 Irving Pl;New York;NY;Gramercy Park;American;$;77 Irving Pl
Funky Diner;466 Columbus Ave.;New York;NY;Upper West Side;American;$;466 Columbus Ave
Gabriel's Bar & Restaurant;11 W 60th St;New York;NY;Upper West Side;Italian;$$$;11 W 60th St
Gabriela's;688 Columbus Avenue;New York;NY;Upper West Side;Mexican;$$;688 Columbus Ave
Gallaghers;228 W 52nd St;New York;NY;Midtown West;Steakhouse;$$$$;228 W 52nd St
Gammeeok Restaurant;43 W 32nd St;New York;NY;Midtown West;Korean;$;43 W 32nd St
Garage Restaurant and Cafe;99 7th Avenue;New York;NY;Chelsea;American;$$$;99 7th Ave
Gari;370 Columbus Ave;New York;NY;Upper West Side;Sushi;$$$$$;370 Columbus Ave
Gascogne;158 8th Avenue;New York;NY;Chelsea;French;$$$;158 8th Ave
Gaucho Steak Co.;752 10th Ave.;New York;NY;;Argentinean;$$;752 10th Ave
Gavroche;212 W 14th St;New York;NY;West Village;French;$$$;212 W 14th St
Geisha;33 E 61st St;New York;NY;Upper East Side;Japanese;$$$$;33 E 61st St
Gennaro;665 Amsterdam Ave;New York;NY;Upper West Side;Italian;$$;665 Amsterdam Ave
Ghenet Restaurant;284 Mulberry St;New York;NY;NoLita;African;$;284 Mulberry St
Ginger;1400 Fifth Ave;New York;NY;Upper East Side;Chinese;$;1400 5th Ave
Giorgione 508;508 Greenwich St;New York;NY;SOHO;Continental;$$$;508 Greenwich St
Gobo;1426 Third Ave.;New York;NY;;Vegetarian;$$;1426 3rd Ave
Golden Unicorn;18 E Broadway;New York;NY;;;;18 E Broadway
Gonzalez Y Gonzalez;625 Broadway;New York;NY;SOHO;Mexican;$$$;625 Broadway
Good;89 Greenwich St;New York;NY;West Village;American;$$;89 Greenwich St
Good Enough To Eat;483 West Amsterdam Avenue;New York;NY;Upper West Side;American;$;483 Amsterdam Ave
Goodies;1 E Broadway;New York;NY;Chinatown;Chinese;$;1 E Broadway
Gordon Ramsay;The London NYC;New York;NY;Midtown West;French;$$$$$;151 W 54th St
Gotham Bar & Grill;12 E 12th St;New York;NY;Greenwich Village;American;$$$$;12 E 12th St
Grace's Trattoria Cafe & Grill;201 E 71st St;New York;NY;Upper East Side;Italian;$$$;201 E 71st St
Gramercy Tavern;42 E 20th St;New York;NY;Union Square;American;$$$$;42 E 20th St
Grand Central Oyster Bar/Saloon;89 E 42nd Street, Grand Central Terminal (Lower L;New York;NY;Midtown West;Seafood;$$;89 E 42nd St
Gray's Papaya;539 8th Avenue;New York;NY;Hell's Kitchen;Fast Food;$;539 8th Ave
Gray's Papaya;2090 Broadway;New York;NY;Upper West Side;American;$;2090 Broadway
Great Jones Cafe;54 Great Jones St;New York;NY;NoLita;Southern;$;54 Great Jones St
Great N.Y. Noodle Town;28 Bowery;New York;NY;Chinatown;Chinese;$;28 Bowery
Greenwich Grill;428 Greenwich St;New York;NY;TriBeCa;Californian;$$$;428 Greenwich St
Grey Dog's Coffee Ltd;33 Carmine St;New York;NY;Greenwich Village;American;$;33 Carmine St
Grifone Restaurant;244 E 46th St;New York;NY;Midtown East;Italian;$$$;244 E 46th St
Grotto Azzurra;177 Mulberry St;New York;NY;Little Italy;Italian;$$$;177 Mulberry St
Gus's Place;192 Bleecker Street;New York;NY;Greenwich Village;Greek;$;192 Bleecker St
Gyu-Kaku;805 3rd Ave;New York;NY;Midtown East;Japanese;$$;805 3rd Ave
Gyu-Kaku Japanese;34 Cooper Square;New York;NY;East Village;Japanese;$$;34 Cooper Sq
HQ;90 Thompson St;New York;NY;;;;90 Thompson St
Hallo Berlin;626 10th Ave.;New York;NY;;German;$;626 10th Ave
Hangawi;12 E 32nd Street;New York;NY;Murray Hill;Korean;$$$;12 E 32nd St
Haru;433 Amsterdam Ave;New York;NY;Upper West Side;Japanese;$$;433 Amsterdam Ave
Haru Japanese;205 West 43rd St;New York;NY;Midtown West;Japanese;$$;205 W 43rd St
Haru-Park Ave.;280 Park Ave;New York;NY;Flatiron;Sushi;$$;280 Park Ave
Hasaki;210 E Ninth St;New York;NY;East Village;Sushi;$$;210 E 9th St
Hatsuhana;237 Park Ave;New York;NY;Midtown East;Sushi;$$$$;237 Park Ave
Havana Alma De Cuba;94 Christopher St;New York;NY;West Village;Cuban;$$;94 Christopher St
Havana Central;151 W 46th Street;New York;NY;Midtown West;Cuban;$$;151 W 46th St
Havana Central - Union Square;22 E 17th St;New York;NY;Union Square;Cuban;$$;22 E 17th St
Haveli;100 Second Ave;New York;NY;East Village;Indian;$$;100 2nd Ave
Hea;145 E. 13th St.;New York;NY;East Village;Pan-Asian;$$$;145 E 13th St
Hearth;403 E 12th St;New York;NY;East Village;American;$$$$;403 E 12th St
Heartland Brewery;1285 Sixth Ave;New York;NY;Midtown West;American;$$;1285 6th Ave
Hedeh;57 Great Jones St;New York;NY;NoLita;Sushi;$$$;57 Great Jones St
Heidelberg;1648 2nd Ave;New York;NY;Upper East Side;German;$$;1648 2nd Ave
Hell's Kitchen;679 Ninth Ave;New York;NY;Midtown West;Mexican;$$$;679 9th Ave
Highline;835 Washington St;New York;NY;Meatpacking District;Asian;$$;835 Washington St
Hill Country;30 W. 26th St.;New York;NY;Chelsea;Barbecue;$$;30 W 26th St
Hispaniola;839 W 181st St;New York;NY;Harlem;Asian;$$;839 W 181st St
Holy Basil;149 Second Ave;New York;NY;East Village;Asian;$;149 2nd Ave
Home;20 Cornelia St;New York;NY;Greenwich Village;American;$$;20 Cornelia St
Houston's;378 Park Ave. S.;New York;NY;;American;$$;378 Park Ave S
Houston's Restaurant;153 E 53rd St;New York;NY;Midtown East;American;$$;153 E 53rd St
Hsf;46 Bowery;New York;NY;Chinatown;Chinese;$;46 Bowery
Hudson Cafeteria;356 West 58th Street;New York;NY;Midtown West;American;$$$;356 W 58th St
Hudson River Café;697 West 133rd ST.;New York;NY;Harlem;American;$$;697 W 133rd St
Hummus Place;109 St. Marks Pl.;New York;NY;;;;109 St Marks Pl
Hunan Park Restaurant;235 Columbus Ave;New York;NY;;;;235 Columbus Ave
I Coppi;432 E Ninth St;New York;NY;East Village;Italian;$$$;432 E 9th St
I Sodi;105 Christopher St;New York;NY;Greenwich Village;Italian;$$$;105 Christopher St
I Tre Merli;463 W Broadway;New York;NY;SOHO;Italian;$$$;463 W Broadway
I Trulli;122 E 27th St;New York;NY;Gramercy Park;Italian;$$$;122 E 27th St
Icon;130 E 39th Street;New York;NY;Midtown East;American;$$$;130 E 39th St
Ideya;349 W Broadway;New York;NY;SOHO;Caribbean;$$;349 W Broadway
Iguana;240 W 54th St;New York;NY;;;;240 W 54th St
Il Bagatto;192 E Second St;New York;NY;East Village;Italian;$$;192 E 2nd St
Il Bastardo;191 Seventh Ave;New York;NY;Chelsea;Steakhouse;$$$;191 7th Ave
Il Brigante;214 Front St.;New York;NY;Financial District;Italian;$$;214 Front St
Il Buco;47 Bond St;New York;NY;NoLita;Italian;$$$;47 Bond St
Il Cantinori;32 East 10th St;New York;NY;Greenwich Village;Italian;$$$$;32 E 10th St
Il Cortile;125 Mulberry St;New York;NY;Little Italy;Italian;$$$;125 Mulberry St
Il Gattopardo;33 W 54th St;New York;NY;Midtown West;Italian;$$$;33 W 54th St
Il Giglio;81 Warren St;New York;NY;TriBeCa;Italian;$$$$;81 Warren St
Il Mulino;86 W 3rd St;New York;NY;Greenwich Village;Italian;$$$$;86 W 3rd St
Il Valentino;330 East 56th Street;New York;NY;Midtown East;Italian;$$$;330 E 56th St
Inagiku;111 East 49th Street;New York;NY;Midtown East;Sushi;$$$$;111 E 49th St
Indochine;430 Lafayette St;New York;NY;East Village;French;$$$;430 Lafayette St
Indus Valley;2636 Broadway;New York;NY;Upper West Side;Indian;$$;2636 Broadway
Industria Argentina;329 Greenwich St.;New York;NY;;Argentinean;$$$;329 Greenwich St
Inn LW12;7 Ninth Avenue;New York;NY;Meatpacking District;British;$$$;7 9th Ave
Insieme;777 Seventh Avenue;New York;NY;Midtown West;Italian;$$$$;777 7th Ave
Ippudo;65 4th Ave;New York;NY;East Village;Japanese;$$$;65 4th Ave
Isabella's;359 Columbus Ave;New York;NY;Upper West Side;American;$$;359 Columbus Ave
Island Burgers & Shakes;766 9th Ave;New York;NY;Midtown West;American;$;766 9th Ave
It's A Dominican Thing;144 W 19th St;New York;NY;Chelsea;Caribbean;$;144 W 19th St
Ithaka;308 E 86th St;New York;NY;Upper East Side;Greek;$$$;308 East 86th St
Ivo & Lulu;558 Broome St;New York;NY;SOHO;Caribbean;$;558 Broome St
Jack's Luxury Oyster Bar;246 E Fifth St;New York;NY;East Village;Continental;$$$$;246 E 5th St
Jacks Bar and Restaurant;147West 40th Street;New York;NY;Theater;American;$$$;147 W 40th St
Jackson Hole;232 E 64th St;New York;NY;;;;232 E 64th St
Jacques-Imo's;366 Columbus Ave;New York;NY;Upper West Side;Creole-Cajun;$$;366 Columbus Ave
Jaipur's;1007 2nd Avenue;New York;NY;Midtown East;Indian;$;1007 2nd Ave
Jane;100 W Houston St;New York;NY;Greenwich Village;American;$$$;100 W Houston St
Japonica;100 University Pl;New York;NY;Greenwich Village;Sushi;$$$;100 University Pl
Jarnac;328 W 12th St;New York;NY;West Village;French;$$$;328 W 12th St
Jean Georges;1 Central Park W;New York;NY;Upper West Side;French;$$$$$;1 Central Park West
Jekyll & Hyde Club;1409 Ave Of The Americas;New York;NY;Greenwich Village;American;$$;1409 6th Ave
Jerry's;101 Prince St;New York;NY;SOHO;American;$$;101 Prince St
Jewel Of India;15 W 44th St;New York;NY;Midtown West;Indian;$$;15 W 44th St
Jezebel;630 Ninth Ave;New York;NY;Midtown West;Southern;$$$;630 9th Ave
JoJo;160 E 64th St;New York;NY;Upper East Side;French;$$$$;160 E 64th St
Joe's Pizza;7 Carmine St;New York;NY;Greenwich Village;Pizza;$;7 Carmine St
Joe's Shanghai Restaurant;St Pell St Fl 1;New York;NY;Midtown West;Chinese;$;St Pell St Fl 1
John's Of 12th Street;302 E 12th St;New York;NY;East Village;Italian;$$;302 E 12th St
John's Pizzeria;408 E 64th St;New York;NY;Upper East Side;Pizza;$;408 E 64th St
Johnny Utah's;25 W. 51st St.;New York;NY;;;;25 W 51st St
Joseph's Restaurant;St Hanover Sq;New York;NY;Wall Street;Italian;$$$;Hanover Square
Josie's;300 Amsterdam Avenue;New York;NY;Upper West Side;International;$$;300 Amsterdam Ave
Jules;65 St Marks Pl;New York;NY;East Village;French;$$;65 St Marks Pl
Kabab Factory;101 Lexington Avenue;New York;NY;Murray Hill;Indian;$$;101 Lexington Ave
Kai;822 Madison Ave;New York;NY;Upper East Side;Japanese;$$$$;822 Madison Ave
Kaijou;21 South End Street;New York;NY;Financial District;Japanese;$$;21 South End Ave
Kampuchea;78 Rivington St.;New York;NY;;Cambodian;;78 Rivington St
Kang Such Restaurant;1250 Broadway;New York;NY;Midtown West;Korean;$$;1250 Broadway
Kanoyama;175 Second Ave;New York;NY;East Village;Sushi;$$;175 2nd Ave
Katz's Delicatessen;205 East Houston Street;New York;NY;Lower East Side;Deli;$;205 E Houston St
Keens Steakhouse;72 W 36th St;New York;NY;Midtown West;Steakhouse;$$$;72 W 36th St
Kefi;222 W. 79th St.;New York;NY;Upper West Side;Greek;$$$;222 W 79th St
Kellari Taverna;19 W 44th St;New York;NY;Midtown West;Greek;$$;19 W 44th St
Kelley & Ping;127 Greene St;New York;NY;SOHO;Asian;$;127 Greene St
Kin Khao;171 Spring Street;New York;NY;SOHO;Asian;$$;171 Spring St
Kings' Carriage House;251 E 82nd St;New York;NY;Upper East Side;Continental;$$$;251 E 82nd St
Kinoko Japanese Restaurant;165 W 72nd Street;New York;NY;;Japanese;$$;165 W 72nd St
Kittichai;60 Thompson St;New York;NY;SOHO;Thai;$$$$;60 Thompson St
Klee Brasserie;200 9th Avenue;New York;NY;Chelsea;American;$$$;200 9th Ave
Klong;7 St Marks Pl;New York;NY;East Village;Asian;$;7 St Marks Pl
Knickerbocker Bar & Grill;33 University Pl;New York;NY;Greenwich Village;American;$$$;33 University Pl
Koi;40 W 40th St;New York;NY;Midtown West;Asian;$$$$;40 W 40th St
Kori;253 Church St;New York;NY;TriBeCa;Korean;$$;253 Church St
Kum Gang San;49 W 32nd St;New York;NY;Midtown West;Korean;$$;49 W 32nd St
Kuma Inn;113 Ludlow St;New York;NY;Lower East Side;Southeast Asian;$$;113 Ludlow St
Kuruma Zushi;7 E 47th St, 2nd Fl;New York;NY;Midtown East;Sushi;$$$$$;7 E 47th St 2nd Fl
Kwik Meal;Food Cart;New York;NY;Theater;Middle Eastern;$;Food Cart
Kyma;300 W 46th St;New York;NY;Midtown West;Greek;$$$;300 W 46th St
Kyo Ya;94 E 7th St;New York;NY;East Village;Japanese;$$$$;94 E 7th St
L'Allegria;623 9th Ave;New York;NY;Theater;Italian;$$;623 9th Ave
L'Atelier de Joel Robuchon;57 E. 57th Street;New York;NY;Midtown East;French;$$$$$;57 E 57th St
L'Ecole;462 Broadway;New York;NY;SOHO;French;$$$;462 Broadway
L'Entrecote;1057 First Ave.;New York;NY;;;;1057 1st Avenue
L'Impero - CLOSED;45 Tudor City Pl;New York;NY;Midtown East;Italian;$$$$;45 Tudor City Pl
La Belle Vie;184 Eighth Ave;New York;NY;Chelsea;French;$$;184 8th Ave
La Bergamote;169 Ninth Ave;New York;NY;Chelsea;French;$;169 9th Ave
La Boite En Bois;75 W 68th St;New York;NY;Upper West Side;French;$$$;75 W 68th St
La Goulue;746 Madison Ave;New York;NY;Upper East Side;French;$$$;746 Madison Ave
La Grenouille;3 E 52nd St;New York;NY;Midtown East;French;$$$$;3 E 52nd St
La Grolla;413 Amsterdam Ave;New York;NY;;;;413 Amsterdam Ave
La Lunchonette;130 10th Ave;New York;NY;Chelsea;French;$$;130 10th Ave
La Mela Ristorante;167 Mulberry St;New York;NY;Little Italy;Italian;$$;167 Mulberry St
La Paella;214 E Ninth St;New York;NY;East Village;Spanish;$$;214 E 9th St
La Palapa;77 St Marks Pl;New York;NY;Greenwich Village;Mexican;$$;77 St Marks Pl
La Pizza Fresca Ristorante;31 E 20th St;New York;NY;Union Square;Italian;$$;31 E 20th St
La Taza De Oro;96 Eighth Ave;New York;NY;Chelsea;Caribbean;$;96 8th Ave
La Tour;1319 3rd Ave.;New York;NY;;French;$$$$;1319 3rd Ave
La Vela;373 Amsterdam Ave;New York;NY;Upper West Side;Italian;$$;373 Amsterdam Ave
La Vineria;737 9th Ave.;New York;NY;;;;737 9th Ave
Lan;56 Third Ave;New York;NY;East Village;Sushi;$$;56 3rd Ave
Land;450 Amsterdam Ave;New York;NY;;;;450 Amsterdam Ave
Land Thai Kitchen;450 Amsterdam Ave;New York;NY;Upper West Side;Thai;$$;450 Amsterdam Ave
Land Thai Kitchen;1565 Second Avenue;New York;NY;;;;1565 2nd Ave
Landmarc;10 Columbus Circle, 3rd floor;New York;NY;Upper West Side;French;$$$;10 Columbus Cir 3rd floor
Landmarc;179 W Broadway;New York;NY;Gramercy Park;French;$$$;179 W Broadway
Lasagna Ristorante;785 9th ave;New York;NY;Hell's Kitchen;Italian;$$;785 9th Ave
Lavagna;545 E. Fifth St.;New York;NY;;Italian;$$$;545 E 5th St
Le Bernardin;155 W 51st St;New York;NY;Midtown West;Seafood;$$$$$;155 W 51st St
Le Bilboquet;25 E 63rd St;New York;NY;Upper East Side;French;$$$;25 E 63rd St
Le Boeuf a La Mode;539 E 81st St;New York;NY;Upper East Side;French;$$$;539 E 81st St
Le Gamin;522 Hudson St;New York;NY;West Village;French;$;522 Hudson St
Le Gigot;18 Cornelia St;New York;NY;Greenwich Village;French;$$$;18 Cornelia St
Le Jardin Bistro;25 Cleveland Pl;New York;NY;NoLita;French;$$$;25 Cleveland Pl
Le Madeleine;403 W 43rd Street;New York;NY;Midtown West;French;$$$;403 W 43rd St
Le Miu;107 Ave. A;New York;NY;;Sushi;$$$;107 Avenue A
Le Monde;2885 Broadway;New York;NY;Harlem;French;$$;2885 Broadway
Le Pere Pinard;175 Ludlow St;New York;NY;Lower East Side;French;$$;175 Ludlow St
Le Perigord;405 E 52nd St (Between Fdr Dr & 1st Avenue);New York;NY;Midtown East;French;$$$;405 E 52nd St
Le Souk;47 Ave B;New York;NY;Midtown East;African;$$;47 Avenue B
Le Zie 2000;172 Seventh Ave;New York;NY;Chelsea;Italian;$$;172 7th Ave
Leela Lounge;1 W. Third St.;New York;NY;;Indian;$$;1 W 3rd St
Les Enfants Terribles;37 Canal St;New York;NY;Lower East Side;African;$$;37 Canal St
Les Halles;411 Park Ave S;New York;NY;Gramercy Park;French;$$$;411 Park Ave S
Les Halles;15 John St;New York;NY;Financial District;French;$$$;15 John St
Lima's Taste;122 Christopher St;New York;NY;West Village;South American;$;122 Christopher St
Lime Leaf;2799 Broadway;New York;NY;;;;2799 Broadway
Lisca;660 Amsterdam Ave;New York;NY;;;;660 Amsterdam Ave
Little Giant;85 Orchard St;New York;NY;Lower East Side;American;$$$$;85 Orchard St
Little Owl;90 Bedford Street;New York;NY;West Village;American;$$$;90 Bedford St
Little Pie Company;Grand Central Station;New York;NY;Midtown East;Bakery;$;89 E 42nd St
Loft;505 Columbus Ave;New York;NY;Upper West Side;Mediterranean;$$;505 Columbus Ave
Lombardi's;32 Spring St;New York;NY;NoLita;Pizza;$;32 Spring St
Lomito;300 Spring St;New York;NY;SOHO;Argentinean;$$$;300 Spring St
Londel's Supper Club;2620 Frederick Douglas Blvd;New York;NY;Harlem;Southern;$$;2620 Frederick Douglass Blvd
London Bar;151 W. 54th Street;New York;NY;Midtown West;French;$$$$;151 W 54th St
Loreley;7 Rivington St.;New York;NY;;German;;7 Rivington St
Los Dos Molinos;119 E 18th St;New York;NY;Gramercy Park;Southwestern;$$;119 E 18th St
Loside;157 E Houston Street;New York;NY;Lower East Side;American;$;157 E Houston St
LuLu;235 Mulberry Street;New York;NY;;;;235 Mulberry St
Lucien;14 1st Ave;New York;NY;East Village;French;$$;14 1st Avenue
Lucy Latin Kitchen;35 E 18th St;New York;NY;Flatiron;Nuevo Latino;$$$;35 E 18th St
Lupa;170 Thompson St;New York;NY;Greenwich Village;Italian;$$$$;170 Thompson St
Lure;142 Mercer St, Downstairs;New York;NY;SOHO;Seafood;$$$$;142 Mercer St
Lusardi's;1494 Second Ave;New York;NY;Upper East Side;Italian;$$$$;1494 2nd Ave
Luzia's;429 Amsterdam Ave.;New York;NY;;;;429 Amsterdam Ave
Macelleria;48 Gansevoort St;New York;NY;Meatpacking District;Italian;$$$;48 Gansevoort St
Madison Bistro;238 Madison Ave;New York;NY;Murray Hill;French;$$$;238 Madison Ave
Mai House;186 Franklin Street;New York;NY;TriBeCa;Vietnamese;$$$;186 Franklin St
Malatesta Trattoria;649 Washington St;New York;NY;West Village;Italian;$$;649 Washington St
Maloney & Porcelli;37 E 50th St;New York;NY;Midtown East;Steakhouse;$$$$;37 E 50th St
Mama Mexico;214 E. 49th St.;New York;NY;;;;214 E 49th St
Mama! Mexico;2672 Broadway;New York;NY;Midtown East;Mexican;$$;2672 Broadway
Mama's Food Shop;200 E Third St;New York;NY;East Village;American;$;200 E 3rd St
Mamlouk;211 East 4th St;New York;NY;East Village;Middle Eastern;$$$;211 E 4th St
Mamoun's Falafel Restaurant;119 MacDougal St.;New York;NY;;;;119 MacDougal St
Mandarin Court;61 Mott St;New York;NY;Chinatown;Chinese;$;61 Mott St
Mandoo Bar;2 W 32nd St;New York;NY;Midtown West;Korean;$;2 W 32nd St
Mangia;50 W 57th St Fl 1;New York;NY;Midtown East;Italian;$;50 W 57th St Fl 1
Mara's Homemade;342 E Sixth St;New York;NY;East Village;Creole-Cajun;$$;342 E 6th St
Mare;198 Eighth Ave;New York;NY;Chelsea;Seafood;$$;198 8th Ave
Maremma;228 W 10th St;New York;NY;West Village;Italian;$$$;228 W 10th St
MarkJoseph Steakhouse;261 Water St;New York;NY;Financial District;Steakhouse;$$$$;261 Water St
Market Table;54 Carmine St;New York;NY;;American;$$$$;54 Carmine St
Markt;676 6th Avenue;New York;NY;Flatiron;Belgian;$$$;676 6th Ave
Maroons;244 W 16th St;New York;NY;Chelsea;Southern;$$;244 W 16th St
Marseille;630 Ninth Ave;New York;NY;Midtown West;French;$$$;630 9th Ave
Mary Anns Mexican Restaurant;1503 2nd Ave;New York;NY;;;;1503 2nd Ave
Mary's Fish Camp;64 Charles St;New York;NY;West Village;Seafood;$$;64 Charles St
Mas (farmhouse);39 Downing St;New York;NY;Greenwich Village;American;$$$$;39 Downing St
Masa;10 Columbus Circle;New York;NY;Upper West Side;Japanese;$$$$$;10 Columbus Cir
Matsuri;369 W 16th St;New York;NY;;;;369 W 16th St
Max;1274 Amsterdam Ave;New York;NY;East Village;Italian;$;1274 Amsterdam Ave
Maya;1191 First Avenue;New York;NY;Midtown East;Mexican;$$$$;1191 1st Avenue
Mccormick & Schmick's;1285 Sixth Ave;New York;NY;Midtown West;Seafood;$$$;1285 6th Ave
Mediterraneo;1260 Second Ave;New York;NY;Upper East Side;Italian;$$;1260 2nd Ave
Megu;62 Thomas St;New York;NY;TriBeCa;Japanese;$$$$$;62 Thomas St
Megu Midtown;845 United Nations Plaza;New York;NY;Midtown East;Japanese;$$$$$;845 United Nations Plaza
Meltemi;905 First Ave;New York;NY;Midtown East;Greek;$$$;905 1st Avenue
Mercadito;179 Ave B;New York;NY;East Village;Mexican;$$;179 Avenue B
Mercadito Grove;100 Seventh Ave S;New York;NY;West Village;Mexican;$$;100 7th Ave S
Mercat;45 Bond Street;New York;NY;SOHO;Spanish;$$$$;45 Bond St
Mercer Kitchen;99 Prince Street;New York;NY;SOHO;American;$$$$;99 Prince St
Mermaid Inn;96 Second Ave;New York;NY;East Village;Seafood;$$$;96 2nd Ave
Mesa Grill;102 5th Ave;New York;NY;Flatiron;Southwestern;$$$$;102 5th Ave
Meskerem;468 W. 47th St.;New York;NY;;Ethiopian;;468 W 47th St
Metisse;239 W 105th St;New York;NY;Upper West Side;French;$$$;239 W 105th St
Metropol;234 W Fourth St;New York;NY;Greenwich Village;French;$$$;234 West 4th Street
Mexican Radio;250 Mulberry St;New York;NY;NoLita;Mexican;$$;250 Mulberry St
Mexicana Mama;525 Hudson St;New York;NY;West Village;Mexican;$$;525 Hudson St
Mezzaluna;1295 3rd Ave;New York;NY;Upper East Side;American;$$;1295 3rd Ave
Mi Cocina;57 Jane St;New York;NY;West Village;Mexican;$$$;57 Jane St
Michael Jordan's The Steakhouse N.Y.C.;23 Vanderbilt Ave - Grand Central Staion;New York;NY;Midtown East;Steakhouse;$$$;89 E 42nd St
Michael's;24 W 55th St;New York;NY;Midtown West;Californian;$$$$;24 W 55th St
Mickey Mantle's;42 Central Park South;New York;NY;Midtown East;American;$$$;42 Central Park S
Midtown;155 E 55th Street;New York;NY;Midtown East;American;$;155 E 55th St
Mill Korean;2895 Broadway;New York;NY;Harlem;Korean;$;2895 Broadway
Minetta Tavern;113 Macdougal Street;New York;NY;Greenwich Village;Italian;$$$;113 MacDougal St
Mingala Burmese;21-23 E Seventh St;New York;NY;East Village;Southeast Asian;$;21 E 7th St #23
Miracle Bar & Grill;415 Bleecker St;New York;NY;West Village;Southwestern;$$;415 Bleecker St
Miss Maude's Spoonbread Too;547 Lenox Ave;New York;NY;Harlem;Southern;$;547 Lenox Ave
Mo Pitkin's;34 Ave A;New York;NY;East Village;Jewish;$$;34 Avenue A
Mobay Uptown Restaurant & Barbecue;17 W 125th St;New York;NY;Harlem;Caribbean;$;17 W 125th St
Mofongo Depot;931 Amsterdam Ave;New York;NY;Upper West Side;Nuevo Latino;$$;931 Amsterdam Ave
Molyvos;871 7th Avenue;New York;NY;Midtown West;Greek;$$$;871 7th Ave
Momofuku Ko;163 First Ave;New York;NY;East Village;Chinese;$$$$;163 1st Avenue
Momofuku Noodle Bar;171 First Ave.;New York;NY;East Village;Chinese;$$$;171 1st Avenue
Momofuku Ssam Bar;207 2nd Ave;New York;NY;East Village;Asian;$$$;207 2nd Ave
Momoya;185 Seventh Ave;New York;NY;;;;185 7th Ave
Mon Petit Cafe;801 Lexington Ave;New York;NY;Upper East Side;French;$$;801 Lexington Ave
Monkey Bar;60 E 54th Street;New York;NY;Midtown East;American;$$$$;60 E 54th St
Monster Sushi;158 West 23rd St;New York;NY;;;;158 W 23rd St
Montebello;120 E 56th St;New York;NY;Midtown East;Italian;$$$;120 E 56th St
Montrachet - CLOSED;239 W Broadway;New York;NY;West Village;French;$$$$;239 W Broadway
Moran's;146 Tenth Ave;New York;NY;Chelsea;Seafood;$$$;146 Amsterdam Ave
Morandi;211 Waverly Place;New York;NY;Greenwich Village;Italian;$$$;211 Waverly Pl
Morimoto;88 10th Ave;New York;NY;Chelsea;Japanese;$$$$;88 10th Ave
Morrell Wine Bar & Cafe;1 Rockefeller Plaza;New York;NY;Midtown West;American;$$$;1 Rockefeller Plaza 48Th and
Morton's;The Steakhouse, 551 Fifth Ave;New York;NY;Midtown East;Seafood;$$$$;The Steakhouse, 551 Fifth Ave
Moustache;90 Bedford Street;New York;NY;West Village;Middle Eastern;$;90 Bedford St
Mr. Chow;324 E 57th St;New York;NY;Midtown East;Chinese;$$$$;324 E 57th St
Mr. K's;570 Lexington Ave;New York;NY;Midtown East;Chinese;$$$;570 Lexington Ave
Mrs Lee & Shabu Shabu Wok;121 University Pl;New York;NY;West Village;Asian;$;121 University Pl
Mughlai;320 Columbus Ave;New York;NY;Upper West Side;Indian;$$;320 Columbus Ave
Mustang Sally's;324 Seventh Avenue;New York;NY;Chelsea;American;$$;324 7th Ave
Nebraska Beef;15 Stone St;New York;NY;Wall Street;Steakhouse;$$$$;15 Stone St
Nelson Blue;233 Front Street;New York;NY;Financial District;British;$$;233 Front St
Neo Sushi;2298 Broadway;New York;NY;Upper West Side;Sushi;$$$$;2298 Broadway
Neptune Room;511 Amsterdam Ave;New York;NY;Upper West Side;Seafood;$$$$;511 Amsterdam Ave
Nero;46 Gansevoort St;New York;NY;Meatpacking District;Italian;$$$;46 Gansevoort St
New Bo-Ky;80 Bayard St;New York;NY;Chinatown;Asian;$;80 Bayard St
New York Noodle Town;28 Bowery at Bayard Street;New York;NY;SOHO;Asian;$;28 Bowery
Nha Trang;87 Baxter St;New York;NY;Chinatown;Asian;$;87 Baxter St
Nice;35 E Broadway;New York;NY;Chinatown;Chinese;$;35 E Broadway
Nick's;1814 Second Ave;New York;NY;Upper East Side;Italian;$;1814 2nd Ave
Nicky's Vietnamese Sandwiches;150 E 2nd St;New York;NY;East Village;American;$;150 E 2nd St
Nicole's;10 East 60th Street;New York;NY;Midtown East;British;$$;10 E 60th St
Niko's Mediterranean Grill;2161 Broadway;New York;NY;Upper West Side;Greek;$;2161 Broadway
Nino's Bellissima Pizza;890 Second Ave.;New York;NY;Midtown East;Italian;$$$;890 2nd Ave
Noble Food & Wine;7 Spring Street;New York;NY;NoLita;American;$$$;7 Spring St
Nobu Fifty Seven;40 W 57th St;New York;NY;Midtown West;Japanese;$$$$$;40 W 57th St
Nobu New York;105 Hudson St;New York;NY;TriBeCa;Japanese;$$$$;105 Hudson St
Nobu Next Door;105 Hudson St;New York;NY;TriBeCa;Sushi;$$$$;105 Hudson St
Nocello;257 West 55th St;New York;NY;Midtown West;Italian;$$$;257 W 55th St
Nocello;257 West 55th Street;New York;NY;Theater;Italian;$$$$;257 W 55th St
Nonna;520 Columbus Ave;New York;NY;;;;520 Columbus Ave
Norma's;118 West 57th Street;New York;NY;Midtown West;American;$$;118 W 57th St
North Square Restaurant and Lounge;103 Waverly Place;New York;NY;Greenwich Village;American;$$$$;103 Waverly Pl
Nougatine;1 Central Park West;New York;NY;;American;$$$$;1 Central Park West
Novecento;343 W Broadway;New York;NY;SOHO;South American;$$$;343 W Broadway
Novita;102 E 22nd Street;New York;NY;Gramercy Park;Italian;$$$;102 E 22nd St
Nyonya;194 Grand Street;New York;NY;Little Italy;Malaysian;$;194 Grand St
Ocean Grill;384 Columbus Ave;New York;NY;Upper West Side;Seafood;$$$;384 Columbus Ave
Oceana;55 E 54th St;New York;NY;Midtown East;Seafood;$$$$;55 E 54th St
Odeon;145 W Broadway;New York;NY;TriBeCa;French;$$$;145 W Broadway
Old Devil Moon;511 E 12th St;New York;NY;East Village;Southern;$;511 E 12th St
Old Homestead;56 9th Ave;New York;NY;Meatpacking District;Steakhouse;$$$$;56 9th Ave
Oliva;161 East Houston Street;New York;NY;Lower East Side;American;$$;161 E Houston St
Olives;201 Park Ave S - W Hotel;New York;NY;Union Square;Mediterranean;$$$;201 Park Ave S
Ollie's Restaurant;1991 Broadway;New York;NY;Upper West Side;Chinese;$;1991 Broadway
Omen;113 Thompson Street;New York;NY;SOHO;Japanese;$$$;113 Thompson St
Once Upon a Tart;135 Sullivan Street;New York;NY;SOHO;American;$;135 Sullivan St
One;1 Little West 12th St;New York;NY;Meatpacking District;American;$$$;1 Little W 12th St
One If by Land;Two If by Sea, 17 Barrow St;New York;NY;Greenwich Village;American;$$$$;17 Barrow St
One Little West 12;1 Little West 12th St.;New York;NY;Meatpacking District;American;$$;1 Little W 12th St
Onieal's Grand Street;174 Grand St;New York;NY;SOHO;American;$$$;174 Grand St
Ono;18 Ninth Ave;New York;NY;Meatpacking District;Sushi;$$$$;18 9th Ave
Open the Sesame;198A Orchard St.;New York;NY;Lower East Side;Thai;$;198 Orchard St
Oriental Garden;14 Elizabeth St;New York;NY;Chinatown;Chinese;$;14 Elizabeth St
Osteria Al Doge;142 West 44th St;New York;NY;Midtown West;Italian;$$$;142 W 44th St
Osteria Del Circo;120 W 55th St;New York;NY;Midtown West;Italian;$$$$;120 W 55th St
Osteria Gelsi;507 Ninth Ave;New York;NY;Midtown West;Italian;$$$;507 9th Ave
Ostia Tapeo;113 Seventh Ave. S.;New York;NY;Greenwich Village;Small Plates;$$;113 7th Ave S
Otto;1 Fifth Ave;New York;NY;Greenwich Village;Italian;$$$$;1 5th Ave
Ouest;2315 Broadway;New York;NY;Upper West Side;American;$$$$;2315 Broadway
Outback Steakhouse;60 W 23rd St;New York;NY;Flatiron;Steakhouse;$$;60 W 23rd St
P.J. Clarke's;915 Third Ave;New York;NY;;;;915 3rd Ave
P.J. Clarke's;44 W. 63rd Street;New York;NY;;;;44 W 63rd St.
Paladar;161 Ludlow St;New York;NY;Lower East Side;Nuevo Latino;$$;161 Ludlow St
Pam Real Thai Food;404 W 49th St;New York;NY;Midtown West;Asian;$;404 W 49th St
Pampa;768 Amsterdam Avenue;New York;NY;Upper West Side;South American;$$;768 Amsterdam Ave
Pampano;209 E 49th St;New York;NY;Midtown East;Mexican;$$$;209 E 49th St
Paradou;8 Little W 12th St;New York;NY;Meatpacking District;French;$$;8 Little W 12th St
Paris Commune;99 Bank St;New York;NY;West Village;Continental;$$;99 Bank St
Park;The, 118 10th Ave;New York;NY;Chelsea;Mediterranean;$$$;118 10th Ave
Park Avenue Cafe;100 East 63rd St (@ Park Avenue);New York;NY;Upper East Side;American;$$$$;100 E 63rd St
Park Bistro;414 Park Ave South;New York;NY;SOHO;French;$$$;414 Park Ave S
Park East Grill;1564 2nd Avenue;New York;NY;Upper East Side;Jewish;$;1564 2nd Ave
Parlor Steakhouse;1600 3rd Ave;New York;NY;Upper East Side;Steakhouse;$$$$;1600 3rd Ave
Pasha;70 W 71st St;New York;NY;Upper West Side;Middle Eastern;$$$;70 W 71st St
Pastis;9 Ninth Ave;New York;NY;Meatpacking District;French;$$$;9 9th Ave
Patsy's;236 W 56th St;New York;NY;Midtown West;Italian;$$$;236 W 56th St
Paul's Da Burger Joint;131 2nd avenue;New York;NY;East Village;American;$$;131 2nd Ave
Payard Bistro;1032 Lexington Avenue;New York;NY;Upper East Side;French;$$$;1032 Lexington Ave
Peanut Butter & Co.;240 Sullivan St;New York;NY;;;;240 Sullivan Pl
Pearl Oyster Bar;18 Cornelia Street;New York;NY;Greenwich Village;Seafood;$$$;18 Cornelia St
Peasant;194 Elizabeth St;New York;NY;NoLita;Italian;$$$;194 Elizabeth St
Peep;177 Prince St;New York;NY;SOHO;Asian;$$;177 Prince St
Penelope;159 Lexington Ave;New York;NY;Murray Hill;American;$;159 Lexington Ave
Pepe Giallo;253 10th Ave;New York;NY;;;;253 10th Ave
Pepe Rosso;149 Sullivan St;New York;NY;SOHO;Italian;$;149 Sullivan St
Per Se;10 Columbus Circle, 4th Fl (60th St);New York;NY;Upper West Side;American;$$$$$;10 Columbus Circle, 4th Fl (60th St)
Pera;303 Madison Avenue;New York;NY;Midtown East;Mediterranean;$$$$;303 Madison Ave
Perbacco;234 E Fourth St;New York;NY;East Village;Italian;$$$;234 E 4th St
Peri Ela;1361 Lexington Avenue;New York;NY;Upper East Side;Turkish;$$;1361 Lexington Ave
Perilla;9 Jones Street;New York;NY;Greenwich Village;American;$$$$;9 Jones St
Periyali;35 W 20th St;New York;NY;Flatiron;Greek;$$$$;35 W 20th St
Perry St.;176 Perry St;New York;NY;West Village;French;$$$$;176 Perry St
Persimmon;277 E 10th St;New York;NY;;Korean;$$$$;277 E 10th St
Pescatore;955-957 2nd Ave;New York;NY;Midtown East;Indian;$$$;955 2nd Ave
Petite Abeille;400 West 14th St;New York;NY;Chelsea;Belgian;$;400 W 14th St
Petrossian;182 W 58th St;New York;NY;Midtown West;Continental;$$$$;182 W 58th St
Philip Marie;569 Hudson St;New York;NY;West Village;American;$$$;569 Hudson St
Pho Bang Restaurant Inc;St Pike St;New York;NY;Chinatown;Asian;$;Pike St
Piadina;57 W 10th St;New York;NY;Greenwich Village;Italian;$$;57 W 10th St
Piano Due;151 W 51st St;New York;NY;Midtown West;Italian;$$$$;151 W 51st St
Piccolo Angolo;621 Hudson St;New York;NY;West Village;Italian;$$;621 Hudson St
Piccolo Ristorante;226 Third Ave;New York;NY;Chelsea;Mediterranean;$$;226 3rd Ave
Picholine;35 W 64th St;New York;NY;Upper West Side;Mediterranean;$$$$;35 W 64th St
Pig Heaven;1540 Second Ave;New York;NY;Midtown West;Chinese;$$;1540 2nd Ave
Pinch;416 Park Ave S;New York;NY;Gramercy Park;Pizza;$;416 Park Ave S
Ping's Seafood;22 Mott St;New York;NY;Chinatown;Chinese;$;22 Mott St
Pinkberry Frozen Yogurt;240 E 82nd St;New York;NY;;Dessert;;240 E 82nd St
Pipa;38 E 19th Street;New York;NY;;Flatiron;$$$;38 E 19th St
Pisticci;125 La Salle St;New York;NY;Harlem;Italian;$;125 La Salle St
Pizza 33;171 W 23rd St;New York;NY;Chelsea;Pizza;$;171 W 23rd St
Pizzeria de Santo;173 Ludlow St.;New York;NY;Lower East Side;Pizza;$;173 Ludlow St
Po;31 Cornelia St;New York;NY;Greenwich Village;Italian;$$$;31 Cornelia St
Poke;343 E. 85th St.;New York;NY;;Sushi;$$;343 E 85th St
Pomme Frites;123 2nd Ave;New York;NY;;Belgian;$;123 2nd Ave
Pongal;110 Lexington Ave.;New York;NY;Murray Hill;Indian;$$;110 Lexington Ave
Popover Cafe;551 Amsterdam Ave;New York;NY;Upper West Side;American;$;551 Amsterdam Ave
Porchetta;110 East 7th Street;New York;NY;East Village;Italian;$$$;110 E 7th St
Porters New York;216 Seventh Avenue;New York;NY;Chelsea;American;$$;216 7th Ave
Positano;122 Mulberry St;New York;NY;Little Italy;Italian;$$;122 Mulberry St
Post House;28 E 63rd St (Between Park Ave & Madison Ave);New York;NY;Upper East Side;Steakhouse;$$$$;28 E 63rd St
Prem-On Thai;138 W Houston St;New York;NY;Greenwich Village;Thai;$$;138 W Houston St
Prime Grill;60 E 49th St;New York;NY;Midtown East;Jewish;$$$$;60 E 49th St
Primitivo Osteria;202 West 14th Street;New York;NY;West Village;Italian;$$$;202 W 14th St
Provence;38 Macdougal Street;New York;NY;SOHO;French;$$;38 MacDougal St
Prune;54 E First St;New York;NY;East Village;American;$$$;54 E 1st St
Public;210 Elizabeth St;New York;NY;NoLita;International;$$$;210 Elizabeth St
Pukk;71 First Ave;New York;NY;East Village;Thai;$;71 1st Avenue
Pump Energy Food;40 West 55th Street;New York;NY;Midtown West;International;$;40 W 55th St
Pure Food and Wine;54 Irving Pl;New York;NY;Gramercy Park;Vegetarian;$$$$;54 Irving Pl
Puttanesca;859 9th Avenue;New York;NY;Midtown West;Italian;$$;859 9th Ave
Pylos;128 E Seventh St;New York;NY;East Village;Greek;$$;128 E 7th St
P’ONG;150 W 10th St;New York;NY;;Continental;$$$;150 W 10th St
Quality Meats;57 W 58th St;New York;NY;Midtown West;Steakhouse;$$$$;57 W 58th St
Quartino;21 Peck Slip;New York;NY;;;;21 Peck Slip
Rack and Soul;2818 Broadway;New York;NY;Upper West Side;Barbecue;$$;2818 Broadway
Radio Perfecto;190 Ave B;New York;NY;East Village;American;$$;190 Avenue B
Rain West - CLOSED;100 West 82nd Street;New York;NY;Upper West Side;Asian;$$;100 W 82nd St
Rainbow Room;30 Rockefeller Plaza65th Floor;New York;NY;Midtown West;Italian;$$$$;30 Rockefeller Plaza 65th floor
Rao's;455 East 114th St;New York;NY;Harlem;Italian;$$$$;455 E 114th St
Raoul's;180 Prince St;New York;NY;SOHO;French;$$$;180 Prince St
Red Cat;227 Tenth Avenue;New York;NY;Chelsea;American;$$$;227 Amsterdam Ave
Redeye Grill;890 Seventh Ave;New York;NY;Midtown West;American;$$$;890 7th Ave
Remi;145 W 53rd St;New York;NY;Midtown West;Italian;$$$;145 W 53rd St
Republic;37 Union Square W;New York;NY;Union Square;Asian;$;37 Union Square W
Resto;111 E. 29th Street;New York;NY;Gramercy Park;Belgian;$$;111 E 29th St
Revel;10 Little W. 12th Street;New York;NY;Meatpacking District;International;$$$$;10 Little W 12th St
Revival;2367 Frederick Douglass Blvd;New York;NY;Harlem;Caribbean;$$;2367 Frederick Douglass Blvd
Ribot;780 Third Ave;New York;NY;;;;780 3rd Ave
Rice;277 Mott Street;New York;NY;NoLita;International;$;277 Mott St
Rice 'N' Beans;744 9th Ave;New York;NY;Midtown West;South American;$;744 9th Ave
Riingo;205 E. 45th St;New York;NY;Midtown East;Japanese;$$$$;205 E 45th St
Risotteria;270 Bleecker St;New York;NY;;;;270 Bleecker St
Roberto Passon;741 Ninth Ave;New York;NY;Midtown West;Italian;$$$;741 9th Ave
Rocco Restaurant;181 Thompson St;New York;NY;Greenwich Village;Italian;$$;181 Thompson St
Rock Center Cafe;2 W 50th St;New York;NY;Midtown West;American;$$$;2 W 50th St
Rocking Horse;182 Eighth Ave;New York;NY;Chelsea;Mexican;$$;182 8th Ave
Rolf's;281 Third Ave.;New York;NY;;German;$$;281 3rd Ave
Roppongi Restaurant;200 W 81st St;New York;NY;Upper West Side;Sushi;$$;200 W 81st St
Rosa Mexicano;61 Columbus Avenue;New York;NY;Upper West Side;Mexican;$$$;61 Columbus Ave
Rosa Mexicano;9 E 18th St;New York;NY;Flatiron;Mexican;$$$;9 E 18th St
Rosa Mexicano - First Avenue;1063 First Ave;New York;NY;Midtown East;Mexican;$$$;1063 1st Avenue
Roy's;130 Washington St;New York;NY;TriBeCa;Fusion;$$$;130 Washington St
Rub Bbq;208 W 23rd St;New York;NY;;;;208 W 23rd St
Ruby Foo's Times Square;1626 Broadway;New York;NY;Midtown West;Pan-Asian;$$$;1626 Broadway
Ruby Foo's Uptown;2182 Broadway;New York;NY;Upper West Side;Pan-Asian;$$$;2182 Broadway
Rue 57;60 West 57th Street;New York;NY;;;;60 W 57th St
Russian Samovar;256 W 52nd St;New York;NY;Midtown West;Continental;$$$;256 W 52nd St
Ruth's Chris Steak House;148 West 51st Street;New York;NY;Midtown West;Steakhouse;$$$$;148 W 51st St
S.O.B.'s;200 Varick St;New York;NY;SOHO;Brazilian;$;200 Varick St
Sachiko's On 25 Clinton;25 Clinton St;New York;NY;Lower East Side;Japanese;$$$;25 Clinton St
Sacred Chow;227 Sullivan Street;New York;NY;Greenwich Village;Vegetarian;$;227 Sullivan St
Sal Anthony's S.P.Q.R.;133 Mulberry St;New York;NY;Little Italy;Italian;$$;133 Mulberry St
Sala;344 Bowery;New York;NY;NoLita;Spanish;$$;344 Bowery
Salaam Bombay;319 Greenwich St;New York;NY;TriBeCa;Indian;$$;319 Greenwich St
Salmon River;3 East 40th Street;New York;NY;Murray Hill;Seafood;$$;3 E 40th St
Salt;58 Macdougal St;New York;NY;SOHO;American;$$$;58 MacDougal St
Salt Bar;29 Clinton St;New York;NY;Lower East Side;American;$$$;29 Clinton St
Salud Restaurant and Bar;142 Beekman Street;New York;NY;;;;142 Beekman St
Salute;270 Madison Ave;New York;NY;Murray Hill;Italian;$;270 Madison Ave
Sambuca;20 W 72nd St;New York;NY;Upper West Side;Italian;$$;20 W 72nd St
Sammy's Roumanian;157 Chrystie St;New York;NY;Lower East Side;European;$$$;157 Chrystie St
San Domenico;240 Central Park South;New York;NY;Midtown West;Italian;$$$$;240 Central Park S
Sanctuary T;337 West Broadway;New York;NY;SOHO;Continental;$$$;337 W Broadway
Sant Ambroeus;259 W Fourth St;New York;NY;West Village;Italian;$$$;259 West 4th Street
Santa Fe;73 W 71st St;New York;NY;Upper West Side;Southwestern;$$;73 W 71st St
Sapa;43 West 24th Street;New York;NY;Chelsea;Asian;$$$;43 W 24th St
Sapphire;1845 Broadway;New York;NY;Upper West Side;Indian;$$$;1845 Broadway
Sardi's;234 West 44th Street;New York;NY;Midtown West;Continental;$$$;234 W 44th St
Sarge's Deli;548 Third Avenue;New York;NY;Murray Hill;Deli;$;548 3rd Ave
Saucy;1409 York Avenue;New York;NY;Upper East Side;International;$$;1409 York Ave
Savann;414 Amsterdam Ave;New York;NY;Upper West Side;French;$$;414 Amsterdam Ave
Savoy;70 Prince St;New York;NY;SOHO;American;$$$;70 Prince St
Scaletta;50 W 77th St;New York;NY;Midtown West;Italian;$$$;50 W 77th St
Scalinatella;201 East 61st Street;New York;NY;Upper East Side;Italian;$$$$;201 E 61st St
Scalini Fedeli;165 Duane St;New York;NY;TriBeCa;Italian;$$$$;165 Duane St
Scarlatto;250 W 47th St;New York;NY;Midtown West;Italian;$$;250 W 47th St
Scarpetta;355 W 14th St;New York;NY;Meatpacking District;Italian;$$$$;355 W 14th St
Schiller's Restaurant;131 Rivington St;New York;NY;Lower East Side;International;$$;131 Rivington St
Sea;75 Second Ave;New York;NY;East Village;Asian;$;75 2nd Ave
Sea Grill;19 West 49th Street;New York;NY;Midtown West;Seafood;$$$$;19 W 49th St
Sequoia;Pier 17;New York;NY;Wall Street;Seafood;$$;89 South St
Serendipity 3;225 E 60th St;New York;NY;Upper East Side;American;$;225 E 60th St
Sevilla Restaurant and Bar;62 Charles St& West 4th St;New York;NY;West Village;Spanish;$$;62 Charles St
Sezz Medi';1260 Amsterdam Ave;New York;NY;Harlem;Mediterranean;$$;1260 Amsterdam Ave
Sfoglia;1402 Lexington Avenue;New York;NY;Upper East Side;Italian;$$$$;1402 Lexington Ave
Shaburi;125 E 39th St;New York;NY;Murray Hill;Japanese;$$$;125 E 39th St
Shaffer City Oyster Bar & Grill;5 W 21st St;New York;NY;Flatiron;Seafood;$$$;5 W 21st St
Shake Shack;366 Columbus Ave;New York;NY;Upper West Side;American;$$;366 Columbus Ave
Shake Shack;11 Madison Ave;New York;NY;Flatiron;American;$$;11 Madison Ave
Shula's Steak House;270 W 43rd St;New York;NY;Midtown West;American;$$$$;270 W 43rd St
Shun Lee Cafe;43 W 65th St;New York;NY;;;;43 W 65th St
Shun Lee Palace;155 E 55th Street;New York;NY;Midtown East;Chinese;$$$;155 E 55th St
Shun Lee West;43 W. 65th St.;New York;NY;;Chinese;$$$;43 W 65th St
Sip Sak;928 Second Ave;New York;NY;Midtown East;Middle Eastern;$;928 2nd Ave
Slane;102 MacDougal St;New York;NY;West Village;Irish;$$;102 MacDougal St
Smith & Wollensky;797 Third Ave;New York;NY;Midtown East;Steakhouse;$$$;797 3rd Ave
Smorgas Chef;283 W. 12th St.;New York;NY;;Scandinavian;;283 W 12th St
Snack;105 Thompson St;New York;NY;SOHO;Greek;$;105 Thompson St
Snack Taverna;63 Bedford St;New York;NY;West Village;Greek;$$;63 Bedford St
Soba-Ya;229 E Ninth St;New York;NY;East Village;Asian;$;229 E 9th St
Sofrito;400 E. 57th St.;New York;NY;;Nuevo Latino;$$;400 E 57th St
Sol Y Sombra;462 Amsterdam Ave;New York;NY;Upper West Side;Spanish;$;462 Amsterdam Ave
Solera;216 E 53rd St;New York;NY;Midtown East;Spanish;$$$;216 E 53rd St
Son Cubano;361 Greenwich St;New York;NY;Meatpacking District;Cuban;$$$;361 Greenwich St
Soto;357 Sixth;New York;NY;Greenwich Village;Sushi;$$$;357 6th Ave
Soto;357 Sixth Avenue;New York;NY;Greenwich Village;Sushi;$$$$;357 6th Ave
Southside Cafe;252 W 47th Street;New York;NY;Theater;Italian;$$;252 W 47th St
Sparks Steak House;210 E 46th Street;New York;NY;Midtown East;Steakhouse;$$$;210 E 46th St
Spice;1411 Second Ave;New York;NY;Upper East Side;Asian;$;1411 2nd Ave
Spice;104 Second Ave.;New York;NY;East Village;Thai;$$;104 2nd Ave
Spice Market;403 W 13th St;New York;NY;Meatpacking District;Malaysian;$$$;403 W 13th St
Spigolo;1561 Second Ave;New York;NY;Upper East Side;Italian;$$$;1561 2nd Ave
Spotlight Live;1604 Broadway;New York;NY;Theater;American;$$$$;1604 Broadway
Spotted Pig;The, 314 W 11th St;New York;NY;West Village;British;$$$;314 W 11th St
Spring St Natural Restaurant;62 Spring St;New York;NY;NoLita;Vegetarian;$;62 Spring St
Stage Deli;834 Seventh Avenue;New York;NY;Midtown West;Deli;$;834 7th Ave
Stand;24 E. 12th Street;New York;NY;Greenwich Village;American;$;24 E 12th St
Stanton Social;99 Stanton St;New York;NY;Lower East Side;International;$$$;99 Stanton St
Stanton Social Club;99 Stanton Street;New York;NY;;Small Plates;$$$;99 Stanton St
Steak Frites;9 East 16th Street;New York;NY;Union Square;French;$$;9 E 16th St
Stella Di Mare;346 Lexington Avenue;New York;NY;Murray Hill;Italian;$$$;346 Lexington Ave
Stella Maris;213 Front St.;New York;NY;Financial District;European;$$;213 Front St
Strip House;13 E 12th St;New York;NY;Greenwich Village;Steakhouse;$$$;13 E 12th St
Suba;109 Ludlow St;New York;NY;Lower East Side;Spanish;$$$;109 Ludlow St
Suenos;311 W 17th St;New York;NY;Chelsea;Mexican;$$$;311 W 17th St
Sugiyama;251 W 55th St;New York;NY;Midtown West;Japanese;$$$$;251 W 55th St
Sui;54 Spring Street;New York;NY;Lower East Side;Japanese;$$$;54 Spring St
Supper;156 E Second St;New York;NY;East Village;Italian;$$;156 E 2nd St
Surya;302 Bleecker St;New York;NY;West Village;Indian;$$;302 Bleecker St
Sushi Of Gari;402 E 78th St;New York;NY;Upper East Side;Sushi;$$$$;402 E 78th St
Sushi Samba;245 Park Ave South;New York;NY;Flatiron;Sushi;$$$;245 Park Ave S
Sushi Seki;1143 1st Ave;New York;NY;Upper East Side;Sushi;$$$;1143 1st Avenue
Sushi Yasuda;204 E 43rd St;New York;NY;Midtown East;Japanese;$$$$$;204 E 43rd St
Sushi Zen;108 W 44th St;New York;NY;Midtown West;Sushi;$$$;108 W 44th St
Sushisamba 7;87 Seventh Ave South;New York;NY;Greenwich Village;Sushi;$$$;87 7th Ave S
Swagat Indian Cuisine;411a Amsterdam Ave;New York;NY;;;;411A Amsterdam Ave
Swing 46;349 W. 46 St;New York;NY;Theater;American;$$$;349 W 46th St
Swizz;310 W 53rd St;New York;NY;Midtown West;Swiss;$$;310 W 53rd St
Tabla;11 Madison Ave;New York;NY;Gramercy Park;Indian;$$$$;11 Madison Ave
Taboon;773 10th Ave;New York;NY;Midtown West;Mediterranean;$$$;773 10th Ave
Tailor;525 Broome St.;New York;NY;;;;525 Broome St
Takahachi Tribeca;145 Duane St;New York;NY;TriBeCa;Japanese;$$;145 Duane St
Talay;701 W 135th St;New York;NY;Harlem;Thai;$$$;701 W 135th St
Tamarind;41-43 E 22nd St;New York;NY;Flatiron;Indian;$$$;41 E 22nd St #43
Tang Pavilion;65 W 55th St;New York;NY;Midtown West;Chinese;$$;65 W 55th St
Tao;42 E 58th Street;New York;NY;Midtown East;Asian;$$$;42 E 58th St
Taormina;147 Mulberry St;New York;NY;Little Italy;Italian;$$;147 Mulberry St
Tartine;253 W 11th St;New York;NY;West Village;French;$;253 W 11th St
Tasting Room;72 E First St;New York;NY;East Village;American;$$$;72 E 1st St
Tavern on the Green;Central Park W.;New York;NY;;;;Central Park West
Tea & Sympathy;108 Greenwich Ave;New York;NY;West Village;British;$;108 Greenwich Ave
Telepan;72 West 69th Street;New York;NY;Midtown West;American;$$$$;72 W 69th St
Tello's;263 W 19th St;New York;NY;Chelsea;Italian;$$;263 W 19th St
Tenzan;285 Columbus Ave;New York;NY;Upper West Side;Japanese;$$;285 Columbus Ave
Tenzan;988 Second Avenue;New York;NY;Midtown East;Sushi;$$$$;988 2nd Ave
Tequila's Chito's Mexican Bar & Grill;358 W 23rd St;New York;NY;Chelsea;Mexican;$$;358 W 23rd St
Teresa's;103 1st Ave;New York;NY;East Village;Polish;$;103 1st Avenue
Terrace In The Sky;400 West 119th Street;New York;NY;Upper West Side;French;$$;400 W 119th St
The American;235 Mulberry St.;New York;NY;NoLita;American;$;235 Mulberry St
The Cafe Carlyle;35 E 76 St;New York;NY;;;;35 E 76th St
The Cupping Room Cafe;359 West Broadway;New York;NY;;;;359 W Broadway
The Four Seasons;99 E 52nd St;New York;NY;Midtown East;Continental;$$$$;99 E 52nd St
The Harrison;355 Greenwich St;New York;NY;TriBeCa;American;$$$;355 Greenwich St
The House;121 E. 17th Street;New York;NY;Gramercy Park;Mediterranean;$$$$;121 E 17th St
The Mezzanine Restaurant;235 W 46th Street;New York;NY;Theater;Mediterranean;$$;235 W 46th St
The Modern;9 W 53rd St;New York;NY;Midtown West;American;$$$$;9 W 53rd St
The New French;522 Hudson St;New York;NY;Greenwich Village;French;$$$;522 Hudson St
The Pink Tea Cup;42 Grove St;New York;NY;West Village;Southern;$;42 Grove St
The Place;310 W Fourth St;New York;NY;West Village;American;$$$;310 West 4th Street
The Place on West 10th;142 W 10th St;New York;NY;Greenwich Village;American;$$$;142 W 10th St
The Pump Energy Food;275 Madison Ave.;New York;NY;;;;275 Madison Ave
The Redhead;349 E. 13th Street;New York;NY;East Village;American;$$$;349 E 13th St
The Sunburnt Cow;137 Avenue C;New York;NY;East Village;Australian;$;137 Loisaida Ave
Thor;Hotel on Rivington;New York;NY;Lower East Side;American;$$$$;107 Rivington St
Three Of Cups;83 First Ave;New York;NY;East Village;Italian;$;83 1st Avenue
Tia Pol;205 Tenth Ave;New York;NY;Chelsea;Spanish;$$;205 Amsterdam Ave
Tocqueville;1 E 15th St;New York;NY;Union Square;American;$$$$;1 E 15th St
Tomo;2850 Broadway;New York;NY;Harlem;Sushi;$;2850 Broadway
Tomoe Sushi;172 Thompson St;New York;NY;Greenwich Village;Sushi;$$;172 Thompson St
Tong;39 E. 13th St.;New York;NY;;Thai;$$$;39 E 13th St
Tony's Di Napoli;1606 2nd Avenue;New York;NY;;;;1606 2nd Ave
Town;Chambers Hotel, 15 West 56th St;New York;NY;Midtown West;American;$$$$;15 W 56th St
Trattoria Dell'Arte;900 Seventh Ave;New York;NY;Midtown West;Italian;$$$;900 7th Ave
Tribeca Grill;375 Greenwich St;New York;NY;TriBeCa;American;$$$;375 Greenwich St
Triomphe;49 West 44th Street;New York;NY;Midtown West;French;$$$$;49 W 44th St
Troy Turkish Grill;539 9th Ave;New York;NY;Midtown West;Turkish;$;539 9th Ave
Tsampa;212 E Ninth St;New York;NY;East Village;Southeast Asian;$;212 E 9th St
Tse Yang;34 East 51st Street;New York;NY;Midtown East;Chinese;$$$;34 E 51st St
Turkish Cuisine;631 9th Ave;New York;NY;Midtown West;Middle Eastern;$$;631 9th Ave
Turkish Kitchen;386 Third Ave;New York;NY;Midtown East;Turkish;$$$$;386 3rd Ave
Turkuaz;2637 Broadway;New York;NY;Harlem;Middle Eastern;$$;2637 Broadway
Tuscan Square;16 W 51st St;New York;NY;Midtown West;Italian;$$$;16 W 51st St
Two Boots Lower East Side;384 Grand Street;New York;NY;Lower East Side;Pizza;$;384 Grand St
Two Boots Rock Center;30 Rockefeller Plaza;New York;NY;Midtown West;Pizza;$;30 Rockefeller Plaza
Two Boots To Go;42 Avenue A;New York;NY;East Village;Pizza;$;42 Avenue A
Two Boots To Go Go;74 Bleecker Street;New York;NY;SOHO;Pizza;$;74 Bleecker St
Two Boots To Go West;201 West 11th Street;New York;NY;West Village;Pizza;$;201 W 11th St
Una Pizza Napoletana;349 E 12th St;New York;NY;East Village;Pizza;$;349 E 12th St
Uncle Jack's Steakhouse-Nyc;440 9th Avenue;New York;NY;Midtown East;Steakhouse;$$$;440 9th Ave
Uncle Nick's;747 9th Ave;New York;NY;Midtown West;Greek;$$;747 9th Ave
Union Square Cafe;21 E 16th St;New York;NY;Union Square;American;$$$$;21 E 16th St
Upstairs;130 W Broadway, 2nd Fl;New York;NY;TriBeCa;International;$$$;130 W Broadway 2nd Fl
Urena;37 E 28th St;New York;NY;Gramercy Park;Spanish;$$$;37 E 28th St
Uskudar Turkish Restaurantt;1405 Second Ave;New York;NY;Upper East Side;Middle Eastern;$$;1405 2nd Ave
Utsav;1185 Sixth Ave, 2nd Fl;New York;NY;Midtown West;Indian;$$$;1185 6th Ave 2nd Fl
Varietal;138 W. 25th Street;New York;NY;Chelsea;American;$$$$;138 W 25th St
Vatan;409 Third Ave;New York;NY;Gramercy Park;Indian;$$;409 3rd Ave
Veniero's;342 E 11th St;New York;NY;East Village;American;$;342 E 11th St
Vento;675 Hudson St;New York;NY;Meatpacking District;Italian;$$$;675 Hudson St
Veritas;43 E 20th St;New York;NY;Union Square;American;$$$$;43 E 20th St
Veselka Restaurant;144 2nd Ave;New York;NY;East Village;American;$;144 2nd Ave
Vespa Cibobouno;1625 Second Ave;New York;NY;;;;1625 2nd Ave
Via Brasil;34 W 46 St;New York;NY;Midtown West;South American;$$;34 W 46th St
Viceversa;325 W 51st St;New York;NY;Midtown West;Italian;$$$$;325 W 51st St
Vico Ristorante;1302 Madison Ave;New York;NY;Upper East Side;Italian;$$$;1302 Madison Ave
Victor's Cafe;236 West 52 St;New York;NY;Midtown West;Cuban;$$$;236 W 52nd St
Villa Mosconi Restaurant;69 Macdougal St;New York;NY;Greenwich Village;Italian;$$$;69 MacDougal St
Village;62 W Ninth St;New York;NY;Greenwich Village;French;$$$;62 W 9th St
Vincent's Restaurant;119 Mott St;New York;NY;Little Italy;Italian;$$;119 Mott St
Vintage Irving;118A E. 15th St.;New York;NY;Union Square;Small Plates;$$$;118A E 15th St
Vong;200 East 54th St;New York;NY;Midtown East;Thai;$$$$;200 E 54th St
Waikiki Wally's;101 East 2nd Street;New York;NY;East Village;Hawaiian;$$$;101 E 2nd St
Walker's;16 N Moore St;New York;NY;TriBeCa;American;$;16 N Moore St
Wallse;344 W 11th St;New York;NY;West Village;Austrian;$$$$;344 W 11th St
Wd-50;50 Clinton St;New York;NY;Murray Hill;American;$$$$;50 Clinton St
Westville;210 W 10th St;New York;NY;West Village;American;$;210 W 10th St
Westville East;173 Ave. A;New York;NY;East Village;American;$;173 Avenue A
Whym;889 Ninth Ave.;New York;NY;;;;889 9th Ave
Wichcraft;397 Greenwich St;New York;NY;TriBeCa;American;$;397 Greenwich St
Wild Ginger;51 Grove St.;New York;NY;;Thai;$$$;51 Grove St
Wildwood BBQ;225 Park Avenue South;New York;NY;Gramercy Park;Barbecue;$$$;225 Park Ave S
Wo Hop Restaurant;17 Mott St;New York;NY;;;;17 Mott St
Wogies Restaurant;39 Greenwich Ave;New York;NY;West Village;American;$;39 Greenwich Ave
Wolfgang's Steakhouse;4 Park Avenue;New York;NY;Murray Hill;Steakhouse;$$$$;4 Park Ave
Wollensky's Grill;205 East 49th Street;New York;NY;Midtown East;American;$$$;205 E 49th St
Won Jo;23 W 32nd St;New York;NY;Midtown West;Korean;$$;23 W 32nd St
Woo Lae Oak;148 Mercer St;New York;NY;SOHO;Korean;$$$;148 Mercer St
Xing;785 Ninth Ave;New York;NY;Midtown West;Asian;$$$;785 9th Ave
Xunta;174 First Ave;New York;NY;East Village;Spanish;$;174 1st Avenue
Yakitori Totto;251 W. 55th St., 2nd fl;New York;NY;Midtown West;Japanese;$$$;251 W 55th St 2nd fl
Yama;38-40 Carmine St;New York;NY;Midtown East;Sushi;$$;38-40 Carmine St
Yozakura Kushiyaki Bar;168 Ludlow St;New York;NY;Lower East Side;Japanese;$;168 Ludlow St
Yuca Bar;111 Ave A;New York;NY;East Village;Nuevo Latino;$;111 Avenue A
Yuka;1557 2nd Ave;New York;NY;;;;1557 2nd Ave
Yuki Sushi;656 Amsterdam Ave;New York;NY;Upper West Side;Sushi;$;656 Amsterdam Ave
Za3calo;174 E 82nd St;New York;NY;Upper East Side;Mexican;$$;174 E 82nd St
Zabar's Cafe;2245 Broadway;New York;NY;Upper West Side;Deli;$;2245 Broadway
Zarela's;953 Second Ave;New York;NY;Midtown East;Mexican;$$$;953 2nd Ave
Zebu Grill;305 E 92nd St;New York;NY;Upper East Side;South American;$$;305 E 92nd St
Zen Palate;34 East Union Sq;New York;NY;Union Square;Vegetarian;$;34 Union Square E
Zerza;304 E Sixth St;New York;NY;East Village;Moroccan;$$;304 E 6th St
Zeytin;519 Columbus Ave;New York;NY;Upper West Side;Turkish;$$;519 Columbus Ave
Zoe;90 Prince St;New York;NY;SOHO;American;$$$;90 Prince St
Zoma;2084 Frederick Douglass Blvd.;New York;NY;Harlem;Ethiopian;$$;2084 Frederick Douglass Blvd
Zona Rosa;40 W 56th St;New York;NY;;;;40 W 56th St
Zum Schneider;107 Ave C;New York;NY;East Village;German;$;107 Loisaida Ave
Zuni;598 Ninth Ave;New York;NY;Theater;American;$$;598 9th Ave
Zutto;77 Hudson Street;New York;NY;TriBeCa;Sushi;$$;77 Hudson St
db Bistro Moderne;55 W 44th Street;New York;NY;Midtown West;French;$$$$;55 W 44th St
earth NYC;116a 10th Avenue;New York;NY;Chelsea;Asian;$$;116A 10th Ave
p*ong;150 W. 10th Street;New York;NY;Greenwich Village;Dessert;$$;150 W 10th St
