Name;Neighborhood;Address;Country;Country code;Type;Cost;Phone
A Cafe And Wine Room;Upper West Side;973 Columbus Avenue;New York;NY;French \ Eclectic;$$$;(212-222-2033)
Alonso's Steakhouse;Chelsea;265 West 20th St;New York;NY;Steakhouse \ Steakhouses;$$$;(212-675-7749)
Artichoke Basille's Pizza & Brewery;East Village;328 E 14th St;New York;NY;Pizza \ Italian;$$;(212-228-2004)
Arturo's Restaurants;Greenwich Village;106 W Houston St;New York;NY;Italian;$;
Azuri Cafe;Midtown West;465 W 51st St;New York;NY;Jewish;$;
Babbo Ristorante e Enoteca;Greenwich Village;110 Waverly Pl;New York;NY;Italian;$$$$;
Barmarche;NoLita;14 Spring St;New York;NY;American;$$;
Ben & Jack's Steak House;Midtown East;219 E 44th St;New York;NY;Steakhouse \ Steakhouses;$$$$;(212-682-5678)
Black Pearl (CLOSED);Chelsea;37 W. 26th Street;New York;NY;Seafood;$$;(212-532-9900)
Boi To Go;Midtown East;800 Second Ave;New York;NY;Vietnamese;$$;
Broadway Joe's Steakhouse;Theater;315 West 46th Street;New York;NY;Steakhouse;$$$;
Bubba Gump Shrimp Company;Midtown West;1501 Broadway;New York;NY;American \ Seafood;$;(212-391-7100)
Bubble Lounge;TriBeCa;228 W Broadway;New York;NY;Small Plates;$$$;
Bull Run (CLOSED);Financial District;52 William St;New York;NY;American;$$$;(212-859-2200)
Coppola's Pizzeria Restaurant;Upper West Side;206 W 79th St;New York;NY;Italian;$$;
Cornelia Street Cafe;Greenwich Village;29 Cornelia Street;New York;NY;American;$$$;(212-989-9319)
Da Andrea (CLOSED);West Village;557 Hudson St;New York;NY;Italian;$$;(212-367-1979)
Da Silvano Bistecca;Greenwich Village;260 6th Avenue;New York;NY;Italian \ Steakhouses;$$$;(212-844-0282)
Degustation Wine & Tasting Bar;East Village;239 E Fifth St;New York;NY;Spanish;$$$;
Django (CLOSED);Midtown East;480 Lexington Avenue;New York;NY;French \ Mediterranean;$$$;(212-871-6600)
Dok Suni's;East Village;119 First Ave;New York;NY;Korean;$$;
Epices du Traiteur;Upper West Side;103 W 70th St;New York;NY;Mediterranean;$$;(212-579-5904)
Fig & Olive Kitchen & Tasting Bar;Upper East Side;808 Lexington Ave;New York;NY;Mediterranean;$$;(212-207-4555)
Florent (CLOSED);Meatpacking District;69 Gansevoort St;New York;NY;American \ French;$;(212-989-5779)
Friend Of a Farmer;Gramercy Park;77 Irving Pl;New York;NY;American;$;(212-477-2188)
Friend Of a Farmer;Gramercy Park;77 Irving Pl;New York;NY;American;$;
Gonzalez Y Gonzalez;SOHO;625 Broadway;New York;NY;Mexican;$$$;
Great Jones Cafe;NoLita;54 Great Jones St;New York;NY;Southern \ American Regional;$;(212-674-9304)
Great Jones Cafe;East Village;;New York;NY;American Regional;;(212-674-9304)
Great N.Y. Noodle Town;Chinatown;28 Bowery;New York;NY;Chinese;$;
Hill Country Barbecue;Chelsea;30 W. 26th St.;New York;NY;Barbecue;$$;
Ippudo NY;East Village;65 4th Ave;New York;NY;Japanese;$$$;(212-388-0088)
Island Burgers And Shakes;Midtown West;766 9th Ave;New York;NY;American;$;
Johnny Utah's;Midtown West;;New York;NY;American;;(212-265-8824)
Kefi (CLOSED);Upper West Side;222 W. 79th St.;New York;NY;Greek;$$$;(212-873-0200)
Lombardi's;NoLita;32 Spring St;New York;NY;Pizza \ Italian: Pizza;$;(212-941-7994)
Loreley Restaurant & Biergaerten;Lower East Side;7 Rivington St btwn Bowery and Chrystie...;New York;NY;;;
Mamlouk (CLOSED);East Village;211 East 4th St;New York;NY;Middle Eastern;$$$;(212-529-3477)
Mi Cocina (CLOSED);West Village;57 Jane St;New York;NY;Mexican;$$$;(212-627-8273)
Miss Maude's Spoonbread Too;Harlem;547 Lenox Ave;New York;NY;Southern \ American Regional;$;(212-690-3100)
Neptune Room Restaurant & Bait Bar (CLOSED);Upper West Side;511 Amsterdam Ave;New York;NY;Seafood;$$$$;(212-496-4100)
Old Devil Moon (CLOSED);East Village;511 E 12th St;New York;NY;Southern \ American Regional;$;(212-475-4357)
Onieal's Grand Street;SOHO;174 Grand St;New York;NY;American;$$$;
Otto Enoteca Pizzeria;Greenwich Village;1 Fifth Ave;New York;NY;Italian \ Italian: Pizza;$$$$;(212-995-9559)
Payard Patisserie & Bistro;Upper East Side;1032 Lexington Avenue;New York;NY;French;$$$;(212-717-5252)
Pera Mediterranean Brasserie;Midtown East;303 Madison Avenue;New York;NY;Mediterranean;$$$$;(212-878-6301)
Petite Abeille;Greenwich Village;466 Hudson St btwn Barrow and Grove Sts;New York;NY;Belgian;;(212-741-6479)
Ping's Seafood Restaurant;Chinatown;22 Mott St;New York;NY;Chinese;$;
Pommes Frites;;123 2nd Ave;New York;NY;Belgian;$;
Rocking Horse Cafe;Chelsea;182 Eighth Ave;New York;NY;Mexican;$$;(212-463-9511)
Sachiko's On 25 Clinton;Lower East Side;25 Clinton St;New York;NY;Japanese;$$$;(212-253-2900)
Sammy's Roumanian Steak House;Lower East Side;157 Chrystie St;New York;NY;European \ Eastern European;$$$;(212-673-0330)
Sparks Steak House;Midtown East;210 E 46th Street;New York;NY;Steakhouse;$$$;
Tello's Ristorante;Chelsea;263 W 19th St;New York;NY;Italian;$$;
The Four Seasons Restaurant;Midtown East;99 E 52nd St;New York;NY;Continental \ American Creative;$$$$;(212-754-9494)
Vespa Cibobouno;Upper East Side;1625 Second Ave;New York;NY;Italian;;(212-472-2050)
Wollensky's Grill;Midtown East;205 East 49th Street;New York;NY;American \ Steakhouses;$$$;(212-753-0444)
Yuca Bar & Restaurant;East Village;111 Ave A;New York;NY;Nuevo Latino;$;
10 Downing Food and Wine;West Village;;New York;NY;American Creative;;(212-255-0300)
Carnegie John's;Midtown West;;New York;NY;Eclectic;;
Dylan's Candy Bar;Upper East Side;;New York;NY;Food or Beverage Shop;;(646-735-0078)
Elvie's Turo-Turo;East Village;;New York;NY;Asian: Filipino;;(212-473-7785)
Fresco on the Go;Midtown East;;New York;NY;Italian;;(212-754-2700)
Gabriela’s Restaurante and Tequila Bar;Upper West Side;;New York;NY;Mexican;;(212-961-9600)
Hiroko's Place;Soho;;New York;NY;;;
Le Veau d'Or;Upper East Side;;New York;NY;French;;(212-838-8133)
Lucky Cheng's;East Village;;New York;NY;Asian: Pan-Asian;;(212-473-0516)
M. Rohrs’ House of Fine Teas and Coffees;Upper East Side;;New York;NY;Cafés & diners;;(212-772-2513)
Noodle Bar Lower East Side;Lower East Side;172 Orchard St at Stanton St;New York;NY;Asian: Pan-Asian;;(212-228-9833)
Soul Fixins';Midtown West;371 W 34th St-At 9th Ave;New York;NY;American Regional;;(212-736-1345)
SouthWest NY;Financial District;;New York;NY;American Regional;;(212-945-0528)
Trattoria dell'Arte;Midtown West;;New York;NY;Italian;;(212-245-9800)
Vince & Eddie's;Upper West Side;;New York;NY;American;;(212-721-0068)
Wondee Siam III;Midtown West;;New York;NY;Thai;;(212-245-4601)
Yaffa Cafe;East Village;;New York;NY;American;;(212-674-9302)
Chat 'n' Chew;Union Square;10 E 16th St;New York;NY;American;$;
Country Cafe;SoHo;69 Thompson St btwn Broome and Spring...;New York;NY;French;;(212-966-5417)
Fitzer's;Midtown East;;New York;NY;British & Irish;;(212-355-0100)
Forlini's Restaurant;Chinatown;;New York;NY;;;
George O'Neill's;Midtown East;;New York;NY;Steakhouses;;(212-888-1220)
SobaKoh;East Village;;New York;NY;Japanese;;(212-254-2244)
Brasserie AthenÃ©e;Midtown West;;New York;NY;French;;(212-399-1100)
La Fonda Del Sol;Midtown East;;New York;NY;Spanish;;(212-867-6767)
Tarallucci E Vino;Gramercy / Flatiron;;New York;NY;Cafés;;(212-228-5400)
Ayza Cafe and Wine Bar;Midtown East;11 W 31st St btwn Fifth Ave and Broadway;New York;NY;Eclectic;;(212-714-2992)
Banc Cafe;Midtown East;431 Third Ave at 30th St;New York;NY;French;;(212-252-0146)
Fairway Cafe and Steakhouse;Upper West Side;;New York;NY;American;;(212-595-1888)
Gazala's Place;Midtown West;709 Ninth Ave at 49th St;New York;NY;Middle Eastern;;(212-245-0709)
Gyu-kaku;Midtown East;;New York;NY;Japanese;;(212-702-8816)
Indian Bread Co.;Greenwich Village;194 Bleecker St btwn Sixth Ave and...;New York;NY;Indian;;(212-228-1909)
Schnipper's Quality Kitchen;Midtown West;;New York;NY;American;;(212-921-2400)
La Bonne Soupe;Midtown West;;New York;NY;French;;(212-586-7650)
dell'anima;West Village;;New York;NY;Italian;;(212-366-6633)
Gordon Ramsay at The London;Midtown West;151 W 54th St-Btwn 6th & 7th Ave;New York;NY;;;
Lugo Caffe;Midtown West;;New York;NY;Italian;;(212-760-2700)
Mas (Farmhouse);Greenwich Village;39 Downing St;New York;NY;American;$$$$;
Rhong Tiam;Greenwich Village;541 La Guardia Pl-between Bleecker and W 3rd Sts;New York;NY;Thai;;(212-477-0600)
Waldy's Wood Fired Pizza and Penne;Chelsea;800 6th Ave.;New York;NY;;;
Le Boeuf a la Mode;Upper East Side;539 E 81st St;New York;NY;French;$$$;
'Cesca;Upper West Side;164 W 75th St;New York;NY;Italian;$$$;
'Ino;Greenwich Village;21 Bedford St;New York;NY;Italian;$;
'Inoteca;Lower East Side;98 Rivington St;New York;NY;Italian;$$;
2 West;Financial District;;New York;NY;American \ Steakhouses;$$$;(917-790-2525)
21 Club;Midtown West;21 W 52nd St;New York;NY;American;$$$;
26 Seats;East Village;168 Ave B;New York;NY;French;$$;(212-677-4787)
44;Midtown West;44 W 44th Street;New York;NY;American;$$$;
5 Napkin Burger;Hell's Kitchen;630 Ninth Ave;New York;NY;American;$$;(212-757-2277)
5 Ninth;Meatpacking District;5 Ninth Ave;New York;NY;International \ Eclectic;$$$;(212-929-9460)
71 Irving Place;Gramercy Park;71 Irving Pl;New York;NY;American;$;
A;Harlem;947 Columbus Ave;New York;NY;Caribbean;$;
A Voce;Gramercy / Flatiron;;New York;NY;Italian;;(212-545-8555)
A.O.C.;West Village;314 Bleecker St;New York;NY;French;$$;(212-675-9463)
A.O.C. Bedford;Greenwich Village;14 Bedford St;New York;NY;French;$$$;
Abboccato;Midtown West;136 W 55th St;New York;NY;Italian;$$$$;(212-265-4000)
Acqua;Upper West Side;718 Amsterdam Ave.;New York;NY;Italian;$$$$;(212-222-2752)
Acqua;Upper West Side;;New York;NY;Italian;;(212-222-2752)
Ada;Midtown East;208 E 58th Street;New York;NY;Indian;$$$;
Agave;West Village;;New York;NY;American Regional;;(212-989-2100)
Akdeniz;Midtown West;19 W 46th St;New York;NY;Mediterranean \ Turkish;$;(212-575-2307)
Aki;Greenwich Village;181 W Fourth St;New York;NY;Caribbean \ Japanese;$$$;(212-989-5440)
Aki;West Village;;New York;NY;Japanese;;(212-989-5440)
Al Bustan Restaurant;Midtown East;827 Third Ave;New York;NY;Middle Eastern;$$$;
Alexandra;West Village;455 Hudson St;New York;NY;American;$$;(212-255-3838)
Alfama;Greenwich Village;551 Hudson St;New York;NY;Portuguese;$$;(212-645-2500)
Alfama;West Village;;New York;NY;Portuguese;;(212-645-2500)
Ali Baba;Midtown East;212 E 34th St btwn Second and Third Aves;New York;NY;Turkish;;(212-683-9206)
Alias;Lower East Side;76 Clinton St;New York;NY;American \ American Creative;$$$;(212-505-5011)
Alice's Tea Cup;Upper West Side;102 West. 73 st;New York;NY;American;$;
Allegretti;Flatiron;46 West 22nd St;New York;NY;French;$$$$;(212-206-0555)
Allegretti;Gramercy / Flatiron;;New York;NY;French;;(212-206-0555)
Allen & Delancey;Lower East Side;115 Allen St;New York;NY;American \ American Creative;$$$;(212-253-5400)
Almond;Flatiron;12 E 22nd Street;New York;NY;French;$$$$$;(212-228-7557)
Almond;Gramercy / Flatiron;;New York;NY;French;;(212-228-7557)
Alouette;Upper West Side;2588 Broadway;New York;NY;French;$$$;(212-222-6808)
Alta;Greenwich Village;64 West 10th Street;New York;NY;Mediterranean;$$$;(212-505-7777)
Alto;Midtown East;520 Madison Ave;New York;NY;Italian;$$$$$;(212-308-1099)
Amaranth;Upper East Side;21 E. 62nd St.;New York;NY;Mediterranean;$$$;(212-980-6700)
Amaranth;Upper East Side;;New York;NY;Mediterranean;;(212-980-6700)
Amazing 66;Chinatown;66 Mott Street;New York;NY;Chinese;$$;
Amber;Upper East Side;1406 Third Ave.;New York;NY;Pan-Asian \ Japanese;$$;(212-249-5020)
Amber;Upper East Side;1406 Third Ave-at 80th St;New York;NY;Japanese;;(212-249-5020)
Amma;Midtown East;246 E 51st St;New York;NY;Indian;$$$$;(212-644-8330)
Ammos Estiatorio;Midtown East;52 Vanderbilt Ave;New York;NY;Greek;$$$;
Amy Ruth's;Harlem;113 W 116th St;New York;NY;Southern;$;
Angelica Kitchen;East Village;300 E 12th St;New York;NY;Vegetarian \ Vegetarian & Organic;$;(212-228-2909)
Angelo & Maxies Steakhouse;Midtown West;233 Park Ave South (19th St);New York;NY;Steakhouse;$$$;
Annisa;Greenwich Village;13 Barrow Street;New York;NY;American \ American Creative;$$$$$;(212-741-6699)
Annisa;West Village;;New York;NY;American Creative;;(212-741-6699)
Anthos;Midtown West;36 W 52nd St;New York;NY;Mediterranean \ Greek;$$$$;(212-582-6900)
Apiary;East Village;60 Third Ave.;New York;NY;American;$$$$;(212-254-0888)
Apizz;Lower East Side;217 Eldridge St;New York;NY;Italian;$$$;(212-253-9199)
Aquagrill;SOHO;210 Spring St;New York;NY;Seafood;$$$$;(212-274-0505)
Aquagrill;Soho;;New York;NY;Seafood;;(212-274-0505)
Aquagrill;SoHo;210 Spring St at 6th Ave;New York;NY;Seafood;;(212-274-0505)
Aquavit;Midtown West;65 East 55th Street;New York;NY;Scandinavian \ Eclectic;$$$$;(212-307-7311)
Arqua;TriBeCa;281 Church Street;New York;NY;Italian;$$$;(212-334-1888)
Arqua;Tribeca;;New York;NY;Italian;;(212-334-1888)
Asia De Cuba;Murray Hill;237 Madison Ave;New York;NY;Asian;$$$$;
Asiakan;Upper West Side;710 Amsterdam Ave.;New York;NY;Pan-Asian \ Asian: Pan-Asian;$;(212-280-8878)
Asiate;Midtown West;;New York;NY;Asian: Pan-Asian;;(212-805-8881)
Aspen;Gramercy/Flatiron;30 W 22nd St;New York;NY;American Creative;;(212-645-5040)
Aspen;Gramercy / Flatiron;;New York;NY;American Creative;;(212-645-5040)
Aspen Social Club;Midtown West;157 W 47th St;New York;NY;American;$$$$;(212-221-7200)
Atlantic Grill;Upper East Side;1341 Third Ave;New York;NY;Seafood;$$$;(212-988-9200)
August;West Village;359 Bleecker St;New York;NY;European \ Eclectic;$$$;(212-929-4774)
August;Greenwich Village;359 Bleecker St btwn Charles and W 10th...;New York;NY;Eclectic;;(212-929-4774)
Aureole;Upper East Side;;New York;NY;American Creative;;(212-319-1660)
Aurora;SoHo;510 Broome St btwn Thompson St and West...;New York;NY;Italian;;(212-334-9020)
Avra Estiatorio;Midtown East;141 E 48th St;New York;NY;Greek;$$$$;
Awash;Upper West Side;947 Amsterdam Ave.;New York;NY;Ethiopian \ African: Ethiopian;;(212-961-1416)
Awash;Upper West Side;;New York;NY;African: Ethiopian;;(212-961-1416)
Azafran;TriBeCa;77 Warren St;New York;NY;Spanish;$$$;(212-284-0577)
Azucar;Midtown West;939 Eighth Avenue;New York;NY;Cuban \ Caribbean: Cuban;$$;(212-262-5354)
B. Smith's Restaurant Row;Midtown West;320 West 46th St;New York;NY;Southern;$$$;
BLT Fish;Flatiron;21 W 17th St;New York;NY;Seafood;$$;(212-691-8888)
BLT Fish;Chelsea;;New York;NY;Seafood;;(212-691-8888)
BLT Prime;Gramercy Park;111 East 22nd Street;New York;NY;American \ Steakhouses;$$$$;(212-995-8500)
BLT Steak;Midtown East;106 E 57th St;New York;NY;Steakhouse \ Steakhouses;$$$$$;(212-752-7470)
Babbo;Greenwich Village;110 Waverly Pl;New York;NY;Italian;$$$$;(212-777-0303)
Baldoria;Midtown West;249 West 49th Street;New York;NY;Italian;$$$$;(212-582-0460)
Bali Nusa Indah Restaurant Inc;;651 9th Ave;New York;NY;Indonesian;;
Balthazar;SOHO;80 Spring Street;New York;NY;French;$$$;(212-965-1414)
Balthazar;Soho;;New York;NY;French;;(212-965-1414)
Banjara;East Village;97 First Ave;New York;NY;Indian;$$;(212-477-5956)
Bann;Theater;350 W 50th St;New York;NY;Korean;$$$;(212-582-4446)
Bann;Midtown West;;New York;NY;Korean;;(212-582-4446)
Bao 111;East Village;111 Ave C;New York;NY;Asian;$$;
Bar Americain;Midtown West;152 W 52nd St;New York;NY;American \ American Regional;$$$$;(212-265-9700)
Bar Martignetti;Chinatown/Little Italy;406 Broome St.;New York;NY;French;;(212-680-5600)
Bar Pitti;Greenwich Village;268 Sixth Avenue;New York;NY;Italian;$$;(212-982-3300)
Baraonda;Upper East Side;1439 Second Avenue;New York;NY;Italian;;(212-288-8555)
Baraonda;Upper East Side;;New York;NY;Italian;;(212-288-8555)
Barbetta;Midtown East;321 W 46th Street;New York;NY;Italian;$$$;(212-246-9171)
Barbetta;Midtown West;;New York;NY;Italian;;(212-246-9171)
Barbounia;Flatiron;250 Park Ave South;New York;NY;Mediterranean;$$$$;(212-995-0242)
Barbounia;Gramercy / Flatiron;;New York;NY;Mediterranean;;(212-995-0242)
Barney Greengrass;Upper West Side;541 Amsterdam Ave;New York;NY;Deli \ American;$;(212-724-4707)
Barolo;SOHO;398 West Broadway;New York;NY;Italian;$$$;(212-226-1102)
Barolo;Soho;;New York;NY;Italian;;(212-226-1102)
Basta Pasta;Flatiron;37 W 17th St;New York;NY;Italian;$$;(212-366-0888)
Basta Pasta;Chelsea;;New York;NY;Italian;;(212-366-0888)
Battery Gardens;Financial District;;New York;NY;American;$$$;(212-809-5508)
Bay Leaf;Midtown West;49 W 56th Street;New York;NY;Indian;$$;(212-957-1818)
Beacon;Midtown West;25 West 56th St (Between 5th & 6th Avenues);New York;NY;American;$$$$;(212-332-0500)
Becco;Midtown West;355 W 46th St;New York;NY;Italian;$$$;(212-397-7597)
Bellavitae;Greenwich Village;21 Minetta Ln;New York;NY;Italian;$$$;(212-473-5121)
Bello;;863 Ninth Ave;New York;NY;;;
Bello Sguardo;Upper West Side;410 Amsterdam Ave;New York;NY;Mediterranean;$$;(212-873-6252)
Ben & Jack's Steak House;Midtown East;219 E 44th St;New York;NY;Steakhouse;$$$$;
Ben's Kosher Deli;Midtown West;209 West 38th Street;New York;NY;Deli;$;
Beppe;Flatiron;45 E 22nd St;New York;NY;Italian;$$$;(212-982-8422)
Bettola;Upper West Side;412 Amsterdam Ave;New York;NY;Italian;$$;(212-787-1660)
Beyoglu;Upper East Side;1431 Third Avenue;New York;NY;Mediterranean \ Turkish;$$;(212-650-0850)
Bianca;NoLita;5 Bleecker St;New York;NY;Italian;$$;(212-260-4666)
Bianca;East Village;;New York;NY;Italian;;(212-260-4666)
Bistro Cassis;Upper West Side;225 Columbus Ave;New York;NY;French;$$;(212-579-3966)
Bistro Citron;Upper West Side;473 Columbus Ave.;New York;NY;French;;(212-400-9401)
Bistro Citron;Upper West Side;;New York;NY;French;;(212-400-9401)
Bistro Les Amis;SOHO;180 Spring St/Thompson;New York;NY;French;$$;
Bistro Ten 18;Upper West Side;1018 Amsterdam Ave;New York;NY;American;$$;(212-662-7600)
Blaue Gans;TriBeCa;139 Duane Street;New York;NY;German \ Austrian;$$$;(212-571-8880)
Blaue Gans;Tribeca;;New York;NY;Austrian;;(212-571-8880)
Blockheads Mexican Diner;Midtown West;954 Second Ave;New York;NY;Mexican;$;
Bloomingdale Road;Upper West Side;2398 Broadway;New York;NY;American;$$$;(212-874-7400)
Bloomingdale Road;Upper West Side;;New York;NY;American;;(212-874-7400)
Blue 9 Burger;East Village;92 3rd Ave;New York;NY;American \ Cafés & diners;$;(212-979-0053)
Blue Fin;Midtown West;;New York;NY;Seafood;$$$;(212-918-1400)
Blue Hill;Greenwich Village;75 Washington Place;New York;NY;American;$$$$;(212-539-1776)
Blue Ribbon;SOHO;97 Sullivan Street;New York;NY;American \ American Creative;$$$;(212-274-0404)
Blue Ribbon Bakery;Greenwich Village;33 Downing Street;New York;NY;American \ Eclectic;$$;(212-337-0404)
Blue Ribbon Bakery;West Village;;New York;NY;Eclectic;;(212-337-0404)
Blue Ribbon Sushi;SOHO;119 Sullivan St;New York;NY;Sushi \ Japanese;$$$;(212-343-0404)
Blue Ribbon Sushi;Soho;;New York;NY;Japanese;;(212-343-0404)
Blue Smoke;Gramercy Park;116 E 27th St;New York;NY;Barbecue \ Barbeque;$$;(212-447-7733)
Blue Smoke;Gramercy / Flatiron;;New York;NY;Barbeque;;(212-447-7733)
Blue Water Grill;Union Square;31 Union Square West;New York;NY;Seafood;$$$;(212-675-9500)
Bluechili;Midtown West;251 W 51st St;New York;NY;Asian \ Asian: Pan-Asian;$$;(212-246-3330)
Bobo;Greenwich Village;181 W. 10th St.;New York;NY;European \ Eclectic;$$$$;(212-488-2626)
Bobo;West Village;;New York;NY;Eclectic;;(212-488-2626)
Boca Chica;East Village;13 First Avenue;New York;NY;South American \ Latin American;$;(212-473-0108)
Boi;Midtown East;246 East 44th Street;New York;NY;Vietnamese;$$;(212-681-6541)
Bolo;Flatiron;23 E 22nd St;New York;NY;Spanish;$$$$;
Bombay Grill;;344 Lexington Ave;New York;NY;Indian;$$;
Bombay Palace;Midtown West;30 W 52nd St;New York;NY;Indian;$$;(212-541-7777)
Bombay Talkie;Chelsea;189 Ninth Ave;New York;NY;Indian;$$;(212-242-1900)
Bond 45;Midtown West;154 W 45th St;New York;NY;Italian;$$$;(212-869-4545)
Bondi Road;Lower East Side;153 Rivington St.;New York;NY;Australian \ Australian & New Zealand;$$;(212-253-5311)
Bondi Road;Lower East Side;;New York;NY;Australian & New Zealand;;(212-253-5311)
Boom;SOHO;152 Spring Street;New York;NY;Italian;$$;(212-431-3663)
Boom;Soho;;New York;NY;Italian;;(212-431-3663)
Boqueria;Soho;;New York;NY;Spanish;;(212-343-4255)
Borgo Antico;East Village;22 E 13th St;New York;NY;Italian;$$$;(212-807-1313)
Bottino;Chelsea;246 10th Ave;New York;NY;Italian;$$$;(212-206-6766)
Bouley;Tribeca;;New York;NY;French;;(212-964-2525)
Bourbon Street Bar & Grille;Midtown West;346 W 46th Street;New York;NY;Creole-Cajun \ American Regional;$$$$;(212-245-2030)
Brasserie;Midtown East;100 East 53rd St;New York;NY;French;$$$;(212-751-4840)
Brasserie Julien;Upper East Side;1422 3rd Ave (Between 80th & 81st Streets);New York;NY;French;$$;(212-744-6327)
Bread;NoLita;20 Spring St;New York;NY;American \ Italian;$$;(212-334-1015)
Bridge Cafe;Financial District;279 Water St;New York;NY;American;$$$;(212-227-3344)
Bright Food Shop;Chelsea;218 Eighth Ave;New York;NY;Asian;$;
Broadway East;Lower East Side;171 East Broadway;New York;NY;American \ Vegetarian & Organic;$$$;(212-228-3100)
Bubba Gump Shrimp Co.;Midtown West;1501 Broadway;New York;NY;American;$;
Bubby's;TriBeCa;120 Hudson St;New York;NY;American;$;
Buddakan;Chelsea;75 Ninth Ave;New York;NY;Fusion \ Chinese;$$$$;(212-989-6699)
Buddha BBeeQ;Upper East Side;1750 Second Ave.;New York;NY;Korean;$;(212-348-7041)
Buddha Bar;Meatpacking District;25 Little West 12th Street;New York;NY;Asian \ Asian: Pan-Asian;$$$$;(212-647-7314)
Buenos Aires;East Village;513 E Sixth St;New York;NY;Argentinean \ Argentine;$$;(212-228-2775)
Bukhara Grill;Midtown East;217 E 49th St;New York;NY;Indian;$$;
Bull Run;Financial District;52 William St;New York;NY;American;$$$;
Burger Joint;Midtown West;;New York;NY;American;;(212-245-5000)
Butai;Gramercy Park;115 E 18th St;New York;NY;Japanese;$$$;(212-387-8885)
Butter;East Village;415 Lafayette St;New York;NY;American;$$$;(212-253-2828)
Cabrito;West Village;50 Carmine St.;New York;NY;Fusion \ Mexican;;(212-929-5050)
Cafe Asean;West Village;117 West 10th Street;New York;NY;Asian: Pan-Asian;;(212-633-0348)
Cafe Asean;West Village;;New York;NY;Asian: Pan-Asian;;(212-633-0348)
Cafe Con Leche;Upper West Side;726 Amsterdam Ave;New York;NY;Cuban;$;
Cafe De Bruxelles;West Village;118 Greenwich Ave;New York;NY;Belgian;$$;
Cafe Des Artistes;Upper West Side;1 W 67th Street;New York;NY;French;$$$;
Cafe Espanol;Greenwich Village;172 Bleecker Street;New York;NY;American;$;
Cafe Frida;Upper West Side;368 Columbus Ave;New York;NY;Mexican;$$;(212-712-2929)
Cafe Gitane;NoLita;242 Mott St;New York;NY;French \ Moroccan;$;(212-334-9552)
Cafe Joul;Midtown East;1070 First Avenue;New York;NY;French;$$;
Cafe Lalo;Upper West Side;201 W 83rd St;New York;NY;American;$;
Cafe Loup;Greenwich Village;105 W 13th St;New York;NY;French;$$$;(212-255-4746)
Cafe Mogador;East Village;101 St Marks Pl;New York;NY;Moroccan;$;
Cafe Ronda;Upper West Side;249-251 Columbus Ave;New York;NY;Mediterranean \ Argentine;$$;(212-579-9929)
Cafe Select;;212 Lafayette Street;New York;NY;International;$$$;
Cafe Un Deux Trois;Midtown West;123 W 44th St;New York;NY;French;$$$;
Cafeteria;Chelsea;119 Seventh Avenue;New York;NY;American;$;(212-414-1717)
Caffe Falai;SoHo;265 Lafayette St at Prince St;New York;NY;Cafés & diners;;(917-338-6207)
Café Boulud;Upper East Side;20 East 76th St;New York;NY;French;$$$$;(212-772-2600)
Café Sabarsky;Upper East Side;;New York;NY;Austrian;$$;(212-288-0665)
Calle Ocho;Upper West Side;446 Columbus Avenue;New York;NY;Cuban \ Caribbean;$$;(212-873-5025)
Camaje;Greenwich Village;85 Macdougal St;New York;NY;American \ French;$$;(212-673-8184)
Camino Sur;Midtown West;336 W 37th St;New York;NY;South American;$$$;
Campagnola;Upper East Side;1382 First Ave;New York;NY;Italian;$$$$;(212-861-1102)
Candle 79;Upper East Side;154 E 79 St;New York;NY;Vegetarian \ Vegetarian & Organic;$$;(212-537-7179)
Canyon Road;Upper East Side;1470 First Avenue;New York;NY;Southwestern \ American Regional;$$;(212-734-1600)
Caracas Arepa Bar;East Village;91 East 7th St;New York;NY;South American \ Latin American: Venezuelan;$;(212-228-5062)
Carnegie Deli;Midtown West;854 7th Ave;New York;NY;Deli \ American;$;(212-757-2245)
Casa;West Village;72 Bedford St;New York;NY;South American \ Brazilian;$$;(212-366-9410)
Casa;Greenwich Village;72 Bedford St at Commerce St;New York;NY;Brazilian;;(212-366-9410)
Casimir;East Village;103-105 Ave B;New York;NY;French;$$;(212-358-9683)
Caterina's;Midtown East;316 East 53rd Street;New York;NY;Hungarian;$$$;
Celeste;Upper West Side;502 Amsterdam Ave;New York;NY;Italian;$$;(212-874-4559)
Cendrillon;SOHO;45 Mercer St;New York;NY;Southeast Asian \ Asian: Filipino;$$;(212-343-9012)
Cendrillon;Soho;;New York;NY;Asian: Filipino;;(212-343-9012)
Cercle Rouge;TriBeCa;241 W Broadway;New York;NY;American \ French;$$$;(212-226-6252)
Cercle Rouge;Tribeca;;New York;NY;French;;(212-226-6252)
Chanterelle;TriBeCa;2 Harrison St;New York;NY;French;$$$$$;(212-966-6960)
Chanterelle;Tribeca;;New York;NY;French;;(212-966-6960)
Charlie Palmer's Metrazur;Midtown East;East Balcony #4, 404 Grand Central Terminal, 42nd Street;New York;NY;American;$$$;
Chennai Garden;Gramercy Park;129 E 27 St;New York;NY;Indian;$;(212-689-1999)
Chez Jacqueline;Greenwich Village;72 Macdougal St;New York;NY;French;$$$;(212-505-0727)
Chikalicious Dessert Bar;East Village;203 E 10th St;New York;NY;American;$;
Chimichurri Grill;Midtown West;606 9th Avenue;New York;NY;South American \ Argentine;$$$;(212-586-8655)
Chin Chin;Midtown East;216 E 49th St;New York;NY;Chinese;$$$;(212-888-4555)
China Grill;Midtown West;60 W 53rd St;New York;NY;Asian \ Asian: Pan-Asian;$$$$;(212-333-7788)
China de Puebla;Harlem;3143 Broadway;New York;NY;Asian;;
Chinatown Brasserie;NoLita;380 Lafayette St;New York;NY;Chinese;$$$;(212-533-7000)
Chino's;Gramercy Park;173 Third Ave;New York;NY;Asian;$;
Chiyono;East Village;328 E. Sixth St.;New York;NY;Japanese;$$;(212-673-3984)
Chiyono;East Village;;New York;NY;Japanese;;(212-673-3984)
Cho Dang Gol;Midtown West;55 W 35th St;New York;NY;Korean;$;(212-695-8222)
Chola;Midtown East;232 E 58th St;New York;NY;Indian;$$;(212-688-4619)
Chow Bar;West Village;230 W Fourth St;New York;NY;Asian \ Asian: Pan-Asian;$$;(212-633-2212)
Chow Bar;Greenwich Village;230 W 4th St at 10th St;New York;NY;Asian: Pan-Asian;;(212-633-2212)
Cibo;Midtown East;767 Second Avenue;New York;NY;American;$$$;
Cinema Cafe On 34th;;505 3rd Ave;New York;NY;;;
Circus;Upper East Side;132 E 61st St;New York;NY;South American \ Brazilian;$$$;(212-223-2965)
City Bakery;Flatiron;3 W 18th St;New York;NY;American \ Cafés & diners;$;(212-366-1414)
City Burger;Midtown West;1410 Broadway;New York;NY;American;$$;(212-997-7770)
City Hall;TriBeCa;131 Duane St;New York;NY;Seafood \ American;$$$;(212-227-7777)
Coffee Shop;Union Square;29 Union Square West;New York;NY;American \ Cafés & diners;$;(212-243-7969)
Colors;East Village;417 Lafayette St;New York;NY;International \ Eclectic;$$$;(212-777-8443)
Compass;Upper West Side;208 W 70th Street;New York;NY;American \ American Creative;$$$;(212-875-8600)
Convivio;Midtown East;45 Tudor City Pl;New York;NY;Italian;$$$$$;(212-599-5045)
Cookshop;Chelsea;156 10th Ave;New York;NY;American;$$$$;(212-924-4440)
Corner Bistro;West Village;331 W 4th St;New York;NY;American;$;(212-242-9502)
Cosette;Murray Hill;163 E 33rd St;New York;NY;French;$$;(212-889-5489)
Cosette;Midtown East;163 E 33rd St btwn Lexington and Third...;New York;NY;French;;(212-889-5489)
Counter;East Village;105 First Ave;New York;NY;Vegetarian \ Vegetarian & Organic;$$;(212-982-5870)
Country;Gramercy / Flatiron;;New York;NY;American Creative;;(212-889-7100)
Cowgirl;West Village;519 Hudson Street;New York;NY;Southwestern \ American Regional;$;(212-633-1133)
Cowgirl;Greenwich Village;519 Hudson St at 10th St;New York;NY;American Regional;;(212-633-1133)
Craft;Union Square;43 E 19th St;New York;NY;American;$$$$$;(212-780-0880)
Craft;Gramercy / Flatiron;;New York;NY;American;;(212-780-0880)
Craftbar;Flatiron;900 Broadway;New York;NY;American \ American Creative;$$$;(212-461-4300)
Craftbar;Gramercy / Flatiron;;New York;NY;American Creative;;(212-461-4300)
Crema Restaurante;Chelsea;111 West 17th Street;New York;NY;Mexican;$$$;
Creole;Harlem;2167 Third Ave;New York;NY;Creole-Cajun;$$;
Crisp;Midtown East;684 3rd Ave;New York;NY;Middle Eastern;$$;
Crispo;West Village;240 W 14th St;New York;NY;Italian;$$$;(212-229-1818)
Crispo;Greenwich Village;240 W 14th St btwn 7th and 8th Aves;New York;NY;Italian;;(212-229-1818)
Cru;Greenwich Village;24 Fifth Ave;New York;NY;Mediterranean \ American Creative;$$$$;(212-529-1700)
Cuba;Greenwich Village;222 Thompson Street;New York;NY;Cuban \ Caribbean: Cuban;$$;(212-420-7878)
Cuba Cafe;Chelsea;200 Eighth Ave;New York;NY;Cuban \ Caribbean: Cuban;$;(212-633-1570)
Cubana Cafe;Greenwich Village;110 Thompson St;New York;NY;Cuban \ Caribbean: Cuban;$;(212-966-5366)
Cube 63;Lower East Side;63 Clinton St;New York;NY;Japanese;$$;(212-228-6751)
Cucina Di Pesce;East Village;87 E 4th St;New York;NY;Italian;$;
Da Antonio;Midtown East;157 E 55th St;New York;NY;Italian;$$$$;
Da Ciro;Murray Hill;229 Lexington Ave;New York;NY;Italian;$$;
Da Nico;Chinatown/Little Italy;164 Mulberry St.;New York;NY;Italian;$$;(212-343-1212)
Da Silvano;Greenwich Village;260 6th Avenue;New York;NY;Italian;$$$;(212-982-2343)
Da Umberto;;107 West 17th Street;New York;NY;Italian;$$$;
Danal;East Village;90 E 10th St;New York;NY;French;$$;(212-982-6930)
Daniel;Upper East Side;60 E 65th St;New York;NY;French;$$$$$;(212-288-0033)
Davidburke & Donatella;Upper East Side;133 E 61st St;New York;NY;American;$$$$;
Dawat;Midtown East;210 E 58th St;New York;NY;Indian;$$$;(212-355-7555)
Degustation;East Village;239 E Fifth St;New York;NY;Spanish;$$$;(212-979-1012)
Del Frisco's;Midtown West;1221 Sixth Ave;New York;NY;Steakhouse;$$$$;
Del Posto;Chelsea;85 10th Ave;New York;NY;Italian;$$$$$;(212-497-8090)
Delmonico's;Financial District;56 Beaver Street;New York;NY;American;$$$$$;(212-509-1144)
Delta Grill;Midtown West;700 Ninth Ave;New York;NY;Creole-Cajun \ American Regional;$$;(212-956-0934)
Demarchelier;Upper East Side;50 E. 86th St.;New York;NY;French;;(212-249-6300)
Demarchelier;Upper East Side;;New York;NY;French;;(212-249-6300)
Dervish Turkish;Midtown West;146 West 47th Street;New York;NY;Middle Eastern;$$;
Desnuda;East Village;122 E 7th St;New York;NY;Seafood \ Eclectic;$$$;(212-254-3515)
Devi;Flatiron;8 E 18th St;New York;NY;Indian;$$$$;
Dim Sum Go Go;Chinatown;5 E Broadway;New York;NY;Chinese;$;(212-732-0797)
Ditch Plains;West Village;29 Bedford St.;New York;NY;Seafood;;(212-633-0202)
Ditch Plains;West Village;;New York;NY;Seafood;;(212-633-0202)
Ditch Plains;Greenwich Village;29 Bedford St at Downing St;New York;NY;Seafood;;(212-633-0202)
Diva;SOHO;341 W Broadway;New York;NY;Italian;$$$;(212-941-9024)
Django;Midtown East;480 Lexington Avenue;New York;NY;French;$$$;
Do Hwa;Greenwich Village;55 Carmine St;New York;NY;Korean;$$;(212-414-1224)
Do Hwa;West Village;;New York;NY;Korean;;(212-414-1224)
Dok Suni;East Village;119 First Ave;New York;NY;Korean;$$;
Dolce Vita;;181 Grand Street;New York;NY;;;
Dolce Vita;SoHo;181 Grand St btwn Baxter and Mulberry...;New York;NY;;;
Don Pedro's;Upper East Side;1865 Second Ave;New York;NY;Caribbean;$$;
Donguri;Upper East Side;309 E 83rd St;New York;NY;Japanese;$$$;(212-737-5656)
Dos Caminos Park;Gramercy Park;373 Park Ave South;New York;NY;Mexican;$$;
Dos Caminos Soho;SOHO;475 West Broadway;New York;NY;Mexican;$$$;(212-277-4300)
Dos Caminos Soho;SoHo;475 West Broadway at Houston St;New York;NY;Mexican;;(212-277-4300)
Doyers Vietnamese;Chinatown;11-13 Doyers St;New York;NY;Asian;$;
Duane Park Cafe;TriBeCa;157 Duane St;New York;NY;American;$$$;
Dylan Prime;TriBeCa;62 Laight St;New York;NY;Steakhouse \ Steakhouses;$$$$$;(212-334-4783)
Dylan Prime;Tribeca;;New York;NY;Steakhouses;;(212-334-4783)
E.A.T.;Upper East Side;1064 Madison Avenue;New York;NY;American;$$;
East Of Eighth;;254 West 23rd St;New York;NY;;;
Eatery;Midtown West;798 9th Ave;New York;NY;American \ Eclectic;$;(212-765-7080)
Eight Mile Creek;Little Italy;240 Mulberry St;New York;NY;Australian \ Australian & New Zealand;$$;(212-431-4635)
El Charro Espanol;Greenwich Village;4 Charles St;New York;NY;Spanish;$$$;
El Faro;West Village;823 Greenwich St;New York;NY;Spanish;$$;(212-929-8210)
El Parador Cafe;Murray Hill;325 E 34th St;New York;NY;Mexican;$$;(212-679-6812)
El Parador Cafe;Midtown East;;New York;NY;Mexican;;(212-679-6812)
El Pote;Murray Hill;718 2nd Ave;New York;NY;Spanish;$$;
El Quijote;Chelsea;226 W 23rd St;New York;NY;Spanish;$$;(212-929-1855)
El Rio Grande;Midtown East;160 East 38th Street;New York;NY;Southwestern;$$$;
Eleven Madison Park;Gramercy Park;11 Madison Ave;New York;NY;American \ American Creative;$$$$$;(212-889-0905)
Eleven Madison Park;Gramercy / Flatiron;;New York;NY;American Creative;;(212-889-0905)
Elmo;Chelsea;156 Seventh Ave;New York;NY;American;$$;(212-337-8000)
Employees Only;West Village;510 Hudson St;New York;NY;European \ American Creative;$$$;(212-242-3021)
Employees Only;Greenwich Village;510 Hudson St btwn Christopher and West...;New York;NY;American Creative;;(212-242-3021)
En Japanese Brasserie;West Village;435 Hudson St;New York;NY;Japanese;$$$;
Epices Inc;Upper West Side;103 W 70th St;New York;NY;Mediterranean;$$;
Erminia;Upper East Side;250 E 83rd St;New York;NY;Italian;$$$;(212-879-4284)
Esca;Midtown West;402 W 43rd St;New York;NY;Italian;$$$$;(212-564-7272)
Esperanto;East Village;145 Ave C;New York;NY;Nuevo Latino \ Latin American;$$;(212-505-6559)
Essex;Lower East Side;120 Essex St;New York;NY;American \ Eclectic;$;(212-533-9616)
Estancia 460;Midtown West;460 Greenwich St;New York;NY;Argentinean \ Argentine;$$;(212-431-5093)
Estancia 460;Tribeca;;New York;NY;Argentine;;(212-431-5093)
Estiatorio Milos;Midtown West;125 West 55th Street;New York;NY;Greek;$$$$;(212-245-7400)
Etats-Unis;Upper East Side;242 E 81st St;New York;NY;American \ American Creative;$$$;(212-517-8826)
Etcetera Etcetera;Theater;352 W 44th St;New York;NY;Italian \ Mediterranean;$;(212-399-4141)
Etcetera Etcetera;Midtown West;;New York;NY;Mediterranean;;(212-399-4141)
Ethiopian Restaurant;Upper East Side;The, 1582 York Ave;New York;NY;African \ African: Ethiopian;$;(212-717-7311)
Extra Virgin;West Village;259 W 4th St;New York;NY;Mediterranean;$$;(212-691-9359)
F.illi Ponte;Tribeca;39 Desbrosses St.;New York;NY;Italian;$$$$;(212-226-4621)
FR.OG;SOHO;71 Spring Street;New York;NY;French;$$$;
Falai;Lower East Side;68 Clinton St;New York;NY;Italian \ Cafés & diners;$$$;(212-253-1960)
Fat Hippo;;71 Clinto St.;New York;NY;;;
Fatty Crab;Meatpacking District;643 Hudson Street;New York;NY;Indonesian \ Asian: Pan-Asian;$$;(212-352-3590)
Felidia;Midtown East;243 East 58th Street;New York;NY;Italian;$$$$;(212-758-1479)
Fiamma Osteria;SOHO;206 Spring Street;New York;NY;Italian;$$$;
Film Center Cafe;Midtown West;635 9th Avenue;New York;NY;American;$$;(212-262-2525)
Fish;Greenwich Village;280 Bleecker St;New York;NY;Seafood;$$;(212-727-2879)
Fish;West Village;;New York;NY;Seafood;;(212-727-2879)
Five Points;NoLita;31 Great Jones Street;New York;NY;American;$$$;(212-253-5700)
Five Points;East Village;;New York;NY;American;;(212-253-5700)
Forge;TriBeCa;134 Reade St;New York;NY;American;$$$$;(212-941-9401)
Francisco's Centro Vasco;Chelsea;159 W 23rd St;New York;NY;Seafood;;(212-645-6224)
Francisco's Centro Vasco;Chelsea;;New York;NY;Seafood;;(212-645-6224)
Frankie & Johnnie's Steakhouse;Midtown West;32 W 37th St;New York;NY;Steakhouse;$$$;
Frederick's Madison;Upper East Side;768 Madison Ave;New York;NY;Mediterranean;$$$$;
French Roast;Upper West Side;2340 Broadway;New York;NY;Breakfast \ Cafés;$;(212-799-1533)
French Roast;Greenwich Village;2340 Broadway at 85th St;New York;NY;Cafés;;(212-799-1533)
Fresco by Scotto;Midtown East;34 E 52nd St;New York;NY;Italian;$$$;(212-935-3434)
Fresh;TriBeCa;105 Reade St;New York;NY;Seafood;$$$;(212-406-1900)
Gabriela's;Upper West Side;688 Columbus Avenue;New York;NY;Mexican;$$;
Gari;Upper West Side;370 Columbus Ave;New York;NY;Sushi \ Japanese;$$$$$;(212-362-4816)
Gascogne;Chelsea;158 8th Avenue;New York;NY;French;$$$;(212-675-6564)
Gavroche;West Village;212 W 14th St;New York;NY;French;$$$;(212-647-8553)
Geisha;Upper East Side;33 E 61st St;New York;NY;Japanese \ Asian: Pan-Asian;$$$$;(212-813-1112)
Gennaro;Upper West Side;665 Amsterdam Ave;New York;NY;Italian;$$;(212-665-5348)
Ghenet Restaurant;NoLita;284 Mulberry St;New York;NY;African;$;
Giorgione 508;SOHO;508 Greenwich St;New York;NY;Continental;$$$;
Gobo;Upper East Side;1426 Third Ave.;New York;NY;Vegetarian \ Vegetarian & Organic;$$;(212-288-4686)
Gobo;Upper East Side;;New York;NY;Vegetarian & Organic;;(212-288-4686)
Golden Unicorn;;18 E Broadway;New York;NY;;;
Good;West Village;89 Greenwich St;New York;NY;American;$$;(212-691-8080)
Goodies;Chinatown;1 E Broadway;New York;NY;Chinese;$;
Gordon Ramsay;Midtown West;The London NYC;New York;NY;French;$$$$$;
Gramercy Tavern;Union Square;42 E 20th St;New York;NY;American \ American Creative;$$$$;(212-477-0777)
Gramercy Tavern;Gramercy / Flatiron;;New York;NY;American Creative;;(212-477-0777)
Gray's Papaya;Hell's Kitchen;539 8th Avenue;New York;NY;Fast Food;$;
Greenwich Grill;TriBeCa;428 Greenwich St;New York;NY;Californian \ Eclectic;$$$;(212-274-0428)
Greenwich Grill;Tribeca;;New York;NY;Eclectic;;(212-274-0428)
Gyu-Kaku;East Village;;New York;NY;Japanese;;(212-475-2989)
HQ;;90 Thompson St;New York;NY;;;
Hallo Berlin;Midtown West;626 10th Ave.;New York;NY;German;$;(212-977-1944)
Hallo Berlin;Midtown West;;New York;NY;German;;(212-977-1944)
Hangawi;Murray Hill;12 E 32nd Street;New York;NY;Korean;$$$;(212-213-0077)
Hasaki;East Village;210 E Ninth St;New York;NY;Sushi \ Japanese;$$;(212-473-3327)
Hatsuhana;Midtown East;237 Park Ave;New York;NY;Sushi \ Japanese;$$$$;(212-355-3345)
Havana Central;Midtown West;151 W 46th Street;New York;NY;Cuban \ Caribbean: Cuban;$$;(212-398-7440)
Haveli;East Village;100 Second Ave;New York;NY;Indian;$$;(212-982-0533)
Hea;East Village;145 E. 13th St.;New York;NY;Pan-Asian \ Japanese;$$$;(212-982-1688)
Hearth;East Village;403 E 12th St;New York;NY;American;$$$$;(646-602-1300)
Hedeh;NoLita;57 Great Jones St;New York;NY;Sushi \ Japanese;$$$;(212-473-8458)
Heidelberg;Upper East Side;1648 2nd Ave;New York;NY;German;$$;(212-628-2332)
Highline;Meatpacking District;835 Washington St;New York;NY;Asian \ Thai;$$;(212-243-3339)
Hill Country;Chelsea;30 W. 26th St.;New York;NY;Barbecue \ Barbeque;$$;(212-255-4544)
Hispaniola;Harlem;839 W 181st St;New York;NY;Asian \ Caribbean;$$;(212-740-5222)
Holy Basil;East Village;;New York;NY;Asian \ Thai;$;(212-460-5557)
Home;Greenwich Village;20 Cornelia St;New York;NY;American;$$;(212-243-9579)
Hudson Cafeteria;Midtown West;;New York;NY;American;$$$;(212-554-6500)
Hunan Park Restaurant;;235 Columbus Ave;New York;NY;;;
I Sodi;Greenwich Village;105 Christopher St;New York;NY;Italian;$$$;(212-414-5774)
I Sodi;West Village;;New York;NY;Italian;;(212-414-5774)
I Tre Merli;SOHO;463 W Broadway;New York;NY;Italian;$$$;(212-254-8699)
I Tre Merli;Soho;;New York;NY;Italian;;(212-254-8699)
I Trulli;Gramercy Park;122 E 27th St;New York;NY;Italian;$$$;
Icon;Midtown East;;New York;NY;American;$$$;(212-592-8888)
Ideya;SOHO;349 W Broadway;New York;NY;Caribbean \ Latin American;$$;(212-625-1441)
Ideya;Soho;;New York;NY;Latin American;;(212-625-1441)
Ideya;SoHo;349 West Broadway btwn Broome and Grand...;New York;NY;Latin American;;(212-625-1441)
Iguana;;240 W 54th St;New York;NY;;;
Il Bagatto;East Village;192 E Second St;New York;NY;Italian;$$;(212-228-0977)
Il Bastardo;Chelsea;191 Seventh Ave;New York;NY;Steakhouse \ Italian;$$$;(212-675-5980)
Il Brigante;Financial District;214 Front St.;New York;NY;Italian;$$;
Il Buco;NoLita;47 Bond St;New York;NY;Italian;$$$;
Il Cantinori;Greenwich Village;32 East 10th St;New York;NY;Italian;$$$$;(212-673-6044)
Il Cortile;Little Italy;125 Mulberry St;New York;NY;Italian;$$$;
Il Gattopardo;Midtown West;33 W 54th St;New York;NY;Italian;$$$;(212-246-0412)
Il Giglio;TriBeCa;81 Warren St;New York;NY;Italian;$$$$;(212-571-5555)
Il Mulino;Greenwich Village;86 W 3rd St;New York;NY;Italian;$$$$;(212-673-3783)
Il Valentino;Midtown East;;New York;NY;Italian;$$$;(212-355-0001)
Inagiku;Midtown East;;New York;NY;Sushi \ Japanese;$$$$;(212-355-0440)
Indochine;East Village;430 Lafayette St;New York;NY;French \ Vietnamese;$$$;(212-505-5111)
Indochine;Greenwich Village;;New York;NY;Vietnamese;;(212-505-5111)
Indus Valley;Upper West Side;2636 Broadway;New York;NY;Indian;$$;(212-222-9222)
Industria Argentina;Tribeca;329 Greenwich St.;New York;NY;Argentinean \ Argentine;$$$;(212-965-8560)
Industria Argentina;Tribeca;;New York;NY;Argentine;;(212-965-8560)
Insieme;Midtown West;;New York;NY;Italian;$$$$;(212-582-1310)
Ippudo;East Village;65 4th Ave;New York;NY;Japanese;$$$;
Isabella's;Upper West Side;359 Columbus Ave;New York;NY;American;$$;
Ithaka;Upper East Side;308 E 86th St;New York;NY;Greek;$$$;(212-628-9100)
Ivo & Lulu;SOHO;558 Broome St;New York;NY;Caribbean \ French;$;(212-226-4399)
Ivo & Lulu;Soho;;New York;NY;French;;(212-226-4399)
Jacques-Imo's;Upper West Side;366 Columbus Ave;New York;NY;Creole-Cajun;$$;
Jane;Greenwich Village;100 W Houston St;New York;NY;American;$$$;(212-254-7000)
Japonica;Greenwich Village;100 University Pl;New York;NY;Sushi \ Japanese;$$$;(212-243-7752)
Jarnac;West Village;328 W 12th St;New York;NY;French;$$$;(212-924-3413)
Jean Georges;Upper West Side;;New York;NY;French;$$$$$;(212-299-3900)
Jekyll & Hyde Club;Greenwich Village;1409 Ave Of The Americas;New York;NY;American;$$;
Jezebel;Midtown West;630 Ninth Ave;New York;NY;Southern;$$$;
JoJo;Upper East Side;160 E 64th St;New York;NY;French;$$$$;(212-223-5656)
Joe's Pizza;Greenwich Village;7 Carmine St;New York;NY;Pizza;$;
Johnny Utah's;;25 W. 51st St.;New York;NY;;;
Josie's;Upper West Side;300 Amsterdam Avenue;New York;NY;International;$$;
Jules;East Village;65 St Marks Pl;New York;NY;French;$$;(212-477-5560)
Kabab Factory;Murray Hill;101 Lexington Avenue;New York;NY;Indian;$$;
Kai;Upper East Side;822 Madison Ave;New York;NY;Japanese;$$$$;(212-988-7277)
Kaijou;Financial District;21 South End Street;New York;NY;Japanese;$$;
Kanoyama;East Village;175 Second Ave;New York;NY;Sushi \ Japanese;$$;(212-777-5266)
Katz's Delicatessen;Lower East Side;205 East Houston Street;New York;NY;Deli;$;
Kefi;Upper West Side;222 W. 79th St.;New York;NY;Greek;$$$;(212-873-0200)
Kellari Taverna;Midtown West;19 W 44th St;New York;NY;Greek;$$;
Kelley & Ping;SOHO;127 Greene St;New York;NY;Asian;$;
Kin Khao;SOHO;171 Spring Street;New York;NY;Asian;$$;
Kings' Carriage House;Upper East Side;251 E 82nd St;New York;NY;Continental;$$$;
Kittichai;Soho;;New York;NY;Thai;;(212-219-2000)
Klee Brasserie;Chelsea;200 9th Avenue;New York;NY;American \ Eclectic;$$$;(212-633-8033)
Klong;East Village;7 St Marks Pl;New York;NY;Asian \ Thai;$;(212-505-9955)
Knickerbocker Bar & Grill;Greenwich Village;33 University Pl;New York;NY;American;$$$;
Koi;Midtown West;;New York;NY;Asian \ Japanese;$$$$;(212-642-2100)
Kori;TriBeCa;253 Church St;New York;NY;Korean;$$;(212-334-0908)
Kori;Tribeca;;New York;NY;Korean;;(212-334-0908)
Kum Gang San;Midtown West;49 W 32nd St;New York;NY;Korean;$$;(212-967-0909)
Kuma Inn;Lower East Side;113 Ludlow St;New York;NY;Southeast Asian \ Asian: Pan-Asian;$$;(212-353-8866)
Kuruma Zushi;Midtown East;;New York;NY;Sushi \ Japanese;$$$$$;(212-317-2802)
Kyma;Midtown West;300 W 46th St;New York;NY;Greek;$$$;
Kyo Ya;East Village;94 E 7th St;New York;NY;Japanese;$$$$;(212-982-4140)
L'Allegria;Theater;623 9th Ave;New York;NY;Italian;$$;
L'Atelier de Joel Robuchon;Midtown East;57 E. 57th Street;New York;NY;French;$$$$$;
L'Ecole;SOHO;462 Broadway;New York;NY;French;$$$;
La Belle Vie;Chelsea;184 Eighth Ave;New York;NY;French;$$;
La Bergamote;Chelsea;169 Ninth Ave;New York;NY;French;$;
La Boite En Bois;Upper West Side;75 W 68th St;New York;NY;French;$$$;(212-874-2705)
La Goulue;Upper East Side;746 Madison Ave;New York;NY;French;$$$;(212-988-8169)
La Grenouille;Midtown East;3 E 52nd St;New York;NY;French;$$$$;(212-752-1495)
La Grolla;;413 Amsterdam Ave;New York;NY;;;
La Mela Ristorante;Little Italy;167 Mulberry St;New York;NY;Italian;$$;
La Paella;East Village;214 E Ninth St;New York;NY;Spanish;$$;(212-598-4321)
La Palapa;Greenwich Village;77 St Marks Pl;New York;NY;Mexican;$$;(212-777-2537)
La Palapa;East Village;;New York;NY;Mexican;;(212-777-2537)
La Pizza Fresca Ristorante;Union Square;31 E 20th St;New York;NY;Italian;$$;
La Tour;;1319 3rd Ave.;New York;NY;French;$$$$;
La Vela;Upper West Side;373 Amsterdam Ave;New York;NY;Italian;$$;
La Vineria;Midtown West;;New York;NY;Italian;;(212-258-2900)
Lan;East Village;56 Third Ave;New York;NY;Sushi \ Japanese;$$;(212-254-1959)
Land;;450 Amsterdam Ave;New York;NY;;;
Land Thai Kitchen;Upper West Side;450 Amsterdam Ave;New York;NY;Thai;$$;(212-501-8121)
Lavagna;East Village;545 E. Fifth St.;New York;NY;Italian;$$$;(212-979-1005)
Lavagna;East Village;;New York;NY;Italian;;(212-979-1005)
Le Bernardin;Midtown West;155 W 51st St;New York;NY;Seafood \ French;$$$$$;(212-489-1515)
Le Bilboquet;Upper East Side;25 E 63rd St;New York;NY;French;$$$;(212-751-3036)
Le Gigot;Greenwich Village;18 Cornelia St;New York;NY;French;$$$;(212-627-3737)
Le Gigot;West Village;;New York;NY;French;;(212-627-3737)
Le Jardin Bistro;NoLita;25 Cleveland Pl;New York;NY;French;$$$;(212-343-9599)
Le Madeleine;Midtown West;403 W 43rd Street;New York;NY;French;$$$;
Le Miu;East Village;107 Ave. A;New York;NY;Sushi \ Japanese;$$$;(212-473-3100)
Le Miu;East Village;;New York;NY;Japanese;;(212-473-3100)
Le Monde;Harlem;2885 Broadway;New York;NY;French;$$;(212-531-3939)
Le Monde;Upper West Side;2885 Broadway btwn 112th and 113th Sts;New York;NY;French;;(212-531-3939)
Le Pere Pinard;Lower East Side;175 Ludlow St;New York;NY;French;$$;
Le Souk;Midtown East;47 Ave B;New York;NY;African \ Moroccan;$$;(212-777-5454)
Le Souk;East Village;;New York;NY;Moroccan;;(212-777-5454)
Le Zie 2000;Chelsea;172 Seventh Ave;New York;NY;Italian;$$;(212-206-8686)
Leela Lounge;Greenwich Village;1 W. Third St.;New York;NY;Indian;$$;(212-529-2059)
Leela Lounge;Greenwich Village;;New York;NY;Indian;;(212-529-2059)
Les Enfants Terribles;Lower East Side;37 Canal St;New York;NY;African \ African: Pan-African;$$;(212-777-7518)
Les Halles;Gramercy Park;411 Park Ave S;New York;NY;French;$$$;(212-679-4111)
Lima's Taste;West Village;122 Christopher St;New York;NY;South American \ Peruvian;$;(212-242-0010)
Lime Leaf;Upper West Side;2799 Broadway;New York;NY;Thai;;(212-864-5000)
Lime Leaf;Upper West Side;;New York;NY;Thai;;(212-864-5000)
Lisca;Upper West Side;660 Amsterdam Ave;New York;NY;Italian;;(212-799-3987)
Lisca;Upper West Side;;New York;NY;Italian;;(212-799-3987)
Little Giant;Lower East Side;85 Orchard St;New York;NY;American \ Cafés & diners;$$$$;(212-226-5047)
Little Owl;West Village;90 Bedford Street;New York;NY;American;$$$;
Lombardi's;NoLita;32 Spring St;New York;NY;Pizza;$;
Lomito;SOHO;300 Spring St;New York;NY;Argentinean;$$$;
Londel's Supper Club;Harlem;2620 Frederick Douglas Blvd;New York;NY;Southern;$$;
Loreley;Lower East Side;7 Rivington St.;New York;NY;German;;(212-253-7077)
Loreley;Lower East Side;7 Rivington St btwn Bowery and Chrystie...;New York;NY;German;;(212-253-7077)
Los Dos Molinos;Gramercy Park;119 E 18th St;New York;NY;Southwestern \ American Regional;$$;(212-505-1574)
Loside;Lower East Side;157 E Houston Street;New York;NY;American;$;
Lucien;East Village;14 1st Ave;New York;NY;French;$$;(212-260-6481)
Lucy Latin Kitchen;Flatiron;35 E 18th St;New York;NY;Nuevo Latino;$$$;
Lupa;Greenwich Village;170 Thompson St;New York;NY;Italian;$$$$;(212-982-5089)
Lusardi's;Upper East Side;1494 Second Ave;New York;NY;Italian;$$$$;
Luzia's;;429 Amsterdam Ave.;New York;NY;;;
Macelleria;Meatpacking District;48 Gansevoort St;New York;NY;Italian;$$$;(212-741-2555)
Madison Bistro;Murray Hill;238 Madison Ave;New York;NY;French;$$$;
Mai House;TriBeCa;186 Franklin Street;New York;NY;Vietnamese;$$$;(212-431-0606)
Mai House;Tribeca;;New York;NY;Vietnamese;;(212-431-0606)
Malatesta Trattoria;West Village;649 Washington St;New York;NY;Italian;$$;(212-741-1207)
Mama Mexico;Midtown East;2672 Broadway;New York;NY;Mexican;$$;
Mama's Food Shop;East Village;200 E Third St;New York;NY;American;$;
Mamlouk;East Village;211 East 4th St;New York;NY;Middle Eastern;$$$;
Mandarin Court;Chinatown;61 Mott St;New York;NY;Chinese;$;
Mandoo Bar;Midtown West;2 W 32nd St;New York;NY;Korean;$;(212-279-3075)
Mara's Homemade;East Village;342 E Sixth St;New York;NY;Creole-Cajun;$$;
Mare;Chelsea;198 Eighth Ave;New York;NY;Seafood;$$;(212-675-7522)
Maremma;West Village;228 W 10th St;New York;NY;Italian;$$$;
MarkJoseph Steakhouse;Financial District;261 Water St;New York;NY;Steakhouse \ Steakhouses;$$$$;(212-277-0020)
Market Table;West Village;54 Carmine St;New York;NY;American;$$$$;(212-255-2100)
Market Table;West Village;;New York;NY;American;;(212-255-2100)
Markt;Flatiron;676 6th Avenue;New York;NY;Belgian;$$$;(212-727-3314)
Markt;Chelsea;;New York;NY;Belgian;;(212-727-3314)
Maroons;Chelsea;244 W 16th St;New York;NY;Southern \ Caribbean: Jamaican;$$;(212-206-8640)
Marseille;Midtown West;630 Ninth Ave;New York;NY;French;$$$;(212-333-3410)
Mary's Fish Camp;West Village;64 Charles St;New York;NY;Seafood;$$;
Matsuri;Chelsea;;New York;NY;Japanese;;(212-243-6400)
Max;East Village;1274 Amsterdam Ave;New York;NY;Italian;$;(212-539-0111)
Maya;Midtown East;1191 First Avenue;New York;NY;Mexican;$$$$;(212-585-1818)
Maya;Upper East Side;;New York;NY;Mexican;;(212-585-1818)
Mediterraneo;Upper East Side;1260 Second Ave;New York;NY;Italian;$$;
Megu;TriBeCa;62 Thomas St;New York;NY;Japanese;$$$$$;(212-964-7777)
Megu;Tribeca;;New York;NY;Japanese;;(212-964-7777)
Meltemi;Midtown East;905 First Ave;New York;NY;Greek;$$$;
Mercadito;East Village;179 Ave B;New York;NY;Mexican;$$;(212-529-6493)
Mercadito Grove;West Village;100 Seventh Ave S;New York;NY;Mexican;$$;(212-647-0830)
Mercadito Grove;Greenwich Village;100 Seventh Ave So at Grove St;New York;NY;Mexican;;(212-647-0830)
Mercat;SOHO;45 Bond Street;New York;NY;Spanish;$$$$;(212-529-8600)
Mercat;East Village;;New York;NY;Spanish;;(212-529-8600)
Mercer Kitchen;SOHO;99 Prince Street;New York;NY;American;$$$$;
Mesa Grill;Flatiron;102 5th Ave;New York;NY;Southwestern \ American Regional;$$$$;(212-807-7400)
Mesa Grill;Gramercy / Flatiron;;New York;NY;American Regional;;(212-807-7400)
Meskerem;;468 W. 47th St.;New York;NY;Ethiopian;;
Metisse;Upper West Side;239 W 105th St;New York;NY;French;$$$;
Mexicana Mama;West Village;525 Hudson St;New York;NY;Mexican;$$;(212-924-4119)
Mezzaluna;Upper East Side;1295 3rd Ave;New York;NY;American \ Italian;$$;(212-535-9600)
Mi Cocina;West Village;57 Jane St;New York;NY;Mexican;$$$;
Michael's;Midtown West;24 W 55th St;New York;NY;Californian;$$$$;
Mickey Mantle's;Midtown East;42 Central Park South;New York;NY;American;$$$;
Mill Korean;Harlem;2895 Broadway;New York;NY;Korean;$;
Minetta Tavern;Greenwich Village;113 Macdougal Street;New York;NY;Italian \ Eclectic;$$$;(212-475-3850)
Mingala Burmese;Upper East Side;;New York;NY;Asian: Burmese;;(212-744-8008)
Miracle Bar & Grill;West Village;415 Bleecker St;New York;NY;Southwestern;$$;
Miss Maude's Spoonbread Too;Harlem;547 Lenox Ave;New York;NY;Southern;$;
Mofongo Depot;Upper West Side;931 Amsterdam Ave;New York;NY;Nuevo Latino \ Caribbean;$$;(646-707-3904)
Molyvos;Midtown West;871 7th Avenue;New York;NY;Greek;$$$;(212-582-7500)
Momofuku Ko;East Village;163 First Ave;New York;NY;Chinese \ Japanese;$$$$;(no phone)
Momofuku Noodle Bar;East Village;171 First Ave.;New York;NY;Chinese \ Japanese;$$$;(212-777-7773)
Momoya;Chelsea;;New York;NY;Japanese;;(212-989-4466)
Mon Petit Cafe;Upper East Side;801 Lexington Ave;New York;NY;French;$$;
Monkey Bar;Midtown East;;New York;NY;American \ Asian: Pan-Asian;$$$$;(212-838-2600)
Monster Sushi;Midtown West;;New York;NY;Japanese;;(212-398-7707)
Montebello;Midtown East;120 E 56th St;New York;NY;Italian;$$$;(212-753-1447)
Morandi;Greenwich Village;211 Waverly Place;New York;NY;Italian;$$$;(212-627-7575)
Morandi;West Village;;New York;NY;Italian;;(212-627-7575)
Morimoto;Chelsea;88 10th Ave;New York;NY;Japanese;$$$$;(212-989-8883)
Moustache;East Village;;New York;NY;Middle Eastern;;(212-228-2022)
Mr. Chow;Midtown East;324 E 57th St;New York;NY;Chinese;$$$$;(212-751-9030)
Mrs Lee & Shabu Shabu Wok;West Village;121 University Pl;New York;NY;Asian;$;
Mughlai;Upper West Side;320 Columbus Ave;New York;NY;Indian;$$;
Mustang Sally's;Chelsea;324 Seventh Avenue;New York;NY;American;$$;
Nelson Blue;Financial District;233 Front Street;New York;NY;British \ Australian & New Zealand;$$;(212-346-9090)
Neo Sushi;Upper West Side;2298 Broadway;New York;NY;Sushi;$$$$;
Neptune Room;Upper West Side;511 Amsterdam Ave;New York;NY;Seafood;$$$$;
Nero;Meatpacking District;46 Gansevoort St;New York;NY;Italian;$$$;(212-675-5224)
New Bo-Ky;Chinatown;80 Bayard St;New York;NY;Asian;$;
New York Noodle Town;SOHO;28 Bowery at Bayard Street;New York;NY;Asian \ Chinese;$;(212-349-0923)
Nha Trang;Chinatown;87 Baxter St;New York;NY;Asian \ Vietnamese;$;(212-233-5948)
Nice;Chinatown;35 E Broadway;New York;NY;Chinese;$;
Nick's;Upper East Side;1814 Second Ave;New York;NY;Italian;$;
Nicky's Vietnamese Sandwiches;East Village;150 E 2nd St;New York;NY;American \ Vietnamese;$;(212-388-1088)
Nicole's;Midtown East;10 East 60th Street;New York;NY;British;$$;
Niko's Mediterranean Grill;Upper West Side;2161 Broadway;New York;NY;Greek;$;
Nino's Bellissima Pizza;Midtown East;890 Second Ave.;New York;NY;Italian;$$$;
Noble Food & Wine;NoLita;7 Spring Street;New York;NY;American;$$$;(212-777-0877)
Nobu Fifty Seven;Midtown West;40 W 57th St;New York;NY;Japanese;$$$$$;
Nobu Next Door;TriBeCa;105 Hudson St;New York;NY;Sushi;$$$$;
Nocello;Midtown West;257 West 55th St;New York;NY;Italian;$$$;
Nocello;Theater;257 West 55th Street;New York;NY;Italian;$$$$;
Nonna;Upper West Side;520 Columbus Ave;New York;NY;Italian;;(212-579-3194)
Nonna;Upper West Side;;New York;NY;Italian;;(212-579-3194)
Norma's;Midtown West;118 West 57th Street;New York;NY;American;$$;
Nougatine;;1 Central Park West;New York;NY;American;$$$$;
Novecento;SOHO;343 W Broadway;New York;NY;South American \ Argentine;$$$;(212-925-4706)
Novecento;Soho;;New York;NY;Argentine;;(212-925-4706)
Novita;Gramercy Park;102 E 22nd Street;New York;NY;Italian;$$$;
Nyonya;Little Italy;194 Grand Street;New York;NY;Malaysian \ Asian: Malaysian;$;(212-334-3669)
Ocean Grill;Upper West Side;384 Columbus Ave;New York;NY;Seafood;$$$;(212-579-2300)
Oceana;Midtown East;55 E 54th St;New York;NY;Seafood;$$$$;(212-759-5941)
Old Devil Moon;East Village;511 E 12th St;New York;NY;Southern;$;
Old Homestead;Meatpacking District;56 9th Ave;New York;NY;Steakhouse;$$$$;
Oliva;Lower East Side;161 East Houston Street;New York;NY;American \ Spanish;$$;(212-228-4143)
Omen;SOHO;113 Thompson Street;New York;NY;Japanese;$$$;(212-925-8923)
Omen;Soho;;New York;NY;Japanese;;(212-925-8923)
Once Upon a Tart;SOHO;135 Sullivan Street;New York;NY;American;$;
One;Meatpacking District;1 Little West 12th St;New York;NY;American \ Eclectic;$$$;(212-255-9717)
Ono;Meatpacking District;;New York;NY;Sushi \ Japanese;$$$$;(212-660-6766)
Open the Sesame;Lower East Side;198A Orchard St.;New York;NY;Thai;$;(212-777-7009)
Oriental Garden;Chinatown;14 Elizabeth St;New York;NY;Chinese;$;(212-619-0085)
Osteria Gelsi;Midtown West;507 Ninth Ave;New York;NY;Italian;$$$;
Otto;Greenwich Village;1 Fifth Ave;New York;NY;Italian;$$$$;
Ouest;Upper West Side;2315 Broadway;New York;NY;American \ American Creative;$$$$;(212-580-8700)
Outback Steakhouse;Flatiron;60 W 23rd St;New York;NY;Steakhouse;$$;
P.J. Clarke's;;915 Third Ave;New York;NY;;;
Paladar;Lower East Side;161 Ludlow St;New York;NY;Nuevo Latino \ Latin American;$$;(212-473-3535)
Pam Real Thai Food;Midtown West;404 W 49th St;New York;NY;Asian \ Thai;$;(212-333-7500)
Pampa;Upper West Side;768 Amsterdam Avenue;New York;NY;South American;$$;
Pampano;Midtown East;209 E 49th St;New York;NY;Mexican;$$$;(212-751-4545)
Paradou;Meatpacking District;8 Little W 12th St;New York;NY;French;$$;(212-463-8345)
Paris Commune;West Village;99 Bank St;New York;NY;Continental \ French;$$;(212-929-0509)
Park Avenue Cafe;Upper East Side;100 East 63rd St (@ Park Avenue);New York;NY;American;$$$$;
Park East Grill;Upper East Side;1564 2nd Avenue;New York;NY;Jewish;$;
Parlor Steakhouse;Upper East Side;1600 3rd Ave;New York;NY;Steakhouse \ Steakhouses;$$$$;(212-423-5888)
Pasha;Upper West Side;70 W 71st St;New York;NY;Middle Eastern \ Turkish;$$$;(212-579-8751)
Pastis;Meatpacking District;9 Ninth Ave;New York;NY;French;$$$;(212-929-4844)
Payard Bistro;Upper East Side;1032 Lexington Avenue;New York;NY;French;$$$;
Pearl Oyster Bar;Greenwich Village;18 Cornelia Street;New York;NY;Seafood;$$$;(212-691-8211)
Pearl Oyster Bar;West Village;;New York;NY;Seafood;;(212-691-8211)
Peasant;NoLita;194 Elizabeth St;New York;NY;Italian;$$$;(212-965-9511)
Peep;Soho;;New York;NY;Thai;;(212-254-7337)
Penelope;Murray Hill;159 Lexington Ave;New York;NY;American \ Cafés;$;(212-481-3800)
Pepe Giallo;Chelsea;253 10th Ave;New York;NY;;;
Pepe Giallo;Chelsea;;New York;NY;;;
Pepe Rosso;SOHO;149 Sullivan St;New York;NY;Italian;$;
Pera;Midtown East;303 Madison Avenue;New York;NY;Mediterranean;$$$$;
Perbacco;East Village;234 E Fourth St;New York;NY;Italian;$$$;(212-253-2038)
Peri Ela;Upper East Side;1361 Lexington Avenue;New York;NY;Turkish;$$;(212-410-4300)
Perilla;Greenwich Village;9 Jones Street;New York;NY;American;$$$$;(212-929-6868)
Perilla;West Village;;New York;NY;American;;(212-929-6868)
Periyali;Flatiron;35 W 20th St;New York;NY;Greek;$$$$;(212-463-7890)
Persimmon;East Village;277 E 10th St;New York;NY;Korean;$$$$;(212-260-9080)
Persimmon;East Village;;New York;NY;Korean;;(212-260-9080)
Pescatore;Midtown East;955-957 2nd Ave;New York;NY;Indian \ Italian;$$$;(212-752-7151)
Petrossian;Midtown West;182 W 58th St;New York;NY;Continental \ Russian;$$$$;(212-245-2214)
Philip Marie;West Village;569 Hudson St;New York;NY;American;$$$;(212-242-6200)
Philip Marie;Greenwich Village;569 Hudson St at 11th St;New York;NY;American;;(212-242-6200)
Piadina;Greenwich Village;57 W 10th St;New York;NY;Italian;$$;(212-460-8017)
Piano Due;Midtown West;151 W 51st St;New York;NY;Italian;$$$$;(212-399-9400)
Piccolo Angolo;West Village;621 Hudson St;New York;NY;Italian;$$;(212-229-9177)
Picholine;Upper West Side;35 W 64th St;New York;NY;Mediterranean \ French;$$$$;(212-724-8585)
Pig Heaven;Midtown West;1540 Second Ave;New York;NY;Chinese;$$;(212-744-4333)
Pig Heaven;Upper East Side;;New York;NY;Chinese;;(212-744-4333)
Ping's Seafood;Chinatown;22 Mott St;New York;NY;Chinese;$;
Pisticci;Harlem;125 La Salle St;New York;NY;Italian;$;(212-932-3500)
Po;Greenwich Village;31 Cornelia St;New York;NY;Italian;$$$;
Popover Cafe;Upper West Side;551 Amsterdam Ave;New York;NY;American;$;
Porchetta;East Village;110 East 7th Street;New York;NY;Italian;$$$;(212-777-2151)
Positano;Little Italy;122 Mulberry St;New York;NY;Italian;$$;
Post House;Upper East Side;;New York;NY;Steakhouse \ Steakhouses;$$$$;(212-935-2888)
Prime Grill;Midtown East;60 E 49th St;New York;NY;Jewish;$$$$;
Primitivo Osteria;West Village;202 West 14th Street;New York;NY;Italian;$$$;
Provence;SOHO;38 Macdougal Street;New York;NY;French;$$;
Prune;East Village;54 E First St;New York;NY;American \ American Creative;$$$;(212-677-6221)
Public;NoLita;210 Elizabeth St;New York;NY;International \ Eclectic;$$$;(212-343-0918)
Pukk;East Village;71 First Ave;New York;NY;Thai;$;(212-253-2741)
Puttanesca;Midtown West;859 9th Avenue;New York;NY;Italian;$$;(212-581-4177)
Pylos;East Village;128 E Seventh St;New York;NY;Greek;$$;(212-473-0220)
Quality Meats;Midtown West;57 W 58th St;New York;NY;Steakhouse \ Steakhouses;$$$$;(212-371-7777)
Radio Perfecto;East Village;190 Ave B;New York;NY;American;$$;(212-477-3366)
Rainbow Room;Midtown West;;New York;NY;Italian;$$$$;(212-632-5000)
Rao's;Harlem;455 East 114th St;New York;NY;Italian;$$$$;
Raoul's;SOHO;180 Prince St;New York;NY;French;$$$;
Redeye Grill;Midtown West;890 Seventh Ave;New York;NY;American \ Seafood;$$$;(212-541-9000)
Remi;Midtown West;145 W 53rd St;New York;NY;Italian;$$$;(212-581-4242)
Republic;Union Square;37 Union Square W;New York;NY;Asian \ Asian: Pan-Asian;$;(212-627-7168)
Resto;Gramercy Park;111 E. 29th Street;New York;NY;Belgian;$$;(212-685-5585)
Resto;Gramercy / Flatiron;;New York;NY;Belgian;;(212-685-5585)
Revel;Meatpacking District;10 Little W. 12th Street;New York;NY;International;$$$$;
Revival;Harlem;2367 Frederick Douglass Blvd;New York;NY;Caribbean \ American;$$;(212-222-8338)
Ribot;;780 Third Ave;New York;NY;;;
Rice 'N' Beans;Midtown West;744 9th Ave;New York;NY;South American;$;
Riingo;Midtown East;;New York;NY;Japanese;$$$$;(212-867-4200)
Risotteria;West Village;270 Bleecker St;New York;NY;Italian;;(212-924-6664)
Risotteria;West Village;;New York;NY;Italian;;(212-924-6664)
Risotteria;Greenwich Village;270 Bleecker St at Morton St;New York;NY;Italian;;(212-924-6664)
Roberto Passon;Midtown West;741 Ninth Ave;New York;NY;Italian;$$$;(212-582-5599)
Rocco Restaurant;Greenwich Village;181 Thompson St;New York;NY;Italian;$$;
Rocking Horse;Chelsea;182 Eighth Ave;New York;NY;Mexican;$$;
Rolf's;;281 Third Ave.;New York;NY;German;$$;
Rosa Mexicano;Upper West Side;61 Columbus Avenue;New York;NY;Mexican;$$$;(212-977-7700)
Rub Bbq;;208 W 23rd St;New York;NY;;;
Rue 57;Midtown West;60 West 57th Street;New York;NY;French;;(212-307-5656)
Rue 57;Midtown West;;New York;NY;French;;(212-307-5656)
Russian Samovar;Midtown West;256 W 52nd St;New York;NY;Continental \ Russian;$$$;(212-757-0168)
Ruth's Chris Steak House;Midtown West;148 West 51st Street;New York;NY;Steakhouse;$$$$;
S.O.B.'s;SOHO;200 Varick St;New York;NY;Brazilian;$;
Sacred Chow;Greenwich Village;227 Sullivan Street;New York;NY;Vegetarian \ Vegetarian & Organic;$;(212-337-0863)
Sal Anthony's S.P.Q.R.;Little Italy;133 Mulberry St;New York;NY;Italian;$$;
Sala;NoLita;344 Bowery;New York;NY;Spanish;$$;(212-979-6606)
Sala;East Village;;New York;NY;Spanish;;(212-979-6606)
Salaam Bombay;Tribeca;;New York;NY;Indian;;(212-226-9400)
Salmon River;Murray Hill;3 East 40th Street;New York;NY;Seafood;$$;(212-481-7887)
Salmon River;Midtown East;;New York;NY;Seafood;;(212-481-7887)
Salt;SOHO;58 Macdougal St;New York;NY;American;$$$;(212-674-4968)
Salt Bar;Lower East Side;29 Clinton St;New York;NY;American;$$$;(212-979-8471)
Sambuca;Upper West Side;20 W 72nd St;New York;NY;Italian;$$;
Sammy's Roumanian;Lower East Side;157 Chrystie St;New York;NY;European;$$$;
Sant Ambroeus;Upper East Side;;New York;NY;Italian;;(212-570-2211)
Santa Fe;Upper West Side;73 W 71st St;New York;NY;Southwestern;$$;
Sapa;Chelsea;43 West 24th Street;New York;NY;Asian \ Vietnamese;$$$;(212-929-1800)
Sapphire;Upper West Side;1845 Broadway;New York;NY;Indian;$$$;(212-245-4444)
Sardi's;Midtown West;234 West 44th Street;New York;NY;Continental \ American;$$$;(212-221-8444)
Sarge's Deli;Murray Hill;548 Third Avenue;New York;NY;Deli;$;
Saucy;Upper East Side;1409 York Avenue;New York;NY;International \ Eclectic;$$;(212-249-3700)
Savann;Upper West Side;414 Amsterdam Ave;New York;NY;French;$$;(212-580-0202)
Savoy;SOHO;70 Prince St;New York;NY;American \ American Creative;$$$;(212-219-8570)
Savoy;Soho;;New York;NY;American Creative;;(212-219-8570)
Scaletta;Midtown West;50 W 77th St;New York;NY;Italian;$$$;
Scalinatella;Upper East Side;201 East 61st Street;New York;NY;Italian;$$$$;(212-207-8280)
Scalini Fedeli;TriBeCa;165 Duane St;New York;NY;Italian;$$$$;(212-528-0400)
Scalini Fedeli;Tribeca;;New York;NY;Italian;;(212-528-0400)
Scarlatto;Midtown West;250 W 47th St;New York;NY;Italian;$$;(212-730-4535)
Scarpetta;Meatpacking District;355 W 14th St;New York;NY;Italian;$$$$;(212-691-0555)
Sea;East Village;75 Second Ave;New York;NY;Asian;$;
Sea Grill;Midtown West;19 West 49th Street;New York;NY;Seafood;$$$$;
Sequoia;Wall Street;Pier 17;New York;NY;Seafood;$$;
Serendipity 3;Upper East Side;225 E 60th St;New York;NY;American;$;(212-838-3531)
Sezz Medi';Harlem;1260 Amsterdam Ave;New York;NY;Mediterranean;$$;(212-932-2901)
Sfoglia;Upper East Side;1402 Lexington Avenue;New York;NY;Italian;$$$$;
Shaburi;Murray Hill;125 E 39th St;New York;NY;Japanese;$$$;(212-867-6999)
Shaburi;Midtown East;125 E 39th St btwn Park and Lexington...;New York;NY;Japanese;;(212-867-6999)
Shaffer City Oyster Bar & Grill;Flatiron;5 W 21st St;New York;NY;Seafood;$$$;(212-255-9827)
Shake Shack;Upper West Side;366 Columbus Ave;New York;NY;American;$$;(no phone yet)
Shula's Steak House;Midtown West;270 W 43rd St;New York;NY;American;$$$$;
Shun Lee Cafe;Upper West Side;43 W 65th St;New York;NY;Chinese;;(212-769-3888)
Shun Lee Cafe;Upper West Side;43 W 65th St btwn Central Park West and...;New York;NY;Chinese;;(212-769-3888)
Shun Lee Palace;Midtown East;155 E 55th Street;New York;NY;Chinese;$$$;(212-371-8844)
Shun Lee West;Upper West Side;43 W. 65th St.;New York;NY;Chinese;$$$;(212-595-8895)
Shun Lee West;Upper West Side;43 W 65th St btwn Central Park West and...;New York;NY;Chinese;;(212-595-8895)
Sip Sak;Midtown East;928 Second Ave;New York;NY;Middle Eastern \ Turkish;$;(212-583-1900)
Slane;West Village;102 MacDougal St;New York;NY;Irish;$$;
Smith & Wollensky;Midtown East;797 Third Ave;New York;NY;Steakhouse \ Steakhouses;$$$;(212-753-1530)
Smorgas Chef;Midtown East;;New York;NY;Scandinavian;;(212-486-1411)
Snack;SOHO;105 Thompson St;New York;NY;Greek;$;(212-925-1040)
Snack;Soho;;New York;NY;Greek;;(212-925-1040)
Snack Taverna;West Village;63 Bedford St;New York;NY;Greek;$$;(212-929-3499)
Soba-Ya;East Village;229 E Ninth St;New York;NY;Asian \ Japanese;$;(212-533-6966)
Sofrito;Midtown East;400 E. 57th St.;New York;NY;Nuevo Latino \ Caribbean: Puerto Rican;$$;(212-754-5999)
Sofrito;Midtown East;;New York;NY;Caribbean: Puerto Rican;;(212-754-5999)
Solera;Midtown East;216 E 53rd St;New York;NY;Spanish;$$$;(212-644-1166)
Son Cubano;Meatpacking District;361 Greenwich St;New York;NY;Cuban \ Caribbean: Cuban;$$$;(212-366-1640)
Soto;Greenwich Village;357 Sixth;New York;NY;Sushi \ Japanese;$$$;(212-414-3088)
Soto;West Village;;New York;NY;Japanese;;(212-414-3088)
Southside Cafe;Theater;252 W 47th Street;New York;NY;Italian;$$;
Spice;Greenwich Village;;New York;NY;Thai;;(212-982-3758)
Spice Market;Meatpacking District;403 W 13th St;New York;NY;Malaysian \ Indian;$$$;(212-675-2322)
Spigolo;Upper East Side;1561 Second Ave;New York;NY;Italian;$$$;(212-744-1100)
Spotlight Live;Theater;1604 Broadway;New York;NY;American;$$$$;(212-262-1111)
Spotlight Live;Midtown West;;New York;NY;American;;(212-262-1111)
Spotted Pig;West Village;The, 314 W 11th St;New York;NY;British;$$$;
Stage Deli;Midtown West;834 Seventh Avenue;New York;NY;Deli \ American;$;(212-245-7850)
Stand;Greenwich Village;24 E. 12th Street;New York;NY;American;$;(212-488-5900)
Stanton Social;Lower East Side;99 Stanton St;New York;NY;International;$$$;
Stella Maris;Financial District;213 Front St.;New York;NY;European \ French;$$;(212-233-2417)
Strip House;Greenwich Village;13 E 12th St;New York;NY;Steakhouse \ Steakhouses;$$$;(212-328-0000)
Suba;Lower East Side;109 Ludlow St;New York;NY;Spanish;$$$;(212-982-5714)
Suenos;Chelsea;311 W 17th St;New York;NY;Mexican;$$$;
Sugiyama;Midtown West;251 W 55th St;New York;NY;Japanese;$$$$;(212-956-0670)
Supper;East Village;156 E Second St;New York;NY;Italian;$$;(212-477-7600)
Surya;West Village;302 Bleecker St;New York;NY;Indian;$$;(212-807-7770)
Surya;Greenwich Village;302 Bleecker St btwn Seventh Ave South...;New York;NY;Indian;;(212-807-7770)
Sushi Samba;Flatiron;245 Park Ave South;New York;NY;Sushi \ Japanese;$$$;(212-475-9377)
Sushi Seki;Upper East Side;1143 1st Ave;New York;NY;Sushi \ Japanese;$$$;(212-371-0238)
Sushi Yasuda;Midtown East;204 E 43rd St;New York;NY;Japanese;$$$$$;(212-972-1001)
Sushi Zen;Midtown West;108 W 44th St;New York;NY;Sushi \ Japanese;$$$;(212-302-0707)
Swagat Indian Cuisine;;411a Amsterdam Ave;New York;NY;;;
Swizz;Midtown West;310 W 53rd St;New York;NY;Swiss;$$;
Tabla;Gramercy Park;11 Madison Ave;New York;NY;Indian;$$$$;(212-889-0667)
Tabla;Gramercy / Flatiron;;New York;NY;Indian;;(212-889-0667)
Taboon;Midtown West;773 10th Ave;New York;NY;Mediterranean \ Middle Eastern;$$$;(212-713-0271)
Tailor;Soho;525 Broome St.;New York;NY;Cafés & diners;;(212-334-5182)
Tailor;Soho;;New York;NY;Cafés & diners;;(212-334-5182)
Tailor;SoHo;525 Broome St btwn Thompson and...;New York;NY;Cafés & diners;;(212-334-5182)
Takahachi Tribeca;TriBeCa;145 Duane St;New York;NY;Japanese;$$;(212-571-1830)
Talay;Harlem;701 W 135th St;New York;NY;Thai \ Asian: Pan-Asian;$$$;(212-491-8300)
Tang Pavilion;Midtown West;65 W 55th St;New York;NY;Chinese;$$;(212-956-6888)
Tao;Midtown East;42 E 58th Street;New York;NY;Asian \ Asian: Pan-Asian;$$$;(212-888-2288)
Taormina;Little Italy;147 Mulberry St;New York;NY;Italian;$$;
Tartine;West Village;253 W 11th St;New York;NY;French;$;(212-229-2611)
Tavern on the Green;Upper West Side;Central Park W.;New York;NY;American;;(212-873-3200)
Tavern on the Green;Upper West Side;Central Park West-at 67th St;New York;NY;American;;(212-873-3200)
Tea & Sympathy;West Village;108 Greenwich Ave;New York;NY;British \ British & Irish;$;(212-989-9735)
Telepan;Midtown West;72 West 69th Street;New York;NY;American;$$$$;(212-580-4300)
Telepan;Upper West Side;;New York;NY;American;;(212-580-4300)
Tello's;Chelsea;263 W 19th St;New York;NY;Italian;$$;
The American;NoLita;235 Mulberry St.;New York;NY;American;$;
The Cafe Carlyle;;35 E 76 St;New York;NY;;;
The Cupping Room Cafe;;359 West Broadway;New York;NY;;;
The Four Seasons;Midtown East;99 E 52nd St;New York;NY;Continental;$$$$;
The Harrison;TriBeCa;355 Greenwich St;New York;NY;American;$$$;(212-274-9310)
The Harrison;Tribeca;;New York;NY;American;;(212-274-9310)
The House;Gramercy Park;121 E. 17th Street;New York;NY;Mediterranean \ Eclectic;$$$$;(212-353-2121)
The House;Gramercy / Flatiron;;New York;NY;Eclectic;;(212-353-2121)
The Modern;Midtown West;9 W 53rd St;New York;NY;American \ American Creative;$$$$;(212-333-1220)
The New French;Greenwich Village;522 Hudson St;New York;NY;French \ Eclectic;$$$;(212-807-7357)
The New French;West Village;;New York;NY;Eclectic;;(212-807-7357)
The Pink Tea Cup;West Village;42 Grove St;New York;NY;Southern \ American Regional;$;(212-807-6755)
The Place;West Village;310 W Fourth St;New York;NY;American \ Mediterranean;$$$;(212-924-2711)
The Place;Greenwich Village;310 W 4th St btwn Bank and W 12th Sts;New York;NY;Mediterranean;;(212-924-2711)
The Redhead;East Village;349 E. 13th Street;New York;NY;American;$$$;(212-533-6212)
The Sunburnt Cow;East Village;137 Avenue C;New York;NY;Australian \ Australian & New Zealand;$;(212-529-0005)
Thor;Lower East Side;;New York;NY;American;$$$$;(646-253-6700)
Three Of Cups;East Village;83 First Ave;New York;NY;Italian;$;
Tia Pol;Chelsea;205 Tenth Ave;New York;NY;Spanish;$$;(212-675-8805)
Tocqueville;Union Square;1 E 15th St;New York;NY;American \ American Creative;$$$$;(212-647-1515)
Tomo;Harlem;2850 Broadway;New York;NY;Sushi \ Japanese;$;(212-665-2915)
Tomoe Sushi;Greenwich Village;172 Thompson St;New York;NY;Sushi \ Japanese;$$;(212-777-9346)
Tony's Di Napoli;Midtown West;;New York;NY;Italian;;(212-221-0100)
Town;Midtown West;;New York;NY;American \ American Creative;$$$$;(212-582-4445)
Trattoria Dell'Arte;Midtown West;900 Seventh Ave;New York;NY;Italian;$$$;
Tribeca Grill;TriBeCa;375 Greenwich St;New York;NY;American;$$$;(212-941-3900)
Tribeca Grill;Tribeca;;New York;NY;American;;(212-941-3900)
Triomphe;Midtown West;;New York;NY;French;$$$$;(212-453-4233)
Troy Turkish Grill;Midtown West;539 9th Ave;New York;NY;Turkish;$;
Tsampa;East Village;212 E Ninth St;New York;NY;Southeast Asian \ Asian: Tibetan;$;(212-614-3226)
Tse Yang;Midtown East;34 East 51st Street;New York;NY;Chinese;$$$;(212-688-5447)
Turkish Cuisine;Midtown West;631 9th Ave;New York;NY;Middle Eastern;$$;
Turkish Kitchen;Midtown East;386 Third Ave;New York;NY;Turkish;$$$$;(212-679-1810)
Turkuaz;Harlem;2637 Broadway;New York;NY;Middle Eastern \ Turkish;$$;(212-665-9541)
Turkuaz;Upper West Side;;New York;NY;Turkish;;(212-665-9541)
Tuscan Square;Midtown West;16 W 51st St;New York;NY;Italian;$$$;
Una Pizza Napoletana;East Village;349 E 12th St;New York;NY;Pizza \ Italian: Pizza;$;(212-477-9950)
Uncle Nick's;Midtown West;747 9th Ave;New York;NY;Greek;$$;
Union Square Cafe;Union Square;21 E 16th St;New York;NY;American;$$$$;(212-243-4020)
Urena;Gramercy Park;37 E 28th St;New York;NY;Spanish;$$$;
Utsav;Midtown West;;New York;NY;Indian;$$$;(212-575-2525)
Varietal;Chelsea;138 W. 25th Street;New York;NY;American;$$$$;
Vatan;Gramercy Park;409 Third Ave;New York;NY;Indian;$$;(212-689-5666)
Veniero's;East Village;342 E 11th St;New York;NY;American;$;
Vento;Meatpacking District;675 Hudson St;New York;NY;Italian;$$$;(212-699-2400)
Veritas;Union Square;43 E 20th St;New York;NY;American \ American Creative;$$$$;(212-353-3700)
Veritas;Gramercy / Flatiron;;New York;NY;American Creative;;(212-353-3700)
Veselka Restaurant;East Village;144 2nd Ave;New York;NY;American;$;
Via Brasil;Midtown West;34 W 46 St;New York;NY;South American;$$;
Vico Ristorante;Upper East Side;1302 Madison Ave;New York;NY;Italian;$$$;
Villa Mosconi Restaurant;Greenwich Village;69 Macdougal St;New York;NY;Italian;$$$;
Village;Greenwich Village;62 W Ninth St;New York;NY;French;$$$;(212-505-3355)
Vintage Irving;Union Square;118A E. 15th St.;New York;NY;Small Plates \ Mediterranean;$$$;(212-677-6300)
Vong;Midtown East;200 East 54th St;New York;NY;Thai;$$$$;(212-486-9592)
Waikiki Wally's;East Village;101 East 2nd Street;New York;NY;Hawaiian;$$$;
Walker's;TriBeCa;16 N Moore St;New York;NY;American;$;
Wallse;West Village;344 W 11th St;New York;NY;Austrian;$$$$;
Wallse;Greenwich Village;344 W 11th St at Washington St;New York;NY;;;
Wd-50;Murray Hill;50 Clinton St;New York;NY;American;$$$$;
Westville;West Village;210 W 10th St;New York;NY;American;$;(212-741-7971)
Westville East;East Village;173 Ave. A;New York;NY;American;$;(212-677-2033)
Whym;Midtown West;889 Ninth Ave.;New York;NY;American;;(212-315-0088)
Whym;Midtown West;;New York;NY;American;;(212-315-0088)
Wild Ginger;West Village;51 Grove St.;New York;NY;Thai \ Asian: Pan-Asian;$$$;(212-367-7200)
Wild Ginger;West Village;;New York;NY;Asian: Pan-Asian;;(212-367-7200)
Wo Hop Restaurant;;17 Mott St;New York;NY;;;
Won Jo;Midtown West;23 W 32nd St;New York;NY;Korean;$$;(212-695-5815)
Woo Lae Oak;SOHO;148 Mercer St;New York;NY;Korean;$$$;(212-925-8200)
Woo Lae Oak;Soho;;New York;NY;Korean;;(212-925-8200)
Woo Lae Oak;SoHo;148 Mercer St btwn Prince and Houston St;New York;NY;Korean;;(212-925-8200)
Xunta;East Village;174 First Ave;New York;NY;Spanish;$;(212-614-0620)
Yakitori Totto;Midtown West;251 W. 55th St., 2nd fl;New York;NY;Japanese;$$$;(212-245-4555)
Yuca Bar;East Village;111 Ave A;New York;NY;Nuevo Latino \ Latin American;$;(212-982-9533)
Yuka;;1557 2nd Ave;New York;NY;;;
Yuki Sushi;Upper West Side;656 Amsterdam Ave;New York;NY;Sushi;$;
Zen Palate;Midtown West;;New York;NY;Vegetarian & Organic;;(212-582-1276)
Zerza;East Village;304 E Sixth St;New York;NY;Moroccan;$$;
Zeytin;Upper West Side;519 Columbus Ave;New York;NY;Turkish;$$;(212-579-1145)
Zoe;SOHO;90 Prince St;New York;NY;American;$$$;
Zoma;Harlem;2084 Frederick Douglass Blvd.;New York;NY;Ethiopian \ African: Ethiopian;$$;(212-662-0620)
Zona Rosa;Midtown West;40 W 56th St;New York;NY;Mexican;;(212-247-2800)
Zona Rosa;Midtown West;;New York;NY;Mexican;;(212-247-2800)
Zum Schneider;East Village;107 Ave C;New York;NY;German;$;
Zuni;Theater;598 Ninth Ave;New York;NY;American \ American Regional;$$;(212-765-7626)
Zuni;Midtown West;;New York;NY;American Regional;;(212-765-7626)
Zutto;TriBeCa;77 Hudson Street;New York;NY;Sushi;$$;
p*ong;Greenwich Village;150 W. 10th Street;New York;NY;Dessert;$$;
1 Dominick;Soho;;New York;NY;Italian;;(212-647-0202)
1 Dominick;SoHo;1 Dominick St at Sixth Ave;New York;NY;Italian;;(212-647-0202)
1492 Food;Lower East Side;;New York;NY;Spanish;;(646-654-1114)
41 Greenwich Avenue;West Village;;New York;NY;;;
508;SoHo;508 Greenwich St at Spring St;New York;NY;Mediterranean;;(212-219-2444)
7A;East Village;;New York;NY;American;;(212-673-6583)
88 Orchard;Lower East Side;;New York;NY;Cafés;;(212-228-8880)
A Salt & Battery;West Village;;New York;NY;British & Irish;;(212-691-2713)
Abraço;East Village;;New York;NY;Cafés & diners;;(212-388-9731)
Aburiya Kinnosuke;Midtown East;;New York;NY;Japanese;;(212-867-5454)
Adä;Midtown East;;New York;NY;Indian;;(212-371-6060)
Ago;Tribeca;;New York;NY;Italian;;(212-925-3797)
Al Baraka;Upper East Side;;New York;NY;Moroccan;;(212-744-2122)
Al Bustan;Midtown East;;New York;NY;Middle Eastern;;(212-759-5933)
Alcala;Midtown East;;New York;NY;Spanish;;(212-370-1866)
Alloro;Upper East Side;;New York;NY;Italian;;(212-535-2866)
Ama;Soho;;New York;NY;Italian;;(212-358-1707)
American Grill;East Village;;New York;NY;;;
Angus McIndoe;Midtown West;;New York;NY;American;;(212-221-9222)
Antique Garage;Soho;;New York;NY;Mediterranean;;(212-219-1019)
Antique Garage;SoHo;41 Mercer St btwn Broome and Grand Sts;New York;NY;Mediterranean;;(212-219-1019)
Antonucci;Upper East Side;;New York;NY;Italian;;(212-570-5100)
Arium;Meatpacking District;;New York;NY;Cafés & diners;;(212-463-8630)
Ariyoshi;East Village;806 Broadway btwn 11th and 12th Sts;New York;NY;Japanese;;(212-388-1884)
At Vermilion;Midtown East;;New York;NY;Eclectic;;(212-871-6600)
Avenue A Sushi;East Village;;New York;NY;Japanese;;(212-982-8109)
Avon Bistro;Midtown East;;New York;NY;Eclectic;;(212-752-9587)
Azalea;Midtown West;;New York;NY;Italian;;(212-262-0105)
BB Sandwich Bar;Greenwich Village;;New York;NY;American;;(212-473-7500)
BG;Midtown East;;New York;NY;Cafés;;(212-872-8977)
BLT Burger;Greenwich Village;;New York;NY;American;;(212-243-8226)
BXL Cafe;Midtown West;;New York;NY;Belgian;;(212-768-0200)
Bacaro;Lower East Side;;New York;NY;Italian;;(212-941-5060)
Back Forty;East Village;;New York;NY;American;;(212-388-1990)
Bali Nusa Indah;Midtown West;;New York;NY;Asian: Indonesian;;(212-974-1875)
Bamboo 52;Midtown West;;New York;NY;Asian: Pan-Asian;;(212-315-2777)
Bamn!;East Village;;New York;NY;Eclectic;;(888-400-2266)
Bar 6;Greenwich Village;502 Sixth Ave btwn 12th and 13th Sts;New York;NY;French;;(212-691-1363)
Bar Blanc;West Village;;New York;NY;French;;(212-255-2330)
Bar Blanc;Greenwich Village;142 W 10th St btwn Greenwich Ave and...;New York;NY;French;;(212-255-2330)
Bar Boulud;Upper West Side;;New York;NY;French;;(212-595-0303)
Bar Stuzzichini;Gramercy / Flatiron;;New York;NY;Italian;;(212-780-5100)
Bar Veloce;Chelsea;;New York;NY;Italian;;(212-629-5300)
Barbuto;Meatpacking District;;New York;NY;Italian;;(212-924-9700)
Belcourt;East Village;;New York;NY;Mediterranean;;(212-979-2034)
Bella Blu;Upper East Side;;New York;NY;Italian;;(212-988-4624)
Benoit;Midtown West;;New York;NY;French;;(646-943-7373)
Bereket;Lower East Side;;New York;NY;Turkish;;(212-475-7700)
Better Burger;Midtown East;561 Third Ave at 37th St;New York;NY;American;;(212-949-7528)
Bin 71;Upper West Side;;New York;NY;Italian;;(212-362-5446)
Biricchino;Chelsea;260 W 29th St at Eighth Ave;New York;NY;Italian;;(212-695-6690)
Bistro Desaret;Midtown East;;New York;NY;French;;(212-207-8777)
Bistro Le Steak;Upper East Side;;New York;NY;French;;(212-517-3800)
Bistro du Nord;Upper East Side;;New York;NY;French;;(212-289-0997)
Bistrouge;East Village;;New York;NY;Eclectic;;(212-677-2200)
Blue Ribbon Brasserie;SoHo;97 Sullivan St btwn Prince and Spring...;New York;NY;;;
Bocca di Bacco;Midtown West;;New York;NY;Italian;;(212-265-8828)
Bone Lick Park;West Village;;New York;NY;Barbeque;;(212-647-9600)
Bone Lick Park;Greenwich Village;75 Greenwich Ave btwn Seventh Ave South...;New York;NY;Barbeque;;(212-647-9600)
Bongo;Chelsea;;New York;NY;Seafood;;(212-947-3654)
Brasserie 360;Upper East Side;;New York;NY;French;;(212-688-8688)
Brasserie 44;Midtown West;;New York;NY;American;;(212-944-8844)
Brasserie 52;Midtown West;772 Ninth Ave btwn 51st and 52nd Sts;New York;NY;French;;(212-586-5005)
Brasserie Ruhlmann;Midtown West;;New York;NY;French;;(212-974-2020)
Bravo Gianni;Upper East Side;;New York;NY;Italian;;(212-752-7272)
Bread Tribeca;Tribeca;;New York;NY;Italian;;(212-334-8282)
Bricco;Midtown West;;New York;NY;Italian;;(212-245-7160)
Brick Lane Curry House;East Village;;New York;NY;Indian;;(212-979-2900)
Brio;Upper East Side;;New York;NY;Italian;;(212-980-2300)
Bruno Jamais Restaurant Club;Upper East Side;;New York;NY;French;;(212-396-3444)
Bruschetteria;Lower East Side;;New York;NY;Cafés;;(646-415-8681)
Bubby’s;Tribeca;;New York;NY;American;;(212-219-0666)
Bull & Bear;Midtown East;;New York;NY;Steakhouses;;(212-872-4900)
Bun;Soho;;New York;NY;Vietnamese;;(212-431-7999)
Butcher Bay;East Village;511 E 5th St btwn Avenues A and B;New York;NY;American Regional;;(212-260-1333)
Buzina Pop;Upper East Side;;New York;NY;Brazilian;;(212-879-6190)
Byblos;Midtown East;;New York;NY;Middle Eastern;;(212-687-0808)
Cabo Rojo;Chelsea;;New York;NY;Caribbean: Puerto Rican;;(212-929-9752)
Cacio e Vino;East Village;;New York;NY;Italian;;(212-228-3269)
Cafe Edison;Midtown West;;New York;NY;American;;(212-840-5000)
Cafetasia;Greenwich Village;;New York;NY;Asian: Pan-Asian;;(212-529-2363)
Café Condesa;West Village;;New York;NY;American Creative;;(212-352-0050)
Café Grumpy;Chelsea;;New York;NY;Cafés & diners;;(212-255-5511)
Café Loup;West Village;;New York;NY;;;
Café Luxembourg;Upper West Side;;New York;NY;French;;(212-873-7411)
Café Noir;Soho;;New York;NY;Mediterranean;;(212-431-7910)
Café Select;Soho;;New York;NY;Eclectic;;(212-925-9322)
Café d'Alsace;Upper East Side;;New York;NY;French;;(212-722-5133)
Café de Bruxelles;West Village;;New York;NY;Belgian;;(212-206-1830)
Café des Artistes;Upper West Side;;New York;NY;French;;(212-877-3500)
Café du Soleil;Upper West Side;;New York;NY;French;;(212-316-5000)
Calexico;Soho;;New York;NY;Mexican;;
Campo;Upper West Side;;New York;NY;Italian;;(212-864-1143)
Capsouto Frères;Tribeca;;New York;NY;French;;(212-966-4900)
Casa Adela;East Village;;New York;NY;Caribbean: Puerto Rican;;(212-473-1882)
Casa Havana;Chelsea;;New York;NY;Caribbean: Cuban;;(212-243-9421)
Casanis;Lower East Side;;New York;NY;French;;(212-677-9383)
Cascina;Midtown West;;New York;NY;Italian;;(212-245-4422)
Caviar Russe;Midtown East;;New York;NY;Russian;;(212-980-5908)
Centolire;Upper East Side;;New York;NY;Italian;;(212-734-7711)
Centrico;Tribeca;;New York;NY;Latin American;;(212-431-0700)
Centro Vinoteca;West Village;;New York;NY;Italian;;(212-367-7470)
Chez Josephine;Midtown West;;New York;NY;French;;(212-594-1925)
Chickpea;East Village;;New York;NY;Kosher;;(212-254-9500)
ChikaLicious;East Village;;New York;NY;Cafés & diners;;(212-995-9511)
China 1;East Village;;New York;NY;Chinese;;(212-375-0665)
Choga;Greenwich Village;;New York;NY;Korean;;(212-598-5946)
Churrascaria Plataforma;Midtown West;;New York;NY;South American \ Brazilian;$$$;(212-245-0505)
Churrascaria Tribeca;Tribeca;;New York;NY;Brazilian;;(212-925-6969)
Cipriani Le Specialita;Midtown East;;New York;NY;Italian;;(212-557-5088)
City Crab & Seafood Company;Gramercy / Flatiron;;New York;NY;Seafood;;(212-529-3800)
Co.;Chelsea;230 9th Ave btwn 24th and 25th Sts;New York;NY;Italian;;(212-243-1105)
Col Legno;East Village;;New York;NY;Italian;;(212-777-4650)
Commerce;West Village;;New York;NY;American;;(212-524-2301)
Cong Ly;Lower East Side;;New York;NY;Vietnamese;;(212-343-1111)
Congee;Lower East Side;;New York;NY;Chinese;;(212-965-5028)
Corio;Soho;;New York;NY;Mediterranean;;(212-966-3901)
Corton;Tribeca;;New York;NY;French;;(212-219-2777)
Country Café;Soho;;New York;NY;French;;(212-966-5417)
Crave Ceviche Bar;Midtown East;;New York;NY;Peruvian;;(212-355-6565)
Crif Dogs;East Village;;New York;NY;American;;(212-614-2728)
Curly's Vegetarian Lunch;East Village;;New York;NY;Vegetarian & Organic;;(212-598-9998)
Curry-Ya;East Village;214 East 10th St btwn 1st and 2nd Aves;New York;NY;Japanese;;(866-602-8779)
DB Bistro Moderne;Midtown West;;New York;NY;French;;(212-391-2400)
Danku;Midtown West;;New York;NY;Eclectic;;(212-888-3777)
Darbar;Midtown East;;New York;NY;Indian;;(212-681-4500)
Darbar Grill;Midtown East;;New York;NY;Indian;;(212-751-4600)
De Santos;Greenwich Village;139 W 10th St btwn 5th and 6th Aves;New York;NY;Italian;;(212-206-9229)
Degustation Wine & Tasting Bar;East Village;;New York;NY;;;
Delicia Brazil;West Village;;New York;NY;Brazilian;;(212-242-2002)
Dennis Foy;Tribeca;;New York;NY;American;;(212-625-1007)
Diablo Royale;West Village;;New York;NY;Mexican;;(212-620-0223)
Diablo Royale;Greenwich Village;189 W 10th Street btwn W 4th and...;New York;NY;Mexican;;(212-620-0223)
Dirt Candy;East Village;;New York;NY;Vegetarian & Organic;;(212-228-7732)
District;Midtown West;;New York;NY;American;;(212-485-2999)
DoSirak;Greenwich Village;30 E 13th St btwn Fifth Ave and...;New York;NY;Korean;;(646-336-1685)
Docks Oyster Bar & Seafood Grill;Upper West Side;;New York;NY;Seafood;;(212-724-5588)
Dok Suni's;East Village;;New York;NY;;;
Donut Pub;Chelsea;;New York;NY;Cafés & diners;;(212-929-0126)
Double Crown;East Village;;New York;NY;Australian & New Zealand;;(212-254-0350)
Dovetail;Upper West Side;;New York;NY;American;;(212-362-3800)
Downtown Cipriani;Soho;;New York;NY;Italian;;(212-343-0999)
Downtown Cipriani;SoHo;376 West Broadway btwn Broome and...;New York;NY;Italian;;(212-343-0999)
Druids;Midtown West;;New York;NY;American;;(212-307-6410)
Dumpling Man;East Village;;New York;NY;Asian: Pan-Asian;;(212-505-2121)
EN Japanese Brasserie;West Village;;New York;NY;Japanese;;(212-647-9196)
EN Japanese Brasserie;Greenwich Village;435 Hudson St at Leroy St;New York;NY;Japanese;;(212-647-9196)
East of Eighth;Chelsea;;New York;NY;American;;(212-352-0075)
Eat-pisode;Lower East Side;;New York;NY;Thai;;(212-677-7624)
Edward's;Tribeca;;New York;NY;American;;(212-233-6436)
El Centro;Midtown West;;New York;NY;Mexican;;(646-763-6585)
El Cocotero;Chelsea;;New York;NY;Latin American: Venezuelan;;(212-206-8930)
El Paso;Greenwich Village;134 W Houston St btwn MacDougal and...;New York;NY;Mexican;;(212-673-0828)
El Paso Taqueria;Upper East Side;1642 Lexington Ave btwn 103rd and 104th...;New York;NY;Mexican;;(212-996-1739)
El Quinto Pino;Chelsea;;New York;NY;Spanish;;(212-206-6900)
Elephant & Castle;West Village;;New York;NY;American;;(212-243-1400)
Elettaria;Greenwich Village;33 W 8th St at MacDougal St;New York;NY;Eclectic;;(212-677-3833)
Empanada Mama;Midtown West;;New York;NY;Latin American;;(212-698-9008)
Empire Diner;Chelsea;;New York;NY;Cafés & diners;;(212-243-2736)
Epices du Traiteur;Upper West Side;;New York;NY;Mediterranean;;(212-579-5904)
Ethos;Midtown East;495 Third Ave btwn 33rd and 34th Sts;New York;NY;Greek;;(212-252-1972)
Etrusca;Midtown West;;New York;NY;Italian;;(212-261-5750)
Evergreen Shanghai;Midtown East;10 E 38th St btwn Fifth and Madison Aves;New York;NY;Chinese;;(212-448-1199)
Falai Panetteria;Lower East Side;;New York;NY;Cafés & diners;;(212-777-8956)
Fig & Olive;Midtown East;;New York;NY;Mediterranean;;(212-319-2002)
Fiorini;Midtown East;;New York;NY;Italian;;(212-308-0830)
Fireside;Midtown East;;New York;NY;American Creative;;(212-754-5017)
First Hungarian Literary Society;Upper East Side;;New York;NY;Eastern European;;(212-288-5002)
Fishtail by David Burke;Upper East Side;;New York;NY;American Creative;;(212-754-1300)
Fives;Midtown East;;New York;NY;American Creative;;(212-903-3918)
Flex Mussels;Upper East Side;;New York;NY;Eclectic;;(212-717-7772)
Flor de Sol;Tribeca;;New York;NY;Spanish;;(212-334-8087)
Franchia;Midtown East;;New York;NY;Korean;;(212-213-1001)
Frank;East Village;;New York;NY;Italian;;(212-420-0202)
Frankies Spuntino 17 Clinton Street;Lower East Side;;New York;NY;Italian;;(212-253-2303)
FreeFoods NYC;Midtown West;;New York;NY;Cafés & diners;;(212-249-4529)
Friend House 2;East Village;;New York;NY;Thai;;(212-614-8814)
Funayama;West Village;;New York;NY;Japanese;;(212-989-2500)
Galanga;Greenwich Village;;New York;NY;Thai;;(212-228-4267)
Gemma;East Village;;New York;NY;Italian;;(212-505-9100)
Georgia's Eastside BBQ;Lower East Side;;New York;NY;Barbeque;;(212-253-6280)
Giano;East Village;;New York;NY;Italian;;(212-673-7200)
Gigino Trattoria;Tribeca;;New York;NY;Italian;;(212-431-1112)
Gilt;Midtown East;;New York;NY;Eclectic;;(212-891-8100)
Gino;Upper East Side;;New York;NY;Italian;;(212-758-4466)
Giorgione;Soho;;New York;NY;Italian;;(212-352-2269)
Girasole;Upper East Side;;New York;NY;Italian;;(212-772-6690)
Gonzo;West Village;;New York;NY;Italian;;(212-645-4606)
Gottino;West Village;;New York;NY;Italian;;(212-633-2590)
Gradisca;West Village;;New York;NY;Italian;;(212-691-4886)
Gradisca;Greenwich Village;126 W 13th St btwn Sixth and Seventh...;New York;NY;Italian;;(212-691-4886)
Graffiti;East Village;;New York;NY;Eclectic;;(212-464-7743)
Grano Trattoria;West Village;;New York;NY;Italian;;(212-645-2121)
Grano Trattoria;Greenwich Village;21 Greenwich Ave at 10th St;New York;NY;Italian;;(212-645-2121)
Grom;Upper West Side;;New York;NY;Italian;;(646-290-7233)
Grotto;Lower East Side;;New York;NY;Italian;;(212-625-3444)
Guantanamera;Midtown West;;New York;NY;Latin American;;(212-262-5354)
Gusto Ristorante e Bar Americano;West Village;;New York;NY;Italian;;(212-924-8000)
Hacienda de Argentina;Upper East Side;;New York;NY;Argentine;;(212-472-5300)
Han Bat;Midtown West;;New York;NY;Korean;;(212-629-5588)
Harry Cipriani;Midtown East;;New York;NY;Italian;;(212-753-5566)
Haru;Upper East Side;433 Amsterdam Ave;New York;NY;Japanese;$$;(212-452-2230)
Hawaiian Tropic Zone;Midtown West;;New York;NY;American Creative;;(212-626-7316)
Heartbeat;Midtown East;;New York;NY;Vegetarian & Organic;;(212-407-2900)
Hi-Life Restaurant & Lounge;Upper East Side;;New York;NY;American;;(212-628-5433)
Hoi An;Tribeca;;New York;NY;Vietnamese;;(212-233-1339)
Horus Café;East Village;;New York;NY;Mediterranean;;(212-228-4774)
Hundred Acres;Soho;;New York;NY;American;;(212-475-7500)
I Tre Merli Bistro;West Village;;New York;NY;Italian;;(212-929-2221)
Il Nido;Midtown East;;New York;NY;Italian;;(212-753-8450)
Il Postino;Midtown East;;New York;NY;Italian;;(212-688-0033)
Il Vagabondo;Upper East Side;;New York;NY;Italian;;(212-832-9221)
In Vino;East Village;;New York;NY;Italian;;(212-539-1011)
Indigo Indian Bistro;Midtown East;;New York;NY;Indian;;(212-421-1919)
Ippudo NY;East Village;;New York;NY;Japanese;;(212-388-0088)
Islero;Midtown East;;New York;NY;Spanish;;(212-752-1414)
Itzocan Bistro;Upper East Side;1575 Lexington Ave at 101st St;New York;NY;Mexican;;(212-423-0255)
Itzocan Cafe;East Village;;New York;NY;Mexican;;(212-677-5856)
Izakaya Ten;Chelsea;;New York;NY;Japanese;;(212-627-7777)
Jack’s Luxury Oyster Bar;East Village;;New York;NY;Seafood;;(212-253-7848)
Jean Claude;Soho;;New York;NY;French;;(212-475-9232)
Jeollado;East Village;;New York;NY;Japanese;;(212-260-7696)
Jewel Bako;East Village;;New York;NY;Japanese;;(212-979-1012)
Jimmy's No. 43;East Village;;New York;NY;;;
Juan Valdez Café;Midtown East;;New York;NY;Cafés;;(212-871-7515)
Jubilee;Midtown East;;New York;NY;French;;(212-888-3569)
Kasadela;East Village;;New York;NY;Japanese;;(212-777-1582)
Kenka;East Village;;New York;NY;Japanese;;(212-254-6363)
Khyber Pass;East Village;;New York;NY;Afghan;;(212-473-0989)
Kingswood;Greenwich Village;121 W 10th St btwn Greenwich and 6th...;New York;NY;Australian & New Zealand;;(212-645-0018)
Kitchen Club;Nolita;;New York;NY;;;
Kión;East Village;;New York;NY;Eclectic;;(212-529-5200)
Ko Sushi;Upper East Side;;New York;NY;Japanese;;(212-439-1678)
Kobe Club;Midtown West;;New York;NY;Steakhouses;;(212-644-5623)
Kobma Thai;West Village;;New York;NY;Japanese;;(212-645-8622)
Korea Palace;Midtown East;;New York;NY;Korean;;(212-832-2350)
Korean Temple Cuisine;East Village;;New York;NY;;;
Krunch Pizza Bar;Midtown East;;New York;NY;Italian;;(212-207-4122)
Kurve;East Village;;New York;NY;Asian: Pan-Asian;;(212-260-8018)
KushiQ;Midtown East;;New York;NY;Japanese;;(212-682-5814)
Kyotofu;Midtown West;;New York;NY;Cafés & diners;;(212-974-6012)
La Barra;Lower East Side;;New York;NY;Mexican;;(212-260-3900)
La Bonbonniere;West Village;;New York;NY;French;;(212-741-9266)
La Bottega;Chelsea;;New York;NY;Italian;;(212-243-8400)
La Carne Grill;Midtown East;;New York;NY;Kosher;;(212-490-7172)
La Colombe Torrefaction;Tribeca;;New York;NY;Cafés & diners;;(212-343-1515)
La Fonda Boricua;Upper East Side;;New York;NY;Caribbean: Puerto Rican;;(212-410-7292)
La Gioconda;Midtown East;;New York;NY;Italian;;(212-371-3536)
La Mangeoire;Midtown East;;New York;NY;French;;(212-759-7086)
La Masseria;Midtown West;;New York;NY;Italian;;(212-582-2111)
La Zarza;East Village;;New York;NY;Spanish;;(212-477-1111)
Lan Cafe;East Village;;New York;NY;Vietnamese;;(212-228-8325)
Landmark Tavern;Midtown West;;New York;NY;American;;(212-247-2562)
Las Ramblas;West Village;;New York;NY;Spanish;;(646-415-7924)
Lassi;West Village;;New York;NY;Indian;;(212-675-2688)
Lassi;Greenwich Village;28 Greenwich Ave at Charles St;New York;NY;Indian;;(212-675-2688)
Le Bateau Ivre;Midtown East;;New York;NY;French;;(212-583-0579)
Le Cirque;Midtown East;;New York;NY;French;;(212-644-0202)
Le Colonial;Midtown East;;New York;NY;Vietnamese;;(212-752-0808)
Le Lupanar;Lower East Side;;New York;NY;French;;(212-260-2036)
Le Marais;Midtown West;;New York;NY;Kosher;;(212-869-0900)
Le Père Pinard;Lower East Side;;New York;NY;French;;(212-777-4917)
Le Périgord;Midtown East;;New York;NY;French;;(212-755-6244)
Le Refuge;Upper East Side;;New York;NY;French;;(212-861-4505)
Le Singe Vert;Chelsea;;New York;NY;French;;(212-366-4100)
Levana;Upper West Side;;New York;NY;Kosher;;(212-877-8457)
Lexington Candy Shop;Upper East Side;;New York;NY;Cafés & diners;;(212-288-0057)
Life Cafe;East Village;;New York;NY;American;;(212-477-8791)
Lola;Soho;;New York;NY;French;;(212-675-6700)
Los Dados;Meatpacking District;;New York;NY;Mexican;;(646-810-7290)
Lucky Strike;Soho;;New York;NY;French;;(212-941-0772)
Lumi;Upper East Side;;New York;NY;Italian;;(212-570-2335)
Lunetta;Gramercy / Flatiron;;New York;NY;Italian;;(212-533-3663)
Lure Fishbar;Soho;;New York;NY;Seafood;;(212-431-7676)
L’Artusi;West Village;;New York;NY;Italian;;(212-255-5757)
Macao Trading Co.;Tribeca;;New York;NY;Eclectic;;(212-431-8750)
Macondo;Lower East Side;157 E Houston St btwn Eldridge and...;New York;NY;Latin American;;(212-473-9900)
Madison & Vine;Midtown East;;New York;NY;American;;(212-867-5535)
Mamá Mexico;Upper West Side;;New York;NY;Mexican;;(212-864-2323)
Mangia e Bevi;Midtown West;;New York;NY;Italian;;(212-956-3976)
Mangiami;Lower East Side;;New York;NY;Italian;;(212-477-7047)
Manhattan Bistro;Soho;;New York;NY;French;;(212-966-3459)
Mara’s Homemade;East Village;;New York;NY;American Regional;;(212-598-1110)
Margon;Midtown West;;New York;NY;Caribbean;;(212-354-5013)
Marinella;West Village;;New York;NY;Italian;;(212-807-7472)
Marinella;Greenwich Village;49 Carmine St at Bedford St;New York;NY;Italian;;(212-807-7472)
Market Cafe;Midtown West;;New York;NY;American;;(212-564-7350)
Matador;West Village;;New York;NY;Spanish;;(212-691-0057)
Matilda;East Village;;New York;NY;Eclectic;;(212-777-3355)
Matsugen;Tribeca;;New York;NY;Japanese;;(212-925-0202)
Maz Mezcal;Upper East Side;;New York;NY;Mexican;;(212-472-1599)
Maze;Midtown West;;New York;NY;Eclectic;;(212-468-8888)
Medina;Chelsea;;New York;NY;Moroccan;;(212-239-0057)
Melba’s;Harlem;;New York;NY;American Regional;;(212-864-7777)
Merkato 55;Meatpacking District;;New York;NY;African: Pan-African;;(212-255-8555)
Meskel;East Village;;New York;NY;African: Ethiopian;;(212-254-2411)
Mezzogiorno;Soho;;New York;NY;Italian;;(212-334-2112)
Mia Dona;Midtown East;;New York;NY;Mediterranean;;(212-750-8170)
Mint;Midtown East;;New York;NY;Indian;;(212-644-8888)
Mishima;Midtown East;164 Lexington Ave btwn 30th and 31st Sts;New York;NY;Japanese;;(212-532-9596)
Miyagi;West Village;;New York;NY;Japanese;;(212-620-3830)
Miyagi;Greenwich Village;220 W 13th St btwn Seventh and...;New York;NY;Japanese;;(212-620-3830)
Montien;East Village;;New York;NY;Thai;;(212-475-6814)
Montparnasse;Midtown East;;New York;NY;French;;(212-758-6633)
Mooncake Foods;Soho;;New York;NY;Asian: Pan-Asian;;(212-219-8888)
Mr. Chow Tribeca;Tribeca;;New York;NY;Chinese;;(212-965-9500)
Mudspot;East Village;;New York;NY;Cafés & diners;;(212-288-9074)
Muzzarella Pizza;East Village;;New York;NY;Italian: Pizza;;(212-614-0905)
Naima;Chelsea;;New York;NY;Italian;;(212-967-4392)
Naka Naka;Chelsea;;New York;NY;Japanese;;(212-929-8544)
Nam;Tribeca;;New York;NY;Vietnamese;;(212-267-1777)
Nanoosh Mediterranean Hummus Bar;Upper West Side;;New York;NY;Middle Eastern;;(212-362-7922)
Native;Harlem;;New York;NY;Caribbean;;(212-665-2525)
Natori;East Village;;New York;NY;Japanese;;(212-533-7711)
Natsumi;Midtown West;226 W 50th St btwn 8th Ave and Broadway;New York;NY;;;
Negril Village;Greenwich Village;70 W 3rd St btwn La Guardia Pl and...;New York;NY;Caribbean: Jamaican;;(212-477-2804)
Nello;Upper East Side;;New York;NY;Italian;;(212-980-9099)
Nice Matin;Upper West Side;;New York;NY;French;;(212-873-6423)
Ninth Street Espresso;East Village;;New York;NY;Cafés;;(212-358-9225)
Nippon;Midtown East;;New York;NY;Japanese;;(212-758-0226)
Nizza;Midtown West;;New York;NY;Italian;;(212-956-1800)
Noah's Ark;Lower East Side;;New York;NY;Kosher;;(212-674-2200)
Nobu;Tribeca;;New York;NY;Japanese;;(212-219-0500)
Nobu 57;Midtown West;;New York;NY;Japanese;;(212-757-3000)
Noche Mexicana;Upper West Side;;New York;NY;Mexican;;(212-662-6900)
Nomad;East Village;;New York;NY;African: Pan-African;;(212-253-5410)
Nooch;Chelsea;;New York;NY;Thai;;(212-691-8600)
Noodle Bar;West Village;;New York;NY;Chinese;;(212-524-6800)
Nori;East Village;;New York;NY;Japanese;;(212-677-4825)
Notaro;Midtown East;;New York;NY;Italian;;(212-686-3400)
Olana;Gramercy / Flatiron;;New York;NY;Eclectic;;(212-725-4900)
Old San Juan;Midtown West;;New York;NY;Caribbean: Puerto Rican;;(212-262-7013)
Olympic Pita;Midtown West;;New York;NY;Kosher;;(212-869-7482)
Omido;Midtown West;;New York;NY;Japanese;;(212-247-8110)
Oms/b;Midtown East;;New York;NY;Japanese;;(212-922-9788)
Orsay;Upper East Side;;New York;NY;French;;(212-517-6400)
Orso;Midtown West;;New York;NY;Italian;;(212-489-7212)
Osteria Laguna;Midtown East;;New York;NY;Italian;;(212-557-0001)
Osteria al Doge;Midtown West;;New York;NY;Italian;;(212-944-3643)
Osteria del Circo;Midtown West;;New York;NY;Italian;;(212-265-3636)
Ostia;West Village;;New York;NY;Spanish;;(212-924-2305)
Otafuku;East Village;;New York;NY;Japanese;;(212-353-8503)
Ozu;Upper West Side;;New York;NY;Asian: Pan-Asian;;(212-787-8316)
Padre Figlio;Midtown East;;New York;NY;Italian;;(212-286-4310)
Palma;West Village;;New York;NY;Italian;;(212-691-2223)
Palà;Lower East Side;;New York;NY;Italian: Pizza;;(212-614-7252)
Pampano Taqueria;Midtown East;;New York;NY;Mexican;;(212-751-5257)
Pamplona;Gramercy / Flatiron;;New York;NY;Spanish;;(212-213-2328)
Papatzul;Soho;;New York;NY;Mexican;;(212-274-8225)
Papaya King;Upper East Side;;New York;NY;American;;(212-369-0648)
Paris Match;Upper East Side;;New York;NY;French;;(212-737-4400)
Park Avenue Winter;Upper East Side;;New York;NY;American Creative;;(212-644-1900)
Park Blue;Midtown West;;New York;NY;Eclectic;;(212-247-2727)
Parma;Upper East Side;;New York;NY;Italian;;(212-535-3520)
Pasita;West Village;;New York;NY;Latin American: Venezuelan;;(212-255-3900)
Pata Negra;East Village;;New York;NY;Spanish;;(212-228-1696)
Patroon;Midtown East;;New York;NY;American;;(212-883-7373)
Peacock Alley;Midtown East;;New York;NY;French;;(212-872-7335)
Penang;Upper West Side;;New York;NY;Asian: Malaysian;;(212-585-3838)
Pepolino;Tribeca;;New York;NY;Italian;;(212-966-9983)
Per Lei;Upper East Side;;New York;NY;Italian;;(212-439-9200)
Pera Mediterranean Brasserie;Midtown East;;New York;NY;Mediterranean;;(212-878-6301)
Persephone;Upper East Side;;New York;NY;Greek;;(212-339-8363)
Persepolis;Upper East Side;;New York;NY;Middle Eastern;;(212-535-1100)
Pershing Square;Midtown East;;New York;NY;American;;(212-286-9600)
Philippe;Upper East Side;;New York;NY;Chinese;;(212-644-8885)
Phoenix Garden;Midtown East;;New York;NY;Chinese;;(212-983-6666)
Pigalle;Midtown West;790 Eighth Ave at 48th St;New York;NY;French;;(212-489-2233)
Pink Pony;Lower East Side;;New York;NY;French;;(212-253-1922)
Pintxos;Soho;;New York;NY;Spanish;;(212-343-9923)
Piola;East Village;48 E 12th St btwn Broadway and...;New York;NY;Italian;;(212-777-7781)
Podunk;East Village;;New York;NY;Cafés & diners;;(212-677-7722)
Pomaire;Midtown West;;New York;NY;Latin American: Chilean;;(212-956-3055)
Pranna;Gramercy / Flatiron;;New York;NY;Asian: Pan-Asian;;(212-696-5700)
Prime Burger;Midtown East;;New York;NY;Cafés & diners;;(212-759-4729)
Pyramida;Upper East Side;;New York;NY;Middle Eastern;;(212-472-5855)
Pão!;Soho;;New York;NY;Portuguese;;(212-334-5464)
Quatorze Bis;Upper East Side;;New York;NY;French;;(212-535-1414)
Queen of Sheba;Midtown West;;New York;NY;African: Ethiopian;;(212-397-0610)
Quintessence;East Village;;New York;NY;Vegetarian & Organic;;(646-654-1823)
Rack & Soul;Upper West Side;;New York;NY;American Regional;;(212-222-4800)
Rafaella on Ninth;Chelsea;;New York;NY;Cafés;;(212-741-3230)
Rai Rai Ken;East Village;;New York;NY;Japanese;;(212-477-7030)
Ramen Setagaya;East Village;;New York;NY;Japanese;;(212-529-2740)
Rare Bar & Grill;West Village;;New York;NY;American;;(212-691-7273)
Rayuela;Lower East Side;;New York;NY;Latin American;;(212-253-8840)
Rectangles;Upper East Side;;New York;NY;Middle Eastern;;(212-744-7470)
Red Mango;West Village;;New York;NY;Food or Beverage Shop;;(212-777-2303)
Regional;Upper West Side;;New York;NY;Italian;;(212-666-1915)
Resto Leon;East Village;;New York;NY;French;;(212-375-8483)
Roc;Tribeca;;New York;NY;Italian;;(212-625-3333)
Rocking Horse Cafe;Chelsea;;New York;NY;Mexican;;(212-463-9511)
Ronnybrook Milk Bar;Chelsea;;New York;NY;Food or Beverage Shop;;(212-741-6455)
Rosanjin;Tribeca;;New York;NY;Japanese;;(212-346-0664)
Rothmann's Steakhouse & Grill;Midtown East;;New York;NY;Steakhouses;;(212-319-5500)
Roti Plus;Harlem;;New York;NY;Caribbean;;(212-749-8758)
Rouge Tomate;Upper East Side;;New York;NY;Eclectic;;(646-237-8977)
Ruby Foo's;Midtown West;1626 Broadway at 49th St;New York;NY;;;
SEA;East Village;;New York;NY;Thai;;(212-228-5505)
STK;Meatpacking District;;New York;NY;Steakhouses;;(646-624-2444)
Safran;Chelsea;;New York;NY;Vietnamese;;(212-929-1778)
Sahara East;East Village;;New York;NY;Middle Eastern;;(212-353-9000)
Sahara Grill;Midtown West;;New York;NY;Turkish;;(212-391-6555)
Saju;Midtown West;120 W 44th St btwn Sixth Ave and...;New York;NY;Eclectic;;(212-997-7258)
Salumeria Rosi;Upper West Side;;New York;NY;Italian;;(212-877-4800)
Salute!;Murray Hill;270 Madison Ave;New York;NY;Italian;$;
Sandro's;Upper East Side;;New York;NY;Italian;;(212-288-7374)
Sandwich Planet;Midtown West;;New York;NY;American;;(212-273-9768)
Sangam;West Village;;New York;NY;Indian;;(212-228-4648)
Savore;Soho;;New York;NY;Italian;;(212-431-1212)
Schiller's Liquor Bar;Lower East Side;;New York;NY;Eclectic;;(212-260-4555)
Serafina on Lafayette;East Village;;New York;NY;Italian;;(212-995-9595)
Sevilla;Greenwich Village;62 Charles St at W 4th St;New York;NY;;;
Shabu-Shabu 70;Upper East Side;;New York;NY;Japanese;;(212-861-5635)
Shabu-Tatsu;East Village;;New York;NY;Japanese;;(212-477-2972)
Shalizar;Upper East Side;;New York;NY;Middle Eastern: Persian;;(212-288-0012)
Shang;Lower East Side;;New York;NY;Chinese;;(212-260-7900)
Shanghai Pavilion;Upper East Side;;New York;NY;Chinese;;(212-585-3388)
Sharaku;East Village;;New York;NY;Japanese;;(212-598-0403)
Sheng Wang;Lower East Side;;New York;NY;Chinese;;(212-925-0805)
Shimizu;Midtown West;;New York;NY;Japanese;;(212-581-1581)
Shopsin's;Lower East Side;;New York;NY;Cafés & diners;;(no phone)
Shorty's;Midtown West;576 Ninth Ave at 41st St;New York;NY;American;;(212-967-3055)
Sidecar;Midtown East;;New York;NY;American;;(212-317-2044)
Sigiri;East Village;;New York;NY;Indian: Sri Lankan;;(212-614-9333)
Sistina;Upper East Side;;New York;NY;Italian;;(212-861-7660)
Sitar;Midtown West;;New York;NY;Indian;;(212-581-1155)
Skylight Diner;Midtown West;;New York;NY;Cafés & diners;;(212-244-0395)
Smith & Mills;Tribeca;;New York;NY;Eclectic;;(no phone)
Smith's;Greenwich Village;79 MacDougal St btwn Bleecker and W...;New York;NY;;;
Soba Totto;Midtown East;;New York;NY;Japanese;;(212-557-8200)
Socarrat Paella Bar;Chelsea;;New York;NY;Spanish;;(212-462-1000)
Sookk;Upper West Side;;New York;NY;Asian: Pan-Asian;;(212-870-0253)
Sorella;Lower East Side;;New York;NY;Italian;;(212-274-9595)
Souen;Soho;;New York;NY;Vegetarian & Organic;;(212-807-7421)
South Gate;Midtown West;;New York;NY;American;;(212-484-5120)
Southern Hospitality;Upper East Side;;New York;NY;Barbeque;;(212-249-1001)
Soy;Lower East Side;;New York;NY;Japanese;;(212-253-1158)
Soy Luck Club;West Village;;New York;NY;Vegetarian & Organic;;(212-229-9191)
Sparks;Midtown East;;New York;NY;Steakhouses;;(212-687-4855)
Spice Cove;East Village;;New York;NY;Indian;;(212-674-8884)
Spiga;Upper West Side;;New York;NY;Italian;;(212-362-5506)
Spitzer's Corner;Lower East Side;;New York;NY;American;;(212-228-0027)
Spring Street Natural;SoHo;62 Spring St at Lafayette St;New York;NY;Vegetarian & Organic;;(212-966-0290)
Square Diner;Tribeca;;New York;NY;Cafés & diners;;(212-925-7188)
Sueños;Chelsea;;New York;NY;Mexican;;(212-243-1333)
Sukhadia’s;Midtown West;;New York;NY;Indian;;(212-395-7300)
Sumile Sushi;West Village;;New York;NY;Japanese;;(212-989-7699)
Sundaes and Cones;East Village;;New York;NY;Cafés;;(212-979-9398)
Supermac;Chelsea;;New York;NY;American;;(212-760-1900)
Surf City Squeeze;West Village;;New York;NY;American;;(212-627-2431)
Sushi Azabu;Tribeca;;New York;NY;Japanese;;(212-274-0428)
Sushi Hana;Upper East Side;;New York;NY;Japanese;;(212-327-0582)
Sushi of Gari;Upper East Side;;New York;NY;Japanese;;(212-517-5340)
Sushiden;Midtown East;;New York;NY;Japanese;;(212-758-2700)
Swifty's;Upper East Side;;New York;NY;American;;(212-535-6000)
Sylvia’s;Harlem;;New York;NY;American Regional;;(212-996-0660)
Szechuan Gourmet;Midtown West;;New York;NY;Chinese;;(212-921-0233)
T Salon;Chelsea;;New York;NY;Cafés & diners;;(212-243-2259)
Table d'Hôte;Upper East Side;;New York;NY;French;;(212-348-8125)
Taco Taco;Upper East Side;;New York;NY;Mexican;;(212-289-8226)
Tafu;Midtown East;;New York;NY;Cafés & diners;;(212-980-1310)
Tagine Dining Gallery;Midtown West;;New York;NY;Moroccan;;(212-564-7292)
Takahachi;East Village;;New York;NY;Japanese;;(212-505-6524)
Taksim;East Village;99 Second Ave btwn 5th and 6th Sts;New York;NY;Turkish;;(212-979-5400)
Tanti Baci Caffe;West Village;;New York;NY;Italian;;(212-647-9651)
Taïm;West Village;;New York;NY;Middle Eastern;;(212-691-1287)
Tebaya;Chelsea;;New York;NY;Japanese;;(212-924-3335)
Ted's Montana Grill;Midtown West;110 W 51st St btwn Sixth and Seventh...;New York;NY;American;;(212-245-5220)
Telephone Bar and Grill;East Village;;New York;NY;American;;(212-529-5000)
Teodora;Midtown East;;New York;NY;Italian;;(212-826-7101)
Terroir;East Village;;New York;NY;Eclectic;;(no phone)
Thalassa;Tribeca;;New York;NY;Greek;;(212-941-7661)
Thalia;Midtown West;;New York;NY;American;;(212-399-4444)
The E.U.;East Village;;New York;NY;Eclectic;;(212-254-2900)
The Elephant;East Village;;New York;NY;Thai;;(212-505-7739)
The Four Seasons Restaurant;Midtown East;;New York;NY;American Creative;;(212-754-9494)
The Great Burrito;Upper West Side;;New York;NY;Mexican;;(212-724-5151)
The Green Table;Chelsea;;New York;NY;Vegetarian & Organic;;(212-741-9174)
The John Dory;Chelsea;;New York;NY;British & Irish;;(212-929-4948)
The Libertine;Financial District;;New York;NY;American;;(212-785-5950)
The Mercer Kitchen;Soho;;New York;NY;American Creative;;(212-966-5454)
The Mermaid Inn;East Village;;New York;NY;Seafood;;(212-674-5870)
The Odeon;Tribeca;;New York;NY;French;;(212-233-0507)
The Orchard;Lower East Side;;New York;NY;Italian;;(212-353-3570)
The Organic Grill;East Village;;New York;NY;Vegetarian & Organic;;(212-477-7177)
The Palm;Midtown East;;New York;NY;Steakhouses;;(212-687-2953)
The Park;Chelsea;;New York;NY;American;;(212-352-3313)
The Prime Grill;Midtown East;;New York;NY;Kosher;;(212-692-9292)
The Red Cat;Chelsea;;New York;NY;American;;(212-242-1122)
The Russian Tea Room;Midtown West;;New York;NY;Russian;;(212-581-7100)
The Sea Grill;Midtown West;;New York;NY;Seafood;;(212-332-7610)
The Smith;East Village;;New York;NY;American;;(212-420-9800)
The Soda Shop;Tribeca;;New York;NY;Cafés & diners;;(212-571-1100)
The Spotted Pig;West Village;;New York;NY;Eclectic;;(212-620-0393)
The Spotted Pig;Greenwich Village;314 W 11th St at Greenwich St;New York;NY;Eclectic;;(212-620-0393)
The Stanton Social;Lower East Side;;New York;NY;Eclectic;;(212-995-0099)
The Waverly Inn;West Village;;New York;NY;American;;(212-243-7900)
Think Coffee;East Village;;New York;NY;Cafés & diners;;(212-533-3366)
Three of Cups;East Village;;New York;NY;Italian;;(212-388-0059)
Tiengarden;Lower East Side;;New York;NY;Vegetarian & Organic;;(212-388-1364)
Tiny's Giant Sandwich Shop;Lower East Side;;New York;NY;Cafés;;(212-982-1690)
Tokyo Bar;Tribeca;;New York;NY;Japanese;;(212-966-2787)
Toledo;Midtown East;6 E 36th St btwn Fifth and Madison Aves;New York;NY;Spanish;;(212-696-5036)
Toloache;Midtown West;;New York;NY;Mexican;;(212-581-1818)
Tout Va Bien;Midtown West;;New York;NY;French;;(212-265-0190)
Trattoria Spaghetto;West Village;;New York;NY;Italian;;(212-255-6752)
Tre Dici;Chelsea;;New York;NY;Italian;;(212-243-8183)
Tree;East Village;;New York;NY;French;;(212-358-7171)
Trestle on Tenth;Chelsea;;New York;NY;American Creative;;(212-645-5659)
Trio;Midtown East;167 E 33rd St btwn Lexington and Third...;New York;NY;Mediterranean;;(212-685-1001)
Tuck Shop;East Village;;New York;NY;Australian & New Zealand;;(212-979-5200)
Turks & Frogs Tribeca;Tribeca;;New York;NY;Turkish;;(212-966-4774)
Turquoise;Upper East Side;;New York;NY;Middle Eastern;;(212-774-1991)
Uncle Jack's Steakhouse;Midtown West;;New York;NY;Steakhouses;;(212-244-0005)
Ushiwakamaru;Greenwich Village;136 W Houston St btwn MacDougal and...;New York;NY;;;
Uva;Upper East Side;;New York;NY;Italian;;(212-472-4552)
Vai;Upper West Side;;New York;NY;Italian;;(212-362-4500)
Valbella;Meatpacking District;;New York;NY;Italian;;(212-645-7777)
Valbella;Greenwich Village;421 W 13th St btwn Ninth Ave and...;New York;NY;Italian;;(212-645-7777)
Veselka;East Village;;New York;NY;Eastern European;;(212-228-9682)
Vespa;Upper East Side;;New York;NY;Italian;;(212-472-2050)
Viceroy;Chelsea;;New York;NY;;;
Viet Café;Tribeca;;New York;NY;Vietnamese;;(212-431-5888)
Villa Berulia;Midtown East;;New York;NY;Italian;;(212-689-1970)
Village Mingala;East Village;;New York;NY;Asian: Burmese;;(212-529-3656)
Village Natural;West Village;;New York;NY;Vegetarian & Organic;;(212-727-0968)
Vynl;Midtown West;1491 Second Ave btwn 77th and 78th Sts;New York;NY;Eclectic;;(212-974-2003)
Wallsé;West Village;;New York;NY;Austrian;;(212-352-2300)
Wondee Siam;Midtown West;;New York;NY;Thai;;(212-459-9057)
Wondee Siam II;Midtown West;;New York;NY;Thai;;(917-286-1726)
Woo Chon;Midtown West;;New York;NY;Korean;;(212-695-0676)
Yakitori Taisho;East Village;;New York;NY;Japanese;;(212-228-5086)
Yatagan Kebab House;West Village;;New York;NY;Middle Eastern;;(212-677-0952)
Zarela;Midtown East;;New York;NY;Mexican;;(212-644-6740)
Zoë;Soho;;New York;NY;American Creative;;(212-966-6722)
wd~50;Lower East Side;;New York;NY;American Creative;;(212-477-2900)
‘21’ Club;Midtown West;;New York;NY;American;;(212-582-7200)
’ino;West Village;;New York;NY;Italian;;(212-989-5769)
’inoteca;Lower East Side;;New York;NY;Italian;;(212-614-0473)
Angon on the Sixth;East Village;320 E Sixth St;New York;NY;Indian;$;
Arabelle;Upper East Side;;New York;NY;American Creative;;(212-606-4647)
Avra;Midtown East;;New York;NY;Greek;;(212-759-8550)
Azul Bistro;Lower East Side;152 Stanton St at Suffolk St;New York;NY;;;
Bandol Bistro;Upper East Side;181 E 78th St btwn Lexington and Third...;New York;NY;French;;(212-744-1800)
Bar Room at the Modern;Midtown West;;New York;NY;American Creative;;(212-333-1220)
Bice;Midtown East;;New York;NY;Italian;;(212-688-1999)
Bobby Van's Steakhouse;Midtown East;;New York;NY;Steakhouses;;(212-867-5490)
Branzini;Midtown East;;New York;NY;Mediterranean;;(212-557-3340)
Breeze;Midtown West;;New York;NY;Thai;;(212-262-7777)
Bruno Ristorante;Midtown East;;New York;NY;Italian;;(212-688-4190)
Cacio e Pepe;East Village;182 Second Ave;New York;NY;Italian;$$;(212-505-5931)
Cafe Evergreen;Upper East Side;1288 First Ave at 69th St;New York;NY;Chinese;;(212-744-3266)
Cafe Fiorello;Upper West Side;1900 Broadway btwn 63rd and 64th Sts;New York;NY;Italian;;(212-595-5330)
Cafe Luxembourg;Upper West Side;200 W 70th St Amsterdam Ave;New York;NY;French;;(212-873-7411)
Cafe con Leche;Upper West Side;424 Amsterdam Ave btwn 80th and 81st Sts;New York;NY;Caribbean;;(212-678-7000)
Casa la Femme North;Midtown East;;New York;NY;Middle Eastern: Egyptian;;(212-505-0005)
Cellini;Midtown East;;New York;NY;Italian;;(212-751-1555)
Chez Napoleon;Midtown West;;New York;NY;French;;(212-265-6980)
Cilantro;Upper West Side;1712 2nd Ave;New York;NY;Southwestern \ Mexican;$;(212-712-9090)
Congee Village;Lower East Side;100 Allen St btwn Broome and Delancey...;New York;NY;Chinese;;(212-941-1818)
Crema;Chelsea;;New York;NY;Mexican;;(212-691-4477)
Da Tommaso;Midtown West;;New York;NY;Italian;;(212-265-1890)
Deborah;Greenwich Village;43 Carmine St btwn Bedford and Bleecker...;New York;NY;American;;(212-242-2606)
Djerdan Burek;Midtown West;;New York;NY;Eastern European;;(212-921-1183)
Esashi;East Village;;New York;NY;Japanese;;(212-505-8726)
F&B;Chelsea;;New York;NY;Belgian;;(646-486-4441)
Fleur de Sel;Gramercy / Flatiron;;New York;NY;French;;(212-460-9100)
Fleur de Sel;Flatiron;5 E 20th St;New York;NY;French;$$$$$;(212-460-9100)
Flor de Mayo;Upper West Side;;New York;NY;Latin American;;(212-787-3388)
Freemans;Lower East Side;Freeman Alley;New York;NY;American;$$;(212-420-0012)
Gaby;Midtown West;;New York;NY;French;;(212-782-3040)
Goodburger;Midtown East;;New York;NY;American;;(212-922-1700)
Joe Allen;Midtown West;;New York;NY;American;;(212-581-6464)
Kashkaval;Midtown West;;New York;NY;Mediterranean;;(212-581-8282)
Kashmir;Midtown West;;New York;NY;Indian;;(212-594-3777)
Le Beaujolais;Midtown West;;New York;NY;French;;(212-974-7464)
Lobster Place;Chelsea;;New York;NY;Seafood;;(212-255-5672)
Maison;Midtown West;;New York;NY;French;;(212-757-2233)
Mangiarini;Upper East Side;;New York;NY;Italian;;(212-734-5500)
Market Diner;Midtown West;;New York;NY;American;;(212-695-0415)
McCormick & Schmick's;Midtown West;;New York;NY;Seafood;;(212-459-1222)
Minca;East Village;536 E 5th St btwn Aves A and B;New York;NY;Asian: Pan-Asian;;(212-505-8001)
Moda;Midtown West;;New York;NY;Italian;;(212-887-9880)
Nook;Midtown West;;New York;NY;Eclectic;;(212-247-5500)
O Mai;Chelsea;;New York;NY;Vietnamese;;(212-633-0550)
Old Devil Moon (CLOSED);East Village;;New York;NY;American Regional;;(212-475-4357)
One if by Land, Two if by Sea;Greenwich Village;;New York;NY;;;
Otto Enoteca Pizzeria;Greenwich Village;;New York;NY;Italian: Pizza;;(212-995-9559)
Pearl on the Sushi;Midtown West;;New York;NY;Japanese;;(212-977-8809)
Pietrasanta;Midtown West;;New York;NY;Italian;;(212-265-9471)
Ruby Foo's (CLOSED);Upper West Side;2182 Broadway at 77th St;New York;NY;;;
Saigon 48;Midtown West;;New York;NY;Vietnamese;;(212-247-8669)
Sakagura;Midtown East;;New York;NY;Japanese;;(212-953-7253)
San Pietro;Midtown East;;New York;NY;Italian;;(212-753-9015)
Serafina Fabulous Grill;Upper East Side;29 E 61st St btwn Park and Madison Aves;New York;NY;Italian;;(212-702-9898)
Serafina Fabulous Pizza;Upper East Side;1022 Madison Ave at 79th St;New York;NY;Italian;;(212-734-2676)
Seven;Chelsea;;New York;NY;American Creative;;(212-967-1919)
Solo;Midtown East;;New York;NY;Kosher;;(212-833-7800)
Sosa Borella;Midtown West;;New York;NY;Italian;;(212-262-8282)
Sullivan Street Bakery;Midtown West;;New York;NY;Food or Beverage Shop;;(212-265-5580)
Sushi Samba 7;Greenwich Village;87 Seventh Ave So at Barrow St;New York;NY;Japanese;;(212-691-7885)
Taste;Upper East Side;;New York;NY;American;;(212-717-9798)
Teany;Lower East Side;90 Rivington St btwn Ludlow and Orchard...;New York;NY;Cafés;;(212-475-9190)
Top of the Tower;Midtown East;;New York;NY;American;;(212-980-4796)
Vico;Upper East Side;;New York;NY;Italian;;(212-876-4160)
Wu Liang Ye;Midtown West;;New York;NY;Chinese;;(212-398-2308)
York Grill;Upper East Side;;New York;NY;American;;(212-772-0261)
Aja;Midtown East;;New York;NY;Asian: Pan-Asian;;(212-888-8008)
Al Diwan;East Village;;New York;NY;Middle Eastern;;(212-375-1300)
Atria;Midtown West;;New York;NY;Eclectic;;(212-262-4600)
Bar Baresco;Chelsea;;New York;NY;Italian;;(212-675-5935)
Bar Q;West Village;;New York;NY;Eclectic;;(212-206-7817)
Bistro Milano;Midtown West;;New York;NY;Italian;;(212-757-2600)
Black Duck;Gramercy / Flatiron;;New York;NY;Seafood;;(212-204-5240)
Braai;Midtown West;329 West 51st St btwn 8th and 9th Aves;New York;NY;;;
Brasserie Cognac;Midtown West;;New York;NY;French;;(212-757-3600)
Cafe Notte;Upper East Side;;New York;NY;Cafés & diners;;(212-288-5203)
Cafe des Artistes;Upper West Side;1 W 67th St at Central Park West;New York;NY;;;
Cavatappo Grill;Upper East Side;;New York;NY;Italian;;(212-987-9260)
Earth NYC;Chelsea;;New York;NY;Indian;;(212-337-0016)
Fulton;Upper East Side;;New York;NY;Seafood;;(212-288-6600)
Gallo Nero;Midtown West;402 W 44th St at Ninth Ave;New York;NY;Italian;;(212-265-6660)
Hakata Tonton;West Village;;New York;NY;Japanese;;(212-242-3699)
Il Bordello;Chelsea;;New York;NY;Italian;;(212-206-9065)
Il Corso;Midtown West;;New York;NY;Italian;;(212-957-1500)
Josephina;Upper West Side;;New York;NY;American;;(212-799-1000)
Lever House;Midtown East;;New York;NY;American;;(212-888-2700)
Metro Marche;Midtown West;;New York;NY;French;;(212-239-1010)
Nirvana;Midtown East;;New York;NY;Indian;;(212-983-0000)
Perle;Financial District;;New York;NY;French;;(212-248-4848)
SUteiShi;Financial District;;New York;NY;Japanese;;(212-766-2344)
Sangria 46;Midtown West;;New York;NY;Spanish;;(212-581-8482)
Satsko;Lower East Side;;New York;NY;Asian: Pan-Asian;;(212-358-7773)
Sonia Rose;Lower East Side;;New York;NY;French;;(212-260-5317)
Staghorn Steakhouse;Midtown West;;New York;NY;Steakhouses;;(212-239-0923)
Sushi of Gari 46;Midtown West;;New York;NY;Japanese;;(212-957-0046)
The West Branch;Upper West Side;;New York;NY;Eclectic;;(212-777-6764)
Tre;Lower East Side;;New York;NY;Italian;;(212-353-3353)
Trinity Place;Financial District;;New York;NY;American;;(212-964-0939)
ViceVersa;Midtown West;;New York;NY;Italian;;(212-399-9265)
Yuva;Midtown East;;New York;NY;Indian;;(212-339-0090)
wd-50;Lower East Side;;New York;NY;;;
99 Miles to Philly;East Village;;New York;NY;American;;(212-253-2700)
Alma Grill;Midtown East;134 E 48th St at Lexington Ave;New York;NY;American Creative;;(212-593-5900)
Ammos;Midtown East;;New York;NY;Greek;;(212-922-9999)
Arte;Greenwich Village;21 E 9th St btwn Fifth Ave and...;New York;NY;;;
Babouche;SoHo;92 Prince St at Mercer St;New York;NY;Moroccan;;(212-219-8155)
Bar Carrera;East Village;;New York;NY;Spanish;;(212-375-1555)
Barcibo Enoteca;Upper West Side;;New York;NY;Italian;;(212-595-2805)
Batch;Greenwich Village;150B W. 10th Street btwn Greenwich Ave...;New York;NY;Asian: Pan-Asian;;(212-929-0250)
Better Burger (CLOSED);Upper East Side;;New York;NY;American;;(212-734-6644)
Big John;Lower East Side;;New York;NY;American;;(212-353-2731)
Blossom Vegetarian Restaurant;Chelsea;187 Ninth Ave btwn 21st and 22nd Sts;New York;NY;Vegetarian & Organic;;(212-627-1144)
Blue Point;Midtown West;662 Ninth Ave at 46th St;New York;NY;French;;(212-247-8040)
Boka;East Village;;New York;NY;Korean;;(212-228-2887)
Bombay Frankie;Upper West Side;994 Amsterdam Ave btwn 109th and 110th...;New York;NY;Indian;;(212-666-1500)
Bond St;East Village;6 Bond St btwn Broadway and Lafayette St;New York;NY;;;
Braeburn;Greenwich Village;117 Perry St btwn Greenwich and Hudson...;New York;NY;American;;(212-255-0696)
Bread and Olive;Midtown West;24 W 45th St btwn Fifth and Sixth Aves;New York;NY;;;
Bryant Park Cafe and Grill;Midtown West;;New York;NY;American;;(212-840-6500)
Burger Heaven;Midtown East;802 Lexington Ave at 62nd St;New York;NY;American;;(212-755-2166)
Butterfield 8;Midtown East;5 E 38th St btwn Fifth and Madison Aves;New York;NY;American;;(212-679-0646)
Cafe Katja;Lower East Side;;New York;NY;Eastern European;;(212-219-9545)
Cafe d'Alsace;Upper East Side;1695 2nd Ave at 88th St;New York;NY;;;
Caffe Emilia;East Village;;New York;NY;Italian;;(212-388-1234)
Carbone;Midtown West;331 W 38th St btwn Eight and Ninth Aves;New York;NY;Italian;;(212-290-2625)
Carne Vale;East Village;;New York;NY;Brazilian;;(212-777-4686)
Cavatappo Wine Bar;Upper East Side;1728 Second Ave btwn 89th and 90th Sts;New York;NY;Italian;;(212-426-0919)
Central Park Boathouse Restaurant;Upper East Side;;New York;NY;Seafood;;(212-517-2233)
Chai Home Kitchen;Midtown West;;New York;NY;Asian: Pan-Asian;;(212-707-8778)
Chat Noir;Upper East Side;;New York;NY;French;;(212-794-2428)
ChikaLicious Puddin';East Village;;New York;NY;Food or Beverage Shop;;(212-475-0929)
Cho Cho San;Greenwich Village;;New York;NY;Japanese;;(212-473-3333)
Cipolla Rossa;Upper East Side;1762 1st Ave btwn 91st and 92nd Sts;New York;NY;Italian;;(212-996-9426)
City Lobster and Crab Company;Midtown West;;New York;NY;Seafood;;(212-354-1717)
Clubhouse Cafe;Midtown West;155 West 46th St btwn 6th and 7th Aves;New York;NY;Kosher;;(212-354-3838)
Congee Bowery;Lower East Side;207 Bowery at Rivington St;New York;NY;;;
Core One Nine One (CLOSED);Lower East Side;;New York;NY;American Creative;;(212-228-9888)
Da Silvano Bistecca;Greenwich Village;;New York;NY;Steakhouses;;(212-844-0282)
Dakshin Indian Bistro;Upper East Side;;New York;NY;Indian;;(212-987-9839)
Dardanel;Midtown East;1071 1st Ave btwn 58th and 59th Sts;New York;NY;Mediterranean;;(212-888-0809)
Dean's;Upper West Side;215 W 85th St btwn Amsterdam Ave and...;New York;NY;;;
Dean's;Midtown East;215 W 85th St btwn Amsterdam Ave and...;New York;NY;;;
Dirty Bird to Go;Chelsea;204 W 14th St btwn Seventh and Eighth...;New York;NY;American Regional;;(212-620-4836)
Diwan Restaurant;Midtown East;;New York;NY;Indian;;(212-593-5425)
Django (CLOSED);Midtown East;;New York;NY;Mediterranean;;(212-871-6600)
Ducale;Upper West Side;392 Columbus Ave at 79th St;New York;NY;Italian;;(212-787-7150)
Earthen Oven;Upper West Side;;New York;NY;Indian;;(212-579-8888)
El Rey del Sol;Greenwich Village;232 W 14th St btwn Seventh and Eighth...;New York;NY;Mexican;;(212-229-0733)
Elaine's;Upper East Side;;New York;NY;Italian;;(212-534-8103)
Elyssa Dido;Lower East Side;85 Orchard St at Broome St;New York;NY;Middle Eastern;;(212-991-9880)
Fabio Piccolo Fiore;Midtown East;230 E 44th St at Second Ave;New York;NY;Eclectic;;(212-922-0581)
Garden Court Cafe;Upper East Side;725 Park Ave at 70th St;New York;NY;;;
Hatsuhana Park;Midtown East;237 Park Ave at 46th St;New York;NY;;;
Iron Sushi;Upper East Side;355 E 78th St btwn First and Second...;New York;NY;Japanese;;(212-772-7680)
Jeeb;Lower East Side;154 Orchard St btwn Stanton and...;New York;NY;Thai;;(212-677-4101)
JoeDoe;East Village;45 East 1st St btwn 1st and 2nd Aves;New York;NY;American;;(212-780-0262)
Jojo;Upper East Side;160 E 64th St btwn Lexington and 3rd...;New York;NY;;;
Kafana;East Village;116 Ave C btwn E 7th and 8th Sts;New York;NY;Eastern European;;(212-353-8000)
Kambi Ramen House;East Village;;New York;NY;Japanese;;(212-228-1366)
Kura Sushi;East Village;;New York;NY;Japanese;;(212-979-6646)
L.E.S. Sandwicherie;Lower East Side;;New York;NY;Cafés;;(212-388-1815)
Le Charlot;Upper East Side;19 E 69th St btwn Madison and Park Aves;New York;NY;French;;(212-794-1628)
Le Tableau (CLOSED);East Village;511 E 5th St btwn Aves A and B;New York;NY;French;;(212-260-1333)
Luxee;Lower East Side;;New York;NY;Japanese;;(212-375-1796)
Madaleine Mae (CLOSED);Upper West Side;461 Columbus Ave at 82nd St;New York;NY;American;;(212-496-3000)
Maia;East Village;98 Ave B btwn 6th and 7th Sts;New York;NY;Turkish;;(212-358-1166)
Mamoun's Falafel;Greenwich Village;;New York;NY;Middle Eastern;;(212-674-8685)
Maruzzella;Upper East Side;;New York;NY;Italian;;(212-988-8877)
Metrazur;Midtown East;404 Grand Central Terminal at Park Ave;New York;NY;;;
Metsovo (CLOSED);Upper West Side;65 W 70th St at Columbus Ave;New York;NY;;;
My Befana (CLOSED);SoHo;116 West Houston St btwn Sullivan and...;New York;NY;Mediterranean;;(212-473-3238)
PDT;East Village;113 St Marks Pl btwn First Ave and Ave A;New York;NY;;;
Patisserie des Ambassades;Chelsea;161 W 22nd St btwn Sixth and Seventh...;New York;NY;African: Senegalese;;(212-255-5101)
Perry Street;Greenwich Village;176 Perry St at West Side Highway;New York;NY;;;
Philly Slim's Cheesesteaks;Midtown West;789 Ninth Ave btwn 52nd and 53rd Sts;New York;NY;American;;(212-333-3042)
Picasso;Midtown East;303 E 56th St btwn First and Second Aves;New York;NY;;;
Pio Pio Salon;Upper West Side;702 Amsterdam at 94th St;New York;NY;Peruvian;;(212-665-3000)
Pizza Gruppo;East Village;186 Ave B btwn 11th and 12th Sts;New York;NY;Italian: Pizza;;(212-995-2100)
Public House;Midtown East;140 E 41st St btwn Lexington and Third...;New York;NY;American;;(212-682-3710)
R.U.B.;Chelsea;208 W 23rd St btwn Seventh and Eighth...;New York;NY;Barbeque;;(212-524-4300)
Rainbow Room Grill (CLOSED);Midtown West;;New York;NY;Italian;;(212-632-5100)
Red Bamboo;Greenwich Village;140 W 4th St btwn MacDougal St and...;New York;NY;Vegetarian & Organic;;(212-260-7049)
Restaurant Ichimura;Midtown East;1026 Second Ave btwn 54th and 55th Sts;New York;NY;Japanese;;(212-355-3557)
Retsina;Midtown East;;New York;NY;Greek;;(212-486-8826)
Rosa Mexicano Lincoln Center;Upper West Side;61 Columbus Ave at 62nd St;New York;NY;;;
Seasonal;Midtown West;132 W 58th St btwn 6th & 7th Aves;New York;NY;;;
Seoul Station;East Village;81 St Marks Pl btwn 1st and 2nd Aves;New York;NY;Korean;;(212-979-9300)
Setacci;Greenwich Village;420 Hudson St at Leroy St;New York;NY;Italian;;(212-675-0810)
Shanghai Mong;Midtown West;;New York;NY;Chinese;;(212-629-6450)
Silverleaf Tavern;Midtown East;;New York;NY;American;;(212-973-2550)
Singas Famous Pizza;East Village;;New York;NY;Italian: Pizza;;(212-253-7300)
Slice;Upper East Side;1413 Second Ave btwn 73rd and 74th Sts;New York;NY;Italian: Pizza;;(212-249-4353)
Song 7.2;East Village;;New York;NY;Asian: Pan-Asian;;(212-777-1286)
Square Meal;Upper East Side;30 E 92nd St btwn 5th Ave and Madison...;New York;NY;American;;(212-860-9872)
Sushi Ann;Midtown East;38 E 51st St btwn Madison and Park Aves;New York;NY;;;
Symposium;Upper West Side;544 W 113th St btwn Amsterdam Ave and...;New York;NY;Greek;;(212-865-1011)
Taim;Greenwich Village;222 Waverly Pl btwn Perry and W 11th Sts;New York;NY;;;
Tasca (CLOSED);Greenwich Village;130 Seventh Avenue So at W 10th St;New York;NY;Spanish;;(212-620-6815)
Tea and Sympathy;Greenwich Village;108 Greenwich Ave near Jane St;New York;NY;;;
Tet;East Village;83 Ave A btwn 5th and 6th Sts;New York;NY;Vietnamese;;(212-253-0800)
Thai on Clinton;Lower East Side;;New York;NY;Thai;;(212-228-9388)
The Carlyle Restaurant;Upper East Side;35 E 76th St at Madison Ave;New York;NY;French;;(212-744-1600)
The Morgan Dining Room;Midtown East;;New York;NY;American;;(212-683-2130)
The Noho Star;East Village;;New York;NY;American;;(212-925-0070)
The Palm Too;Midtown East;;New York;NY;Steakhouses;;(212-697-5198)
The Sheep Meadow Cafe;Upper West Side;;New York;NY;American;;(212-396-4100)
Tides;Lower East Side;102 Norfolk St at Delancey St;New York;NY;Seafood;;(212-254-8855)
Tokyo Pop (CLOSED);Upper West Side;;New York;NY;Japanese;;(212-932-1000)
Udon West;Midtown East;;New York;NY;Japanese;;(212-922-9677)
Village Yokocho;East Village;;New York;NY;Japanese;;(212-598-3041)
Vino 313;Midtown East;;New York;NY;Italian;;(212-725-8466)
Waverly Inn;Greenwich Village;16 Bank St at Waverly Pl;New York;NY;;;
Wawa Canteen;Greenwich Village;;New York;NY;Korean;;(212-473-6162)
Yerba Buena;East Village;23 Avenue A at E 2nd St;New York;NY;Latin American;;(212-529-2919)
Zen Burger (CLOSED);Midtown East;465 Lexington Ave btwn 45th and 46th Sts;New York;NY;American;;(212-661-6080)
bar.vetro;Midtown East;222 E 58th St btwn Second and Third Aves;New York;NY;Italian;;(212-308-0112)
Alfredo's of Rome;Midtown West;;New York;NY;Italian;;(212-397-0100)
Perry St;West Village;176 Perry St;New York;NY;French \ American;$$$$;(212-352-1900)
Re Sette;Midtown West;;New York;NY;Italian;;(212-221-7530)
212 Restaurant & Bar;Upper East Side;;New York;NY;American Creative;;(212-249-6565)
Accademia Di Vino;Upper East Side;;New York;NY;Italian;;(212-888-6333)
B. Cafe;Upper East Side;;New York;NY;Belgian;;(212-249-3300)
Hudson River Cafe;Harlem;697 West 133rd ST.;New York;NY;American;$$;(212-491-9111)
Gordon Ramsay at The London;Midtown West;;New York;NY;Eclectic;;(212-468-8888)
Lazzara's Pizza Cafe;Midtown West;221 W 38th St-Btwn 7th & 8th Ave;New York;NY;Italian: Pizza;;(212-944-7792)
Sachiko's on Clinton;Lower East Side;25 Clinton St-Btwn Houston & Stanton St;New York;NY;Japanese;;(212-253-2900)
Taam Tov;Midtown West;;New York;NY;Kosher;;(212-768-8001)
China Fun;Upper East Side;246 Columbus Ave;New York;NY;Chinese;$;(212-752-0810)
Pio Pio;Upper East Side;;New York;NY;Peruvian;;(212-426-5800)
Sake Hana;Upper West Side;466 Amsterdam Ave-between 82nd and 83rd Sts;New York;NY;Japanese;;(212-327-0582)
Arte Café;Upper West Side;106 W 73rd St;New York;NY;Italian;$$;
Candle Café;Upper East Side;1307 Third Avenue;New York;NY;Vegetarian \ Vegetarian & Organic;$;(212-472-0970)
Good Enough to Eat;Upper West Side;483 West Amsterdam Avenue;New York;NY;American;$;(212-496-0163)
Jewel of India;Midtown West;15 W 44th St;New York;NY;Indian;$$;(212-869-5544)
La Taza de Oro;Chelsea;96 Eighth Ave;New York;NY;Caribbean \ Caribbean: Puerto Rican;$;(212-243-9946)
Brooklyn Diner USA;Midtown West;;New York;NY;American;;(212-265-5400)
It's a Dominican Thing;Chelsea;144 W 19th St;New York;NY;Caribbean;$;
Ben Benson's Steakhouse;Midtown West;;New York;NY;Steakhouses;;(212-581-8888)
Benjamin Steakhouse;Midtown East;;New York;NY;Steakhouses;;(212-297-9177)
Gallagher's Steakhouse;Midtown West;228 W 52nd St-Btwn 8th Ave & Bway;New York;NY;Steakhouses;;(212-245-5336)
Gallagher's Steakhouse;Midtown West;228 W 52nd St-Btwn 8th Ave & Bway;New York;NY;;;
Inside Park at St. Bart’s;Midtown East;109 E 50th St-at Park Ave;New York;NY;American;;(212-593-3333)
Maloney and Porcelli;Midtown East;37 E 50th St;New York;NY;Steakhouse;$$$$;
Al Bustan Restaurant;Midtown East;827 Third Ave;New York;NY;Middle Eastern;$$$;(212-759-5933)
Ambassador Grill and Lounge;Midtown East;1 United Nations Plaza;New York;NY;International;$$$;
Ammos Estiatorio;Midtown East;52 Vanderbilt Ave;New York;NY;Greek;$$$;(212-922-9999)
Avra Estiatorio;Midtown East;141 E 48th St;New York;NY;Greek;$$$$;(212-759-8550)
Black Iron Burger Shop;East Village;540 E 5th St;New York;NY;American;$$$;
Brasserie 8 1/2;Midtown West;9 W 57th St;New York;NY;French;$$$$;(212-829-0812)
Capital Grille;Midtown East;155 E 42nd St;New York;NY;Steakhouse \ Steakhouses;$$$$;(212-953-2000)
Cellini Restaurant;Midtown East;65 E 54th St;New York;NY;Italian;$$$;(212-751-1555)
Crema Restaurante;Chelsea;111 West 17th Street;New York;NY;Mexican;$$$;(212-691-4477)
Dinosaur Bar-B-Que;Harlem;646 W 131st St;New York;NY;American \ Barbeque;$;(212-694-1777)
Elaine's Restaurant;Upper East Side;1703 Second Ave;New York;NY;American \ Italian;$$$;(212-534-8103)
Frank Restaurant;East Village;88 Second Ave;New York;NY;Italian;$;(212-420-0202)
Gallagher's Steakhouse;Midtown West;228 W 52nd St;New York;NY;Steakhouse \ Steakhouses;$$$$;(212-245-5336)
I Coppi;East Village;432 E Ninth St;New York;NY;Italian;$$$;(212-254-2263)
Island Burger and Shakes;Midtown West;766 9th Ave;New York;NY;American;$;(212-307-7934)
John's Of 12th Street;East Village;302 E 12th St;New York;NY;Italian;$$;
Keens Steak House;Midtown West;72 W 36th St;New York;NY;Steakhouse \ Steakhouses;$$$;(212-947-3636)
Malatesta Trattoria;West Village;649 Washington St;New York;NY;Italian;$$;
Nobu Fifty Seven;Midtown West;40 W 57th St;New York;NY;Japanese;$$$$$;(212-757-3000)
Pure Food and Wine;Gramercy Park;54 Irving Pl;New York;NY;Vegetarian \ Vegetarian & Organic;$$$$;(212-477-1010)
Pure Food and Wine;Gramercy / Flatiron;;New York;NY;Vegetarian & Organic;;(212-477-1010)
Rack and Soul;Upper West Side;2818 Broadway;New York;NY;Barbecue \ American Regional;$$;(212-222-4800)
Schiller's Restaurant;Lower East Side;131 Rivington St;New York;NY;International \ Eclectic;$$;(212-260-4555)
Sparks Steak House;Midtown East;210 E 46th Street;New York;NY;Steakhouse \ Steakhouses;$$$;(212-687-4855)
Stella Del Mare;Murray Hill;346 Lexington Avenue;New York;NY;Italian;$$$;
Troy Turkish Grill;Midtown West;539 9th Ave;New York;NY;Turkish;$;(212-465-0888)
Veselka Restaurant;East Village;144 2nd Ave;New York;NY;American \ Eastern European;$;(212-228-9682)
Wogies Bar & Grill;West Village;39 Greenwich Ave;New York;NY;American;$;(212-229-2171)
Yozakura Kushiyaki Bar;Lower East Side;168 Ludlow St;New York;NY;Japanese;$;(212-260-2066)
Aurora Soho;Soho;;New York;NY;Italian;;(212-334-9020)
Aurora Soho;SoHo;510 Broome St btwn Thompson St and West...;New York;NY;Italian;;(212-334-9020)
Café Deville;East Village;;New York;NY;French;;(212-477-4500)
Caravan of Dreams;East Village;;New York;NY;Vegetarian & Organic;;(212-254-1613)
City Girl Café;Soho;;New York;NY;Cafés & diners;;(212-343-0110)
El Maguey y La Tuna;Lower East Side;;New York;NY;Mexican;;(212-473-3744)
Friend House 2;East Village;;New York;NY;Thai;;(212-388-1838)
Gotham Bar and Grill;Greenwich Village;12 E 12th St;New York;NY;American \ American Creative;$$$$;(212-620-4020)
Hampton Chutney Co.;Upper West Side;;New York;NY;Indian;;(212-362-5050)
Horus Café;East Village;;New York;NY;Middle Eastern: Egyptian;;(212-777-9199)
Knife + Fork;East Village;;New York;NY;Eclectic;;(212-228-4885)
Kushi-Q;Midtown East;;New York;NY;Japanese;;(212-682-5814)
La Lanterna di Vittorio;Greenwich Village;129 MacDougal St btwn 3rd and 4th Sts;New York;NY;Italian: Pizza;;(212-529-5945)
Loreley Restaurant & Biergaerten;Lower East Side;;New York;NY;;;
Old Homestead Steak House;Chelsea;;New York;NY;Steakhouses;;(212-242-9040)
Pepe Rosso to Go;Soho;;New York;NY;Italian;;(212-677-4555)
Prem-on Thai;Greenwich Village;138 W Houston St;New York;NY;Thai;$$;(212-353-2338)
Rheon Café;Soho;;New York;NY;Cafés & diners;;(212-966-7040)
Royale Cafe + Pastry;West Village;;New York;NY;Cafés & diners;;(212-255-5236)
Salsa y Salsa;Chelsea;;New York;NY;Mexican;;(212-929-2678)
Sharz Café & Wine Bar;Upper East Side;;New York;NY;American;;(212-369-1010)
Zucchero e Pomodori;Upper East Side;;New York;NY;Italian;;(212-585-2100)
Zucco: Le French Diner;Lower East Side;;New York;NY;French;;(212-677-5200)
Angon on the Sixth;East Village;320 E Sixth St;New York;NY;Indian;$;(212-260-8229)
Azul Argentine Bistro;Lower East Side;152 Stanton St at Suffolk St;New York;NY;Argentine;;(646-602-2004)
Charles's Southern-Style Kitchen;Harlem;;New York;NY;;;
Chat 'n Chew;Union Square;10 E 16th St;New York;NY;American;$;
Payard Patisserie and Bistro;Upper East Side;1032 Lexington Avenue;New York;NY;French;;(212-717-5252)
Sel et Poivre;Upper East Side;853 Lexington Ave btwn 64th and 65th Sts;New York;NY;French;;(212-517-5780)
You-Chun;Midtown West;;New York;NY;Korean;;(212-239-5000)
Ciaobella;Upper East Side;;New York;NY;Italian;;(212-794-8560)
Massimo al Ponte Vecchio;Greenwich Village;;New York;NY;Italian;;(212-228-7701)
Zereouè Restaurant and Bar;Midtown East;;New York;NY;African: West African;;(212-679-9355)
Aroma Kitchen and Winebar;East Village;36 E 4th St btwn Lafayette and Bowery;New York;NY;Italian;;(212-375-0100)
Crave on 42nd (CLOSED);Midtown West;650 W 42nd St at 11th Ave;New York;NY;American;;(212-564-9588)
Frankie and Johnnie's Steakhouse;Midtown West;;New York;NY;Steakhouses;;(212-997-9494)
Havana Alma de Cuba;West Village;94 Christopher St;New York;NY;Cuban;$$;
Il Laboratorio del Gelato;Lower East Side;95 Orchard St btwn Broome and Delancey...;New York;NY;Cafés & diners;;(212-343-9922)
Maracas Mexican Bar and Grill;Greenwich Village;33 Greenwich Ave btwn Sixth and Seventh...;New York;NY;Mexican;;(212-593-6600)
Papillon Bistro;Midtown East;22 E 54th St btwn 5th and Madison Aves;New York;NY;French;;(212-754-9006)
Planet Thailand 212;Chelsea;;New York;NY;Asian: Pan-Asian;;(212-727-7026)
Swizz Restaurant and Wine Bar;Midtown West;310 W 53rd St btwn Eighth and Ninth...;New York;NY;Eclectic;;(212-810-4444)
Turkuaz (CLOSED);Upper West Side;2637 Broadway at 100th St;New York;NY;Turkish;;(212-665-9541)
T-Bar Steak and Lounge;Upper East Side;;New York;NY;Steakhouses;;(212-772-0404)
Lugo Caffé;Midtown West;;New York;NY;Italian;;(212-760-2700)
Flea Market Café;East Village;131 Ave A;New York;NY;French;$;(212-358-9280)
Momofuku Ssäm Bar;East Village;207 2nd Ave;New York;NY;Asian \ Korean;$$$;(212-254-3500)
Rock Center Café;Midtown West;2 W 50th St;New York;NY;American;$$$;(212-332-7620)
Zabar's Café;Upper West Side;2245 Broadway;New York;NY;Deli;$;
Zebú Grill;Upper East Side;305 E 92nd St;New York;NY;South American \ Brazilian;$$;(212-426-7500)
New York Kom Tang Kal Bi House;Midtown West;;New York;NY;Korean;;(212-947-8482)
Artichoke Basille's Pizza and Brewery;East Village;;New York;NY;Italian;;(212-228-2004)
Citrus Bar and Grill;Upper West Side;320 Amsterdam Ave;New York;NY;Asian \ Eclectic;$$;(212-595-0500)
Gnocco Cucina and Tradizione;East Village;337 E 10th St-between Aves A and B;New York;NY;Italian;;(212-677-1913)
Momofuku Bakery and Milk Bar;East Village;;New York;NY;Eclectic;;(212-254-3500)
Morrell Wine Bar and Cafe;Midtown West;1 Rockefeller Plaza;New York;NY;American \ Italian;$$$;(212-262-7700)
Naya Mezze and Grill;Midtown East;1057 Second Ave-between 55th and 56th Sts;New York;NY;Middle Eastern;;(212-319-7777)
Sammy's Roumanian Steak House;Lower East Side;157 Chrystie St-;New York;NY;Eastern European;;(212-673-0330)
