Name;Neighborhood;Address;Country;Country code;Type;Cost;1_country_code;1_cost
'Cesca;Upper W. Side;164 W 75th St;New York;NY;Italian;$$$;NY;
'Ino;Greenwich Village;21 Bedford St;New York;NY;Italian;$;NY;
'Inoteca;Lower East Side;98 Rivington St;New York;NY;Italian;$$;NY;
1 Dominick;Soho;1 Dominick St-between Sixth Ave and Varick St;New York;NY;Italian;;NY;
10 Downing Food and Wine;West Village;;New York;NY;American Creative;;NY;
107 West Restaurant;Harlem;811 W 187th St;New York;NY;Creole-Cajun;$$$;NY;
1492 Food;Lower East Side;;New York;NY;Spanish;;NY;
2 Rivers Bar and ReStaurant;;10 Murray St;New York;NY;American;;NY;
2 West;Financial District;;New York;NY;American \ Steakhouses;$$$;NY;
202 Cafe;Chelsea;;New York;NY;;;NY;
21 Club;Midtown West;21 W 52nd St;New York;NY;American;$$$;NY;
212 Restaurant & Bar;Upper East Side;;New York;NY;American Creative;;NY;
26 Seats;E. Village;168 Ave B;New York;NY;French;$$;NY;
2nd Ave Deli;Midtown East;;New York;NY;American;;NY;
41 Greenwich Avenue;West Village;;New York;NY;;;NY;
44;Midtown West;44 W 44th Street;New York;NY;American;$$$;NY;
5 Napkin Burger;Hell's Kitchen;630 Ninth Ave;New York;NY;American;$$;NY;
5 Ninth Restaurant;Meatpacking District;5 Ninth Ave;New York;NY;International \ Eclectic;$$$;NY;
508;Soho;508 Greenwich St at Spring St;New York;NY;Mediterranean;;NY;
540 Park Restaurant;Upper East Side;540 Park Ave at 61st St;New York;NY;;;NY;
71 Irving Place Coffee & Tea Bar;Gramercy;71 Irving Pl;New York;NY;American;$;NY;
7A Cafe;E. Village;;New York;NY;American;;NY;
88 Orchard;Lower East Side;;New York;NY;Cafés;;NY;
99 Miles To Philly Inc;East Village;;New York;NY;American;;NY;
99¢ Fresh Pizza;Midtown East;;New York;NY;Italian;;NY;
?sküdar;Upper W. Side;;New York;NY;Turkish;;NY;
A;Harlem;947 Columbus Ave;New York;NY;Caribbean;$;NY;
A Cafe And Wine Room;Upper West Side;973 Columbus Avenue;New York;NY;French \ Eclectic;$$$;NY;
A Salt & Battery;W. Village;;New York;NY;British & Irish;;NY;
A Voce;Gramercy / Flatiron;;New York;NY;Italian;$$$$;NY;
A.O.C. Bedford;Greenwich Village;14 Bedford St;New York;NY;French \ Spanish;$$$;NY;
A.O.C. Bedford;West Village;314 Bleecker St;New York;NY;French \ Spanish;$$;NY;
A.O.C., (l’Ail ou la Cuisse);West Village;;New York;NY;Spanish;;NY;
AQ Café, Scandinavia House;Murray Hill/kips Bay;;New York;NY;;;NY;
Abboccato;Midtown West;136 W 55th St;New York;NY;Italian;$$$$;NY;
Abboccato Restaurant;Midtown West;136 W 55th St;New York;NY;Italian;$$$$;NY;
Abraco Espresso;East Village;86 E 7th St-At 1st Ave;New York;NY;;;NY;
Aburiya Kinnosuke;Midtown East;;New York;NY;Japanese;;NY;
Accademia Di Vino;Upper East Side;;New York;NY;Italian;;NY;
Acme Bar & Grill/Acme Underground;Greenwich Village;;New York;NY;American Regional;;NY;
Acqua;Upper West Side;;New York;NY;Italian;;NY;
Ada;Midtown East;208 E 58th Street;New York;NY;Indian;$$$;NY;
Adour Alain Ducasse at The St. Regis New York;Midtown East;;New York;NY;French;;NY;
Adä;Midtown East;;New York;NY;Indian;;NY;
Agave Restaurant;W. Village;;New York;NY;American Regional;;NY;
Ago;Tribeca;;New York;NY;Italian;;NY;
Agozar!;E. Village;;New York;NY;Caribbean: Cuban;;NY;
Aix Brasserie (CLOSED);Upper West Side;2398 Broadway;New York;NY;French;$$$$;NY;
Aj Maxwell's - Steakhouse;Midtown West;57 West 48th Street;New York;NY;Steakhouse \ Asian: Pan-Asian;$$$$;NY;
Aja;Midtown East;;New York;NY;Asian: Pan-Asian;;NY;
Aja Asian Bistro & Lounge;Midtown East;;New York;NY;Asian: Pan-Asian;;NY;
Ajisen Noodle Restaurant;Chinatown;;New York;NY;Japanese;;NY;
Akdeniz Turkish Cuisine;Midtown West;19 W 46th St;New York;NY;Mediterranean \ Turkish;$;NY;
Aki;Greenwich Village;181 W Fourth St;New York;NY;Caribbean \ Japanese;$$$;NY;
Aki;West Village;;New York;NY;Japanese;;NY;
Al Baraka;Upper E. Side;;New York;NY;Moroccan;;NY;
Al Bustan Restaurant;Midtown East;827 Third Ave;New York;NY;Middle Eastern;$$$;NY;
Al Diwan;East Village;;New York;NY;Middle Eastern;;NY;
Alcala;Midtown East;;New York;NY;Spanish;;NY;
Alexandra;W. Village;455 Hudson St;New York;NY;American;$$;NY;
Alfama Restaurant;W. Village;;New York;NY;Portuguese;;NY;
Alfama Restaurant;West Village;455 Hudson St;New York;NY;American \ Portuguese;$$;NY;
Alfama, Fine Portuguese Cuisine;West Village;;New York;NY;Portuguese;;NY;
Alfanoose;Financial/battery Pk;;New York;NY;Middle Eastern;;NY;
Alfredo's of Rome;Midtown West;;New York;NY;Italian;;NY;
Algonquin Hotel Round Table;Midtown West;;New York;NY;American;;NY;
Ali Baba;Midtown East;212 E 34th St btwn Second and Third Aves;New York;NY;Turkish;;NY;
Alias Restaurant;Lower E. Side;;New York;NY;American Creative;;NY;
Alias Restaurant;Lower East Side;76 Clinton St;New York;NY;American \ American Creative;$$$;NY;
Alice's Tea Cup;Upper W. Side;102 West. 73 st;New York;NY;American;$;NY;
Alice's Tea Cup Chapter II;Upper W. Side;102 West. 73 st;New York;NY;American \ Cafés & diners;$;NY;
Allegretti;Flatiron;46 West 22nd St;New York;NY;French;$$$$;NY;
Allegretti;Gramercy / Flatiron;;New York;NY;French;;NY;
Allen and Delancey;Lower East Side;115 Allen St;New York;NY;American;$$$;NY;
Alma Grill;Midtown East;134 E 48th St at Lexington Ave;New York;NY;American Creative;;NY;
Almond;Flatiron;12 E 22nd Street;New York;NY;French;$$$$$;NY;
Almond;Gramercy / Flatiron;;New York;NY;French;;NY;
Aloe;East Village;;New York;NY;American Creative;;NY;
Alonso's Steakhouse;Chelsea;265 West 20th St;New York;NY;Steakhouse \ Steakhouses;$$$;NY;
Alouette;Upper W. Side;2588 Broadway;New York;NY;French;$$$;NY;
Alta Restaurant;Greenwich Village;64 West 10th Street;New York;NY;Mediterranean;$$$;NY;
Alto;Midtown East;520 Madison Ave;New York;NY;Italian;$$$$$;NY;
Alto Restaurant;Midtown East;520 Madison Ave;New York;NY;Italian;$$$$$;NY;
Ama;Soho;48 MacDougal St-between Houston and Prince Sts;New York;NY;Italian;;NY;
Amaranth Restaurant;Upper E. Side;;New York;NY;Mediterranean;;NY;
Amaranth Restaurant;Upper East Side;21 E. 62nd St.;New York;NY;Mediterranean;$$$;NY;
Amazing 66;Chinatown;66 Mott Street;New York;NY;Chinese;$$;NY;
Ambassador Grill & Lounge;Midtown East;1 United Nations Plaza;New York;NY;International;$$$;NY;
Amber;Upper East Side;1406 Third Ave-at 80th St;New York;NY;Japanese;;NY;
American Grill;East Village;;New York;NY;;;NY;
Ammos Estiatorio;Midtown East;246 E 51st St;New York;NY;Indian \ Greek;$$$$;NY;
Amy Ruth's Home-Style Southern Cuisine;Harlem;113 W 116th St;New York;NY;Southern \ American Regional;$;NY;
Amy's Bread Retail/Wholesale;Midtown West;75 Ninth Ave;New York;NY;American;$;NY;
Angelica Kitchen;E. Village;300 E 12th St;New York;NY;Vegetarian \ Vegetarian & Organic;$;NY;
Angelo & Maxie's Steakhouse;Gramercy;;New York;NY;Steakhouses;;NY;
Angelo & Maxies Steakhouse;Midtown West;233 Park Ave South (19th St);New York;NY;Steakhouse \ Steakhouses;$$$;NY;
Angon on the Sixth;E. Village;;New York;NY;Indian;;NY;
Angon on the Sixth;East Village;320 E Sixth St;New York;NY;Indian;$;NY;
Angus Mcindoe Restaurant;Midtown West;;New York;NY;American;;NY;
Annisa Restaurant;Greenwich Village;13 Barrow Street;New York;NY;American \ American Creative;$$$$$;NY;
Annisa Restaurant;W. Village;;New York;NY;American Creative;;NY;
Anthos;Midtown East;36 W 52nd St;New York;NY;Mediterranean \ Greek;$$$$;NY;
Antique Garage;Soho;41 Mercer St-between Broome and Grand Sts;New York;NY;Mediterranean;;NY;
Antonucci's;Upper East Side;;New York;NY;Italian;;NY;
Apiary;East Village;60 Third Ave.;New York;NY;American;$$$$;NY;
Apizz Restaurant;Lower E. Side;217 Eldridge St;New York;NY;Italian;$$$;NY;
Aquagrill;Soho;210 Spring St;New York;NY;Seafood;$$$$;NY;
Aquavit Cafe;Midtown East;;New York;NY;Eclectic;;NY;
Aquavit Dining Room;Midtown East;;New York;NY;Eclectic;;NY;
Arabelle;Upper E. Side;;New York;NY;American Creative;;NY;
Arabelle at the Hotel Plaza Athenee;Upper East Side;;New York;NY;American Creative;;NY;
Archipelago (CLOSED);Soho;;New York;NY;Japanese;;NY;
Arezzo (CLOSED);Chelsea;;New York;NY;Italian;;NY;
Arezzo (CLOSED);Flatiron;46 W 22nd St;New York;NY;Italian;$$$;NY;
Arium;Meatpacking District;;New York;NY;Cafés & diners;;NY;
Ariyoshi;East Village;806 Broadway btwn 11th and 12th Sts;New York;NY;Japanese;;NY;
Aroma Kitchen and Winebar;East Village;36 E 4th St-between Bowery and Lafayette St;New York;NY;Italian;;NY;
Arqua Restaurant;Tribeca;281 Church Street;New York;NY;Italian;$$$;NY;
Arriba Arriba East;Upper E. Side;1463 Third Ave;New York;NY;American;$;NY;
Arte;Greenwich Village;21 E 9th St btwn Fifth Ave and...;New York;NY;;;NY;
Arte Cafe;Upper W. Side;106 W 73rd St;New York;NY;Italian;$$;NY;
Arte Café;Upper West Side;106 W 73rd St;New York;NY;Italian;$$;NY;
Artichoke Basille’s Pizza and Brewery;East Village;328 E 14th St-Btwn 1st & 2nd Ave;New York;NY;Italian;;NY;
Artie's Deli;West 80s;2290 Broadway;New York;NY;;;NY;
Artie's Delicatessen;;2290 Broadway;New York;NY;;;NY;
Arties Delicatessen and Caterers;Upper W. Side;;New York;NY;American;;NY;
Arturo's Pizzeria;Greenwich Village;106 W Houston St;New York;NY;Italian;$;NY;
Arturos Restaurant;Greenwich Village;106 W Houston St;New York;NY;Italian \ Italian: Pizza;$;NY;
Asia De Cuba;Murray Hill;237 Madison Ave;New York;NY;Asian;$$$$;NY;
Asiakan;Upper West Side;710 Amsterdam Ave.;New York;NY;Pan-Asian \ Asian: Pan-Asian;$;NY;
Asiana Restaurant and Bar;Midtown West;;New York;NY;Asian: Pan-Asian;;NY;
Asiate;Midtown West;;New York;NY;Asian: Pan-Asian;;NY;
Aspen;Gramercy / Flatiron;;New York;NY;American Creative;;NY;
Aspen;Gramercy/flatiron;30 W 22nd St;New York;NY;American Creative;;NY;
Aspen Social Club;Midtown West;157 W 47th St;New York;NY;American;$$$$;NY;
Assenzio;E. Village;;New York;NY;Italian;;NY;
At Vermilion;Midtown East;;New York;NY;Eclectic;;NY;
Atlantic Grill;Upper E. Side;1341 Third Ave;New York;NY;Seafood;$$$;NY;
Atomic Wings @ Bar Costal;Upper E. Side;;New York;NY;American;;NY;
Atria;Midtown West;;New York;NY;Eclectic;;NY;
August;Greenwich Village;359 Bleecker St btwn Charles and W 10th...;New York;NY;Eclectic;;NY;
August;W. Village;359 Bleecker St;New York;NY;European \ Eclectic;$$$;NY;
Aureole (CLOSED);Upper E. Side;;New York;NY;American Creative;;NY;
Aurora - Soho;Soho;;New York;NY;Italian;;NY;
Aurora Soho;Soho;510 Broome St-Btwn Thompson St & W Broadway;New York;NY;Italian;;NY;
Avenue A Sushi;E. Village;;New York;NY;Japanese;;NY;
Avon Bistro (CLOSED);Midtown East;;New York;NY;Eclectic;;NY;
Avra Estiatorio;Midtown East;141 E 48th St;New York;NY;Greek;$$$$;NY;
Awash Ethiopian Restaurant;Upper W. Side;;New York;NY;African: Ethiopian;;NY;
Awash Ethiopian Restaurant;Upper West Side;947 Amsterdam Ave.;New York;NY;Ethiopian \ African: Ethiopian;;NY;
Ayza Cafe and Wine Bar;Midtown East;11 W 31st St btwn Fifth Ave and Broadway;New York;NY;Eclectic;;NY;
Ayza Wine And Chocolate Bar;Midtown East;11 W 31st St btwn Fifth Ave and Broadway;New York;NY;Eclectic;;NY;
Azafran;Tribeca/soho;77 Warren St;New York;NY;Spanish;$$$;NY;
Azucar (Guantanamera);Midtown West;939 Eighth Avenue;New York;NY;Cuban \ Caribbean: Cuban;$$;NY;
Azul Argentine Bistro;Lower E. Side;;New York;NY;Argentine;;NY;
Azul Argentine Bistro;Lower East Side;152 Stanton St-at Suffolk St;New York;NY;Argentine;;NY;
Azul Bistro;Lower East Side;152 Stanton St-At Suffolk St;New York;NY;;;NY;
Azuri Cafe;Midtown West;465 W 51st St;New York;NY;Jewish;$;NY;
B. Cafe;Upper East Side;;New York;NY;Belgian;;NY;
B. Cafe West;Upper East Side;;New York;NY;Belgian;;NY;
B. Smith's (Midtown);Midtown West;320 West 46th St;New York;NY;Southern;$$$;NY;
BB Sandwich Bar;Greenwich Village;;New York;NY;American;;NY;
BG;Midtown West;;New York;NY;Cafés;;NY;
BG - Bergdorf Goodman;Midtown West;;New York;NY;Cafés;;NY;
BLT Burger;Greenwich Village;;New York;NY;American;;NY;
BLT Fish Bistro Laurent Tourondel;Chelsea;;New York;NY;Seafood;;NY;
BLT Fish Bistro Laurent Tourondel;Flatiron;21 W 17th St;New York;NY;Seafood;$$;NY;
BLT Prime;Gramercy;111 East 22nd Street;New York;NY;American \ Steakhouses;$$$$;NY;
BLT Prime Bistro Laurent Tourondel;Gramercy / Flatiron;;New York;NY;Steakhouses;;NY;
BLT Steak, Bistro Laurent Tourondel;Midtown East;106 E 57th St;New York;NY;Steakhouse \ Steakhouses;$$$$$;NY;
BXL Cafe;Midtown West;;New York;NY;Belgian;;NY;
Babbo Ristorante e Enoteca;Greenwich Village;110 Waverly Pl;New York;NY;Italian;$$$$;NY;
Bacaro;Lower East Side;;New York;NY;Italian;;NY;
Back Forty;East Village;;New York;NY;American;;NY;
Baldo Vino;E. Village;;New York;NY;Italian;;NY;
Baldoria;Midtown West;249 West 49th Street;New York;NY;Italian;$$$$;NY;
Bali Nusa Indah Restaurant Inc;Midtown West;;New York;NY;Asian: Indonesian;;NY;
Balthazar;Soho;;New York;NY;French;;NY;
Bamboo 52;Midtown West;;New York;NY;Asian: Pan-Asian;;NY;
Bamiyan;Gramercy;;New York;NY;Afghan;;NY;
Bamn!;East Village;;New York;NY;Eclectic;;NY;
Banc Cafe;Midtown East;431 Third Ave at 30th St;New York;NY;French;;NY;
Bandol Bistro;Upper East Side;181 East 78th Street;New York;NY;French;;NY;
Banjara Indian Restaurant;E. Village;97 First Ave;New York;NY;Indian;$$;NY;
Bann Restaurant;Midtown West;;New York;NY;Korean;;NY;
Bann Restaurant;Theater;350 W 50th St;New York;NY;Korean;$$$;NY;
Bao Noodles;Gramercy;;New York;NY;Vietnamese;;NY;
Baoguette;Gramercy;;New York;NY;Vietnamese;;NY;
Bar 6;Greenwich Village;502 Sixth Ave btwn 12th and 13th Sts;New York;NY;French;;NY;
Bar Americain;Midtown West;152 W 52nd St;New York;NY;American \ American Regional;$$$$;NY;
Bar Baresco;Chelsea;;New York;NY;Italian;;NY;
Bar Blanc;Greenwich Village;142 W 10th St btwn Greenwich Ave and...;New York;NY;French;;NY;
Bar Blanc;West Village;;New York;NY;French;;NY;
Bar Boulud;Upper West Side;100 W 82nd Street;New York;NY;Vietnamese \ French;$$$$;NY;
Bar Carrera;East Village;;New York;NY;Spanish;;NY;
Bar Martignetti;Chinatown/little Italy;406 Broome St.;New York;NY;French;;NY;
Bar Milano;Gramercy;;New York;NY;Italian;;NY;
Bar Pitti;Greenwich Village;268 Sixth Avenue;New York;NY;Italian;$$;NY;
Bar Pitti;W. Village;;New York;NY;Eclectic;;NY;
Bar Q;West Village;;New York;NY;Eclectic;;NY;
Bar Room at the Modern;Midtown West;;New York;NY;American Creative;;NY;
Bar Stuzzichini;Gramercy / Flatiron;;New York;NY;Italian;;NY;
Bar Veloce;Chelsea;;New York;NY;Italian;;NY;
Baraonda Restaurant Inc;Upper E. Side;;New York;NY;Italian;;NY;
Barbarini Alimentari;Financial/battery Pk;;New York;NY;Food or Beverage Shop;;NY;
Barbetta Restaurant;Midtown West;321 W 46th Street;New York;NY;Italian;$$$;NY;
Barbounia;Flatiron/u. Sq.;250 Park Ave South;New York;NY;Mediterranean;$$$$;NY;
Barbounia;Gramercy / Flatiron;;New York;NY;Mediterranean;;NY;
Barbuto Restaurant;Meatpacking District;;New York;NY;Italian;;NY;
Barcibo Enoteca;Upper West Side;;New York;NY;Italian;;NY;
Barking Dog Luncheonette;Upper E. Side;;New York;NY;American;;NY;
Barmarche;Nolita;14 Spring St;New York;NY;American;$$;NY;
Barna;Gramercy;;New York;NY;Spanish;;NY;
Barney Greengrass Inc;Upper W. Side;541 Amsterdam Ave;New York;NY;Deli \ American;$;NY;
Barolo;Soho;;New York;NY;Italian;;NY;
Basera Northern Indian Cuisine;Midtown East;;New York;NY;Indian;;NY;
Basta Pasta;Chelsea;;New York;NY;Italian;;NY;
Basta Pasta Ristorante Italian;Flatiron/u. Sq.;37 W 17th St;New York;NY;Italian;$$;NY;
Batch;Greenwich Village;150B W. 10th Street btwn Greenwich Ave...;New York;NY;Asian: Pan-Asian;;NY;
Battery Gardens;Financial/battery Pk;;New York;NY;American;$$$;NY;
Bay Leaf;Midtown West;49 W 56th Street;New York;NY;Indian;$$;NY;
Beacon;Midtown West;25 West 56th St (Between 5th & 6th Avenues);New York;NY;American;$$$$;NY;
Becco Restaurant Inc;Midtown West;355 W 46th St;New York;NY;Italian;$$$;NY;
Belcourt;East Village;;New York;NY;Mediterranean;;NY;
Bella BLU Restaurant;Upper E. Side;;New York;NY;Italian;;NY;
Bella Cucina;Upper E. Side;;New York;NY;Italian;;NY;
Bellavitae;Greenwich Village;21 Minetta Ln;New York;NY;Italian;$$$;NY;
Bello;;863 Ninth Ave;New York;NY;;;NY;
Bello Sguardo;Upper W. Side;;New York;NY;Mediterranean;;NY;
Ben Benson's Steak House;Midtown West;219 E 44th St;New York;NY;Steakhouse \ Steakhouses;$$$$;NY;
Ben Benson's Steakhouse;Midtown West;;New York;NY;Steakhouses;;NY;
Ben and Jack's Steakhouse;Midtown East;;New York;NY;Steakhouses;;NY;
Ben's Kosher Delicatessen;Midtown West;209 West 38th Street;New York;NY;Deli;$;NY;
Benjamin Steakhouse;Midtown East;;New York;NY;Steakhouses;;NY;
Benoit Restaurant and Bar;Midtown West;;New York;NY;French;;NY;
Beppe Restaurant;Flatiron/u. Sq.;45 E 22nd St;New York;NY;Italian;$$$;NY;
Bereket Turkish Kebab House;Lower E. Side;;New York;NY;Turkish;;NY;
Bette (CLOSED);Chelsea;461 W 23rd St;New York;NY;European;$$$;NY;
Better Burger;Midtown East;561 Third Ave at 37th St;New York;NY;American;;NY;
Better Burger (CLOSED);Upper East Side;;New York;NY;American;;NY;
Bettola;Upper W. Side;412 Amsterdam Ave;New York;NY;Italian;$$;NY;
Beyoglu;Upper E. Side;1431 Third Avenue;New York;NY;Mediterranean \ Turkish;$$;NY;
Bianca Restaurant;E. Village;;New York;NY;Italian;;NY;
Bianca Restaurant;Nolita;5 Bleecker St;New York;NY;Italian;$$;NY;
Bice Ristorante;Midtown East;;New York;NY;Italian;;NY;
Big John;Lower East Side;;New York;NY;American;;NY;
Big Nick's Burger Joint and Pizza Joint;Upper West Side;2175 Broadway;New York;NY;American;$;NY;
Big Nick's Burger and Pizza Joint;Upper West Side;2175 Broadway;New York;NY;American;$;NY;
Big Wong King;;67 Mott St;New York;NY;;;NY;
Bin 71;Upper W. Side;;New York;NY;Italian;;NY;
Birdbath;East Village;;New York;NY;Cafés;;NY;
Biricchino Northern Italian Restaurant;Chelsea;260 W 29th St at Eighth Ave;New York;NY;Italian;;NY;
Bistro Chat Noir;Upper East Side;225 Columbus Ave;New York;NY;French;$$;NY;
Bistro Citron;Upper West Side;;New York;NY;French;;NY;
Bistro Desaret;Midtown East;;New York;NY;French;;NY;
Bistro Le Steak;Upper East Side;;New York;NY;French;;NY;
Bistro Les Amis;Soho;180 Spring St/Thompson;New York;NY;French;$$;NY;
Bistro Milano;Midtown West;;New York;NY;Italian;;NY;
Bistro Ten 18;Upper W. Side;;New York;NY;American;;NY;
Bistro du Nord;Upper E. Side;;New York;NY;French;;NY;
Bistro du Nord;Upper East Side;1018 Amsterdam Ave;New York;NY;American \ French;$$;NY;
Bistro le Steak;Upper E. Side;;New York;NY;French;;NY;
Bistro les Amis;Soho;;New York;NY;French;;NY;
Bistrouge;East Village;;New York;NY;Eclectic;;NY;
Black Duck;Gramercy / Flatiron;;New York;NY;Seafood;;NY;
Black Iron Burger Shop;East Village;540 E 5th St;New York;NY;American;$$$;NY;
Black Pearl (CLOSED);Chelsea;37 W. 26th Street;New York;NY;Seafood;$$;NY;
Blaue Gans;Tribeca;139 Duane Street;New York;NY;German \ Austrian;$$$;NY;
Blockheads Mexican Diner;Midtown East;954 Second Ave;New York;NY;Mexican;$;NY;
Bloomingdale Road;Upper West Side;2398 Broadway;New York;NY;American;$$$;NY;
Bloomingdale Road (CLOSED);Upper West Side;;New York;NY;American;;NY;
Blossom Restaurant & Cafe;;187 Ninth Ave.;New York;NY;Vegetarian;$$;NY;
Blossom Vegan Restaurant & Cafe;Chelsea;187 9 Av;New York;NY;Vegetarian & Organic;;NY;
Blue 9 Burger;East Village;92 3rd Ave;New York;NY;American \ Cafés & diners;$;NY;
Blue Fin;Midtown West;;New York;NY;Seafood;$$$;NY;
Blue Fin at W New York Times Square Hote;Midtown West;1567 Broadway at 47th;New York;NY;Seafood;$$$;NY;
Blue Hill;Greenwich Village;75 Washington Place;New York;NY;American;$$$$;NY;
Blue Point Seafood;Midtown West;662 Ninth Ave at 46th St;New York;NY;French;;NY;
Blue Ribbon;Soho;97 Sullivan Street;New York;NY;American \ American Creative;$$$;NY;
Blue Ribbon Bakery;Greenwich Village;33 Downing Street;New York;NY;American \ Eclectic;$$;NY;
Blue Ribbon Bakery;W. Village;;New York;NY;Eclectic;;NY;
Blue Ribbon Brasserie;Soho;97 Sullivan Street;New York;NY;;;NY;
Blue Ribbon Sushi;Soho;;New York;NY;Japanese;;NY;
Blue Smoke;Gramercy;116 E 27th St;New York;NY;Barbecue \ Barbeque;$$;NY;
Blue Smoke;Gramercy / Flatiron;;New York;NY;Barbeque;;NY;
Blue Water Grill;Union Square;31 Union Square West;New York;NY;Seafood;$$$;NY;
Bluechili;Midtown West;251 W 51st St;New York;NY;Asian \ Asian: Pan-Asian;$$;NY;
Bobby Van's Grill - 50th Street;Midtown West;135 W 50th St;New York;NY;Italian;$$$;NY;
Bobby Van's Park Avenue - 'The Original';Midtown East;;New York;NY;Steakhouses;;NY;
Bobby Van's Steakhouse - 54th Street;Midtown East;;New York;NY;Steakhouses;;NY;
Bobo;Greenwich Village;181 W. 10th St.;New York;NY;European \ Eclectic;$$$$;NY;
Bobo Restaurant;West Village;;New York;NY;Eclectic;;NY;
Boca Chica Restaurant;E. Village;13 First Avenue;New York;NY;South American \ Latin American;$;NY;
Bocca Restaurant;Gramercy / Flatiron;;New York;NY;Italian;;NY;
Bocca di Bacco;Midtown West;;New York;NY;Italian;;NY;
Boi Sandwich Shop;Midtown East;246 East 44th Street;New York;NY;Vietnamese;$$;NY;
Boi To Go;Midtown East;246 East 44th Street;New York;NY;Vietnamese;$$;NY;
Boka;East Village;;New York;NY;Korean;;NY;
Bolo;Flatiron/u. Sq.;23 E 22nd St;New York;NY;Spanish;$$$$;NY;
Bolo Restaurant & Bar;Flatiron/u. Sq.;23 E 22nd St;New York;NY;Spanish;$$$$;NY;
Bombay Frankie;Upper West Side;994 Amsterdam Ave btwn 109th and 110th...;New York;NY;Indian;;NY;
Bombay Grill;;344 Lexington Ave;New York;NY;Indian;$$;NY;
Bombay Palace;Midtown West;30 W 52nd St;New York;NY;Indian;$$;NY;
Bombay Talkie;Chelsea;189 Ninth Ave;New York;NY;Indian;$$;NY;
Bond 45 Italian Kitchen Steak & Seafood;Midtown West;154 W 45th St;New York;NY;Italian;$$$;NY;
Bond St;East Village;6 Bond St.;New York;NY;;;NY;
Bond St.;East Village;6 Bond St-Btwn Bway & Lafayette St;New York;NY;;;NY;
Bondi Road Fish And Chips;Lower East Side;;New York;NY;Australian & New Zealand;;NY;
Bone Lick Park Bar-B-Que;Greenwich Village;75 Greenwich Ave btwn Seventh Ave South...;New York;NY;Barbeque;;NY;
Bone Lick Park Bar-B-Que;West Village;;New York;NY;Barbeque;;NY;
Bongo;Chelsea;;New York;NY;Seafood;;NY;
Bonjoo Restaurant;East Village;;New York;NY;Korean;;NY;
Boom Restaurant;Soho;;New York;NY;Italian;;NY;
Boonthai Restaurant;Upper E. Side;;New York;NY;Thai;;NY;
Boqueria;Soho;;New York;NY;Spanish;;NY;
Borgo Antico;E. Village;22 E 13th St;New York;NY;Italian;$$$;NY;
Borobudur Cafe;E. Village;;New York;NY;Asian: Indonesian;;NY;
Borobudur Cafe;West Village;22 E 13th St;New York;NY;Italian \ Asian: Indonesian;$$$;NY;
Bottino Restaurant;Chelsea;246 10th Ave;New York;NY;Italian;$$$;NY;
Bouley;Tribeca;120 West Broadway;New York;NY;French;$$$$$;NY;
Bouley Bakery Restaurant;Tribeca;120 West Broadway;New York;NY;French;$$$$$;NY;
Bourbon Street Bar & Grille;Midtown West;346 W 46th Street;New York;NY;Creole-Cajun \ American Regional;$$$$;NY;
Bourbon Street Southern Gourmet Pantry;West Village;;New York;NY;;;NY;
Boutique Del Vino;Soho;;New York;NY;Italian;;NY;
Braai;Midtown West;329 West 51st St btwn 8th and 9th Aves;New York;NY;;;NY;
Braeburn Restaurant;Greenwich Village;117 Perry St btwn Greenwich and Hudson...;New York;NY;American;;NY;
Branzini Restaurant;Midtown East;;New York;NY;Mediterranean;;NY;
Brasserie;Midtown East;100 East 53rd St;New York;NY;French;$$$;NY;
Brasserie 360;Midtown East;;New York;NY;American;;NY;
Brasserie 52;Midtown West;44 W 44th St-between Fifth and Sixth Aves;New York;NY;American;;NY;
Brasserie 8 1/2;Midtown East;9 W 57th St;New York;NY;French;$$$$;NY;
Brasserie Athenee;Midtown West;;New York;NY;French;;NY;
Brasserie AthenÃ©e;Midtown West;;New York;NY;French;;NY;
Brasserie Julien;Upper E. Side;1422 3rd Ave (Between 80th & 81st Streets);New York;NY;French;$$;NY;
Brasserie Ruhlmann;Midtown West;;New York;NY;French;;NY;
Bravo Gianni Restaurant;Upper E. Side;;New York;NY;Italian;;NY;
Bread;Nolita;20 Spring St;New York;NY;American \ Italian;$$;NY;
Bread and Olive;Midtown West;24 W 45th St btwn Fifth and Sixth Aves;New York;NY;;;NY;
Breeze NYC;Midtown West;;New York;NY;Thai;;NY;
Bricco Restaurant;Midtown West;;New York;NY;Italian;;NY;
Bricco Ristorante;Midtown West;304 W 56th St;New York;NY;Italian;;NY;
Brick Lane Curry House;E. Village;;New York;NY;Indian;;NY;
Brick Lane Curry House;East Village;342 East 6th St;New York;NY;Indian;$;NY;
Bridge Café;Financial/battery Pk;279 Water St;New York;NY;American;$$$;NY;
Bright Food Shop;Chelsea;218 Eighth Ave;New York;NY;Asian;$;NY;
Bright Food Shop (CLOSED);Chelsea;218 Eighth Ave;New York;NY;Asian \ Eclectic;$;NY;
Brio;Upper E. Side;;New York;NY;Italian;;NY;
Brio Forno;Upper E. Side;;New York;NY;Italian;;NY;
Broadway East;Lower East Side;171 East Broadway;New York;NY;American \ Vegetarian & Organic;$$$;NY;
Broadway Joe's Steakhouse;Theater District;315 West 46th Street;New York;NY;Steakhouse;$$$;NY;
Bruno Jamais Restaurant Club;Upper E. Side;;New York;NY;French;;NY;
Bruno Ristorante;Midtown East;;New York;NY;Italian;;NY;
Bruschetteria;Lower East Side;;New York;NY;Cafés;;NY;
Bryant Park Cafe and Grill;Midtown West;;New York;NY;American;;NY;
Bubba Gump Shrimp Co.;Midtown West;1501 Broadway;New York;NY;American \ Seafood;$;NY;
Bubble Lounge - NYC;Tribeca - Downtown;228 W Broadway;New York;NY;Small Plates;$$$;NY;
Bubby’s;Tribeca;;New York;NY;American;;NY;
Buddakan;Chelsea;75 Ninth Ave;New York;NY;Fusion \ Chinese;$$$$;NY;
Buddha BBeeQ;Upper East Side;1750 Second Ave.;New York;NY;Korean;$;NY;
Buddha Bar - New York;Meatpacking District;25 Little West 12th Street;New York;NY;Asian \ Asian: Pan-Asian;$$$$;NY;
Buenos Aires;East Village;513 E Sixth St;New York;NY;Argentinean \ Argentine;$$;NY;
Bukhara Grill;Midtown East;217 E 49th St;New York;NY;Indian;$$;NY;
Bull & Bear Pub;Midtown East;;New York;NY;Steakhouses;;NY;
Bull Run;Financial/battery Pk;52 William St;New York;NY;American;$$$;NY;
Bun;Soho;;New York;NY;Vietnamese;;NY;
Burger Heaven;Midtown East;20 E 49th St-between Fifth and Madison Aves;New York;NY;American;;NY;
Burger Joint (CLOSED);Gramercy Park;190 Bleecker St;New York;NY;American;$;NY;
Butai Restaurant;Gramercy;115 E 18th St;New York;NY;Japanese;$$$;NY;
Butcher Bay;East Village;415 Lafayette St;New York;NY;American \ American Regional;$$$;NY;
Butter;E. Village;415 Lafayette St;New York;NY;American;$$$;NY;
Butter Lane Cupcakes;E. Village;415 Lafayette St;New York;NY;American;$$$;NY;
Butterfield 8;Midtown East;5 E 38th St btwn Fifth and Madison Aves;New York;NY;American;;NY;
Buzina Pop;Upper East Side;;New York;NY;Brazilian;;NY;
Byblos Restaurant;Midtown East;;New York;NY;Middle Eastern;;NY;
Cabo Rojo;Chelsea;;New York;NY;Caribbean: Puerto Rican;;NY;
Cabrito;West Village;50 Carmine St.;New York;NY;Fusion \ Mexican;;NY;
Cacio e Pepe;E. Village;;New York;NY;Italian;;NY;
Cacio e Pepe;East Village;182 Second Ave;New York;NY;Italian;$$;NY;
Cacio e Vino;East Village;;New York;NY;Italian;;NY;
Cafe 2 and Terrace 5;Midtown West;;New York;NY;Italian;;NY;
Cafe Asean;W. Village;;New York;NY;Asian: Pan-Asian;;NY;
Cafe Asean;West Village;117 West 10th Street;New York;NY;Asian: Pan-Asian;;NY;
Cafe Con Leche;Upper West Side;726 Amsterdam Ave;New York;NY;Cuban;$;NY;
Cafe De Bruxelles;West Village;118 Greenwich Ave;New York;NY;Belgian;$$;NY;
Cafe Des Artistes;Upper West Side;1 W 67th Street;New York;NY;French;$$$;NY;
Cafe Edison;Midtown West;;New York;NY;American;;NY;
Cafe Espanol;Greenwich Village;172 Bleecker Street;New York;NY;American;$;NY;
Cafe Evergreen;Upper East Side;1288 First Ave-at 69th St;New York;NY;Chinese;;NY;
Cafe Fiorello;Upper W. Side;368 Columbus Ave;New York;NY;Mexican \ Italian;$$;NY;
Cafe Fiorello;Upper West Side;1900 Broadway-between 63rd and 64th Sts;New York;NY;Italian;;NY;
Cafe Frida;Upper W. Side;;New York;NY;Mexican;;NY;
Cafe Gitane;Nolita;242 Mott St;New York;NY;French \ Moroccan;$;NY;
Cafe Greco;Upper E. Side;10 Columbus Circle, 3rd Fl;New York;NY;French \ Mediterranean;$$$$$;NY;
Cafe Habana To Go;Nolita;229 Elizabeth St;New York;NY;Cuban \ Caribbean: Cuban;$;NY;
Cafe Joul;Midtown East;1070 First Avenue;New York;NY;French;$$;NY;
Cafe Katja;Lower East Side;;New York;NY;Eastern European;;NY;
Cafe Lalo;Upper W. Side;201 W 83rd St;New York;NY;American;$;NY;
Cafe Loup;Greenwich Village;105 W 13th St;New York;NY;French;$$$;NY;
Cafe Lucca;W. Village;;New York;NY;French;;NY;
Cafe Luxembourg;Upper W. Side;;New York;NY;French;;NY;
Cafe Luxembourg;Upper West Side;200 W 70th St-between Amsterdam and West End Aves;New York;NY;French;;NY;
Cafe Mogador;East Village;101 St Marks Pl;New York;NY;Moroccan;$;NY;
Cafe Notte;Upper East Side;;New York;NY;Cafés & diners;;NY;
Cafe Rustico East;Midtown East;230 East 29th St.;New York;NY;Italian;$$$;NY;
Cafe Select;;212 Lafayette Street;New York;NY;International;$$$;NY;
Cafe Un Deux Trois;Midtown West;123 W 44th St;New York;NY;French;$$$;NY;
Cafe con Leche;Upper East Side;1695 2nd Ave at 88th St;New York;NY;Caribbean;;NY;
Cafe con Leche;Upper West Side;726 Amsterdam Ave-between 95th and 96th Sts;New York;NY;Caribbean;;NY;
Cafe d'Alsace;Upper East Side;1695 2nd Ave at 88th St;New York;NY;;;NY;
Cafe des Artistes;Upper West Side;1 W 67th St at Central Park West;New York;NY;;;NY;
Cafetasia;Greenwich Village;;New York;NY;Asian: Pan-Asian;;NY;
Cafeteria;Chelsea;119 Seventh Avenue;New York;NY;American;$;NY;
Caffe Della Pace;E. Village;;New York;NY;Italian;;NY;
Caffe Emilia;East Village;;New York;NY;Italian;;NY;
Caffe Falai;Soho;265 Lafayette St at Prince St;New York;NY;Cafés & diners;;NY;
Caffe Raffaella;West Village;;New York;NY;Cafés;;NY;
Caffè del Mare;West Village;;New York;NY;Cafés;;NY;
Café Boulud;Upper East Side;20 East 76th St;New York;NY;French;$$$$;NY;
Café Condesa;West Village;;New York;NY;American Creative;;NY;
Café Cortadito;East Village;;New York;NY;American Creative;;NY;
Café Deville;East Village;;New York;NY;French;;NY;
Café Grumpy;Chelsea;;New York;NY;Cafés & diners;;NY;
Café Loup;West Village;;New York;NY;;;NY;
Café Luxembourg;Upper West Side;;New York;NY;French;;NY;
Café Noir;Soho;;New York;NY;Mediterranean;;NY;
Café Pierre;Upper East Side;;New York;NY;slated to reopen in 2009);;NY;
Café Sabarsky;Upper East Side;;New York;NY;Austrian;$$;NY;
Café Select;Soho;;New York;NY;Eclectic;;NY;
Café Soleil;Midtown East;;New York;NY;French;;NY;
Café Spice;Midtown East;;New York;NY;Indian;;NY;
Café con Leche;Upper West Side;;New York;NY;French;;NY;
Café d'Alsace;Upper East Side;;New York;NY;French;;NY;
Café de Bruxelles;West Village;;New York;NY;Belgian;;NY;
Café des Artistes;Upper West Side;;New York;NY;French;;NY;
Café du Soleil;Upper West Side;;New York;NY;French;;NY;
Calexico;Soho;;New York;NY;Mexican;;NY;
Calle Ocho;Upper W. Side;446 Columbus Avenue;New York;NY;Cuban \ Caribbean;$$;NY;
CamaJe Bistro;Greenwich Village;85 Macdougal St;New York;NY;American \ French;$$;NY;
Camino Sur;Midtown West;336 W 37th St;New York;NY;South American;$$$;NY;
Campagnola Restaurant;Upper E. Side;1382 First Ave;New York;NY;Italian;$$$$;NY;
Campo;Upper West Side;;New York;NY;Italian;;NY;
Candela Candela;East Village;Candela, 92 Second Avenue;New York;NY;Cuban;$$;NY;
Candle Cafe;Upper E. Side;;New York;NY;Vegetarian & Organic;;NY;
Candle Cafe;Upper East Side;154 E 79 St;New York;NY;Vegetarian \ Vegetarian & Organic;$$;NY;
Candle Café;Upper East Side;1307 Third Avenue;New York;NY;Vegetarian \ Vegetarian & Organic;$;NY;
Canyon Road Bar & Grill;Upper E. Side;1470 First Avenue;New York;NY;Southwestern \ American Regional;$$;NY;
Capital Grille - New York City;Midtown East;155 E 42nd St;New York;NY;Steakhouse \ Steakhouses;$$$$;NY;
Capri Caffé;Tribeca;;New York;NY;Italian;;NY;
Caracas Arepa Bar To Go;E. Village;91 East 7th St;New York;NY;South American \ Latin American: Venezuelan;$;NY;
Caravan of Dreams;E. Village;;New York;NY;Vegetarian & Organic;;NY;
Carbone Ristorante Italiano;Midtown West;331 W 38th St btwn Eight and Ninth Aves;New York;NY;Italian;;NY;
Carl’s Steaks;Midtown West;2450 Broadway;New York;NY;Italian \ American;$$;NY;
Carmine's Takeout;Upper W. Side;;New York;NY;Italian;;NY;
Carne (CLOSED);Upper West Side;2737 Broadway;New York;NY;;;NY;
Carne Vale;East Village;;New York;NY;Brazilian;;NY;
Carnegie Delicatessen;Midtown West;854 7th Ave;New York;NY;Deli;$;NY;
Carnegie John's;Midtown West;;New York;NY;Eclectic;;NY;
Casa;Greenwich Village;72 Bedford St at Commerce St;New York;NY;Brazilian;;NY;
Casa;W. Village;72 Bedford St;New York;NY;South American \ Brazilian;$$;NY;
Casa Adela;E. Village;;New York;NY;Caribbean: Puerto Rican;;NY;
Casa Adela;East Village;72 Bedford St;New York;NY;South American \ Caribbean: Puerto Rican;$$;NY;
Casa Havana;Chelsea;;New York;NY;Caribbean: Cuban;;NY;
Casa la Femme North (CLOSED);Midtown East;;New York;NY;Middle Eastern: Egyptian;;NY;
Casablanca Tea Room;Soho;164 Mercer St btwn Houston and Prince...;New York;NY;Moroccan;;NY;
Casanis;Lower East Side;;New York;NY;French;;NY;
Cascina;Midtown West;;New York;NY;Italian;;NY;
Casimir Restaurant;E. Village;103-105 Ave B;New York;NY;French;$$;NY;
Caterina's;Midtown East;316 East 53rd Street;New York;NY;Hungarian;$$$;NY;
Cavatappo Wine Bar;Upper East Side;1712 First Ave-between 88th and 89th Sts;New York;NY;Italian;;NY;
Caviar Russe - Wave Sushi;Midtown East;;New York;NY;Russian;;NY;
Celeste Restaurant;Upper W. Side;502 Amsterdam Ave;New York;NY;Italian;$$;NY;
Cellini;Midtown East;65 E 54th St;New York;NY;Italian;$$$;NY;
Cendrillon;Soho;;New York;NY;Asian: Filipino;;NY;
Center Cut Steaks & Chops;Upper West Side;;New York;NY;Steakhouses;;NY;
Centolire Cafe & Panini;Upper E. Side;;New York;NY;Italian;;NY;
Central Park Boathouse Restaurant;Upper East Side;;New York;NY;Seafood;;NY;
Centro Vinoteca;W. Village;;New York;NY;Italian;;NY;
Cercle Rouge;Tribeca;241 W Broadway;New York;NY;American \ French;$$$;NY;
Chai Home Kitchen;Midtown West;;New York;NY;Asian: Pan-Asian;;NY;
Chanoodle;Chinatown;;New York;NY;Chinese;;NY;
Chanterelle;Tribeca;2 Harrison St;New York;NY;French;$$$$$;NY;
Charles's Southern-Style Kitchen;Harlem;;New York;NY;;;NY;
Charlie Palmer's Metrazur;Midtown East;East Balcony #4, 404 Grand Central Terminal, 42nd Street;New York;NY;American;$$$;NY;
Chat 'n Chew;Union Square;10 E 16th St;New York;NY;American;$;NY;
Chat Noir;Upper East Side;;New York;NY;French;;NY;
Chatham Square Restaurant;Chinatown;;New York;NY;Chinese;;NY;
Chelsea Square Restaurant;Chelsea;;New York;NY;;;NY;
Chelsea Thai Wholesale;Chelsea;;New York;NY;;;NY;
Chennai Garden Inc;Gramercy;129 E 27 St;New York;NY;Indian;$;NY;
Chez Jacqueline;Greenwich Village;72 Macdougal St;New York;NY;French;$$$;NY;
Chez Josephine Limited;Midtown West;;New York;NY;French;;NY;
Chez Napoleon;Midtown West;;New York;NY;French;;NY;
Chickie Pig's Brick Oven;Lower E. Side;;New York;NY;Italian: Pizza;;NY;
Chickpea;East Village;;New York;NY;Kosher;;NY;
ChikaLicious Dessert Bar;E. Village;;New York;NY;Cafés & diners;;NY;
ChikaLicious Puddin';East Village;;New York;NY;Food or Beverage Shop;;NY;
Chikalicious Dessert Bar;East Village;;New York;NY;;;NY;
Chimichurri Grill;Midtown West;606 9th Avenue;New York;NY;South American \ Argentine;$$$;NY;
Chin Chin Restaurant;Midtown East;216 E 49th St;New York;NY;Chinese;$$$;NY;
Chin-Chin Restaurant Inc;Midtown East;216 E 49th St;New York;NY;Chinese;$$$;NY;
China 1 Antique Restaurant & Lounge;East Village;;New York;NY;Chinese;;NY;
China Fun;Upper E. Side;;New York;NY;Chinese;;NY;
China Fun;Upper East Side;246 Columbus Ave;New York;NY;Chinese;$;NY;
China Grill - New York;Midtown West;60 W 53rd St;New York;NY;Asian \ Asian: Pan-Asian;$$$$;NY;
China de Puebla;Harlem;3143 Broadway;New York;NY;Asian;;NY;
China de Puebla (CLOSED);Upper West Side;3143 Broadway at La Salle St;New York;NY;;;NY;
Chinatown Brasserie;Nolita;380 Lafayette St;New York;NY;Chinese;$$$;NY;
Chino’s;Gramercy;173 Third Ave;New York;NY;Asian \ Asian: Pan-Asian;$;NY;
Chiyono;E. Village;;New York;NY;Japanese;;NY;
Chiyono;East Village;328 E. Sixth St.;New York;NY;Japanese;$$;NY;
Cho Cho San;Greenwich Village;;New York;NY;Japanese;;NY;
Cho Dang Gol;Midtown West;55 W 35th St;New York;NY;Korean;$;NY;
Chocolate Haven;W. Village;;New York;NY;Cafés & diners;;NY;
Choga;Greenwich Village;;New York;NY;Korean;;NY;
Chola Eclectic Indian Cuisine;Midtown East;232 E 58th St;New York;NY;Indian;$$;NY;
Chop Suey;Midtown West;;New York;NY;Korean;;NY;
Choshi Japanese Restaurant;Gramercy;;New York;NY;Japanese;;NY;
Chow Bar;Greenwich Village;77 Irving Pl;New York;NY;Japanese \ Asian: Pan-Asian;$$;NY;
Chow Bar;W. Village;230 W Fourth St;New York;NY;Asian \ Asian: Pan-Asian;$$;NY;
Churrascaria Plataforma;Midtown West;;New York;NY;South American \ Brazilian;$$$;NY;
Churrascaria Riodizio Tribeca;Tribeca;;New York;NY;Brazilian;;NY;
Churrascarria Plataforma;Tribeca;;New York;NY;Brazilian;;NY;
Ciaobella;Upper East Side;;New York;NY;Italian;;NY;
Ciaobella Ristorante Lounge;Upper East Side;;New York;NY;Italian;;NY;
Cibo;Midtown East;767 Second Avenue;New York;NY;American;$$$;NY;
Cilantro;Upper E. Side;1712 2nd Ave;New York;NY;Southwestern \ Mexican;$;NY;
Cinema Cafe On 34th;;505 3rd Ave;New York;NY;;;NY;
Cipolla Rossa;Upper East Side;1762 1st Ave btwn 91st and 92nd Sts;New York;NY;Italian;;NY;
Cipriani Le Specialita;Midtown East;;New York;NY;Italian;;NY;
Circus;Upper East Side;132 E 61st St;New York;NY;South American \ Brazilian;$$$;NY;
Citrus Bar & Grill;Upper W. Side;;New York;NY;Eclectic;;NY;
Citrus Bar & Grill;Upper West Side;320 Amsterdam Ave;New York;NY;Asian \ Eclectic;$$;NY;
Citrus Bar and Grill;Upper West Side;;New York;NY;Eclectic;;NY;
City Bakery;Flatiron/u. Sq.;3 W 18th St;New York;NY;American \ Cafés & diners;$;NY;
City Burger;Midtown West;1410 Broadway;New York;NY;American;$$;NY;
City Crab & Seafood Company;Gramercy / Flatiron;;New York;NY;Seafood;;NY;
City Girl Café;Soho;;New York;NY;Cafés & diners;;NY;
City Hall Restaurant;Tribeca;131 Duane St;New York;NY;Seafood \ American;$$$;NY;
City Hall the Restaurant;Tribeca;131 Duane St;New York;NY;Seafood;$$$;NY;
City Lobster and Crab Company;Midtown West;;New York;NY;Seafood;;NY;
Clinton St. Baking Co. & Restaurant;Lower East Side;;New York;NY;;;NY;
Clubhouse Cafe;Midtown West;155 West 46th St btwn 6th and 7th Aves;New York;NY;Kosher;;NY;
Co.;Chelsea;230 9th Ave btwn 24th and 25th Sts;New York;NY;Italian;;NY;
Coffee Shop;Union Square;29 Union Square West;New York;NY;American \ Cafés & diners;$;NY;
Col Legno Restaurant;E. Village;;New York;NY;Italian;;NY;
Colors;E. Village;417 Lafayette St;New York;NY;International \ Eclectic;$$$;NY;
Commerce;West Village;;New York;NY;American;;NY;
Commodities Natural Market;West Village;;New York;NY;Food or Beverage Shop;;NY;
Compass Restaurant - New York;Upper West Side;;New York;NY;American Creative;;NY;
Congee;Lower East Side;;New York;NY;Chinese;;NY;
Congee Bowery;Lower East Side;207 Bowery-At Rivington St;New York;NY;;;NY;
Congee Restaurant;Lower East Side;207 Bowery at Rivington St;New York;NY;Chinese;;NY;
Congee Village;Lower E. Side;;New York;NY;Chinese;;NY;
Congee Village;Lower East Side;100 Allen St-between Broome and Delancey Sts;New York;NY;Chinese;;NY;
Convivio;Midtown East;45 Tudor City Pl;New York;NY;Italian;$$$$$;NY;
Cookshop;Chelsea;156 10th Ave;New York;NY;American;$$$$;NY;
Copper Chimney;Gramercy;;New York;NY;Indian;;NY;
Coppola's Pizzeria Restaurant;Upper W. Side;206 W 79th St;New York;NY;Italian;$$;NY;
Core One Nine One (CLOSED);Lower East Side;;New York;NY;American Creative;;NY;
Corio;Soho;;New York;NY;Mediterranean;;NY;
Cork and Fin;Upper East Side;;New York;NY;Seafood;;NY;
Cornelia Street Cafe;Greenwich Village;29 Cornelia Street;New York;NY;American;$$$;NY;
Cornelia Street Café;Greenwich Village;;New York;NY;American;;NY;
Corner Bistro;W. Village;331 W 4th St;New York;NY;American;$;NY;
Corrado Bread & Pastry;Upper E. Side;;New York;NY;Food or Beverage Shop;;NY;
Corton;Tribeca;;New York;NY;French;;NY;
Cosette;Midtown East;163 E 33rd St btwn Lexington and Third...;New York;NY;French;;NY;
Cosette;Murray Hill/kips Bay;163 E 33rd St;New York;NY;French;$$;NY;
Counter;E. Village;105 First Ave;New York;NY;Vegetarian \ Vegetarian & Organic;$$;NY;
Country;Gramercy / Flatiron;;New York;NY;American \ American Creative;$$$$;NY;
Country Cafe;Soho;69 Thompson St-between Broome and Spring Sts;New York;NY;French;;NY;
Cowgirl Hall Of Fame;Greenwich Village;519 Hudson St at 10th St;New York;NY;American Regional;;NY;
Cowgirl Hall of Fame;W. Village;519 Hudson Street;New York;NY;Southwestern \ American Regional;$;NY;
Craft Restaurant;Union Square;43 E 19th St;New York;NY;American;$$$$$;NY;
Craftbar;Flatiron/u. Sq.;900 Broadway;New York;NY;American \ American Creative;$$$;NY;
Craftbar;Gramercy / Flatiron;;New York;NY;American Creative;;NY;
Crave Ceviche and Wine Bar (CLOSED);Midtown East;946 Second Ave-between 50thand 51st Sts;New York;NY;Peruvian;;NY;
Crave on 42nd Street;Midtown West;650 W 42nd St at 11th Ave;New York;NY;American;;NY;
Crema Restaurante;Chelsea;111 West 17th Street;New York;NY;Mexican;$$$;NY;
Creole;Harlem;2167 Third Ave;New York;NY;Creole-Cajun \ American Regional;$$;NY;
Crif Dogs;E. Village;;New York;NY;American;;NY;
Crisp;Midtown East;684 3rd Ave;New York;NY;Middle Eastern;$$;NY;
Crispo;Greenwich Village;240 W 14th St btwn 7th and 8th Aves;New York;NY;Italian;;NY;
Crispo;W. Village;240 W 14th St;New York;NY;Italian;$$$;NY;
Cru;Greenwich Village;24 Fifth Ave;New York;NY;Mediterranean \ American Creative;$$$$;NY;
Cru Restaurant;Greenwich Village;24 Fifth Ave;New York;NY;Mediterranean;$$$$;NY;
Cub Room Cafe;Soho;;New York;NY;American;;NY;
Cuba;Greenwich Village;222 Thompson Street;New York;NY;Cuban \ Caribbean: Cuban;$$;NY;
Cuba Cafe;Chelsea;200 Eighth Ave;New York;NY;Cuban \ Caribbean: Cuban;$;NY;
Cubana Cafe;Greenwich Village;110 Thompson St;New York;NY;Cuban \ Caribbean: Cuban;$;NY;
Cubana Cafe;Soho;;New York;NY;Caribbean: Cuban;;NY;
Cube 63;Lower East Side;63 Clinton St;New York;NY;Japanese;$$;NY;
Cucina Di Pesce;East Village;87 E 4th St;New York;NY;Italian;$;NY;
Curly's Vegetarian Lunch;East Village;;New York;NY;Vegetarian & Organic;;NY;
Curry Leaf;Gramercy;;New York;NY;Indian;;NY;
Curry-Ya;East Village;214 East 10th St btwn 1st and 2nd Aves;New York;NY;Japanese;;NY;
DB Bistro Moderne;Midtown West;;New York;NY;French;;NY;
Da Andrea (CLOSED);Greenwich Village;557 Hudson St btwn Perry and W 11th Sts;New York;NY;Italian;;NY;
Da Andrea (CLOSED);W. Village;557 Hudson St;New York;NY;Italian;$$;NY;
Da Antonio Ristorante;Midtown East;157 E 55th St;New York;NY;Italian;$$$$;NY;
Da Ciro;Murray Hill/kips Bay;229 Lexington Ave;New York;NY;Italian;$$;NY;
Da Nico Ristorante;Chinatown;;New York;NY;Italian;;NY;
Da Nico Ristorante;Chinatown/little Italy;164 Mulberry St.;New York;NY;Italian;$$;NY;
Da Silvano Bistecca;Greenwich Village;260 6th Avenue;New York;NY;Italian \ Steakhouses;$$$;NY;
Da Tommaso;Midtown West;;New York;NY;Italian;;NY;
Da Umberto;;107 West 17th Street;New York;NY;Italian;$$$;NY;
Daisy May's BBQ USA;Midtown West;;New York;NY;Barbeque;;NY;
Dakshin Indian Bistro;Upper East Side;;New York;NY;Indian;;NY;
Danal;East Village;90 E 10th St;New York;NY;French;$$;NY;
Daniel;Upper E. Side;60 E 65th St;New York;NY;French;$$$$$;NY;
Danku;Midtown West;;New York;NY;Eclectic;;NY;
Danube (CLOSED);Tribeca/soho;30 Hudson St;New York;NY;Austrian;$$$$$;NY;
Darbar Grill Fine Indian Cuisine;Midtown East;;New York;NY;Indian;;NY;
Dardanel Mediterranean & Seafood;Midtown East;1071 1st Ave btwn 58th and 59th Sts;New York;NY;Mediterranean;;NY;
Dardanel Mediterranean Seafood;Upper East Side;;New York;NY;Kosher;;NY;
Dash Dogs;Lower E. Side;;New York;NY;American;;NY;
Davidburke & Donatella;Upper East Side;133 E 61st St;New York;NY;American;$$$$;NY;
Dawat Haute Indian Cuisine;Midtown East;210 E 58th St;New York;NY;Indian;$$$;NY;
De Santos;Greenwich Village;139 W 10th St btwn 5th and 6th Aves;New York;NY;Italian;;NY;
Dean & Deluca Cafe;Midtown West;;New York;NY;Food or Beverage Shop;;NY;
Dean's;Midtown East;215 W 85th St-Btwn Bway & Amsterdam Ave;New York;NY;;;NY;
Deborah (CLOSED);Greenwich Village;43 Carmine St btwn Bedford and Bleecker...;New York;NY;American;;NY;
Deborah (CLOSED);W. Village;;New York;NY;American;;NY;
Deborah—Life Love Food;West Village;;New York;NY;American;;NY;
Degustation Wine & Tasting Bar;E. Village;;New York;NY;Spanish;;NY;
Degustation Wine & Tasting Bar;East Village;239 E Fifth St;New York;NY;Spanish;$$$;NY;
Del Frisco's Double Eagle Steakhouse;Midtown West;1221 Sixth Ave at 49th St;New York;NY;;;NY;
Del Posto;Chelsea;85 10th Ave;New York;NY;Italian;$$$$$;NY;
Del Posto Ristorante;Chelsea;85 10th Ave;New York;NY;Italian;$$$$$;NY;
Delicatessen;Soho;54 Prince St at Lafayette St;New York;NY;Eclectic;;NY;
Delicia Brazil;West Village;;New York;NY;Brazilian;;NY;
Delicia Brazil Restaurant;West Village;;New York;NY;Brazilian;;NY;
Delmonico's;Financial/battery Pk;56 Beaver Street;New York;NY;American;$$$$$;NY;
Delta Grill;Midtown West;700 Ninth Ave;New York;NY;Creole-Cajun \ American Regional;$$;NY;
Demarchelier Restaurant;Upper E. Side;;New York;NY;French;;NY;
Demarchelier Restaurant;Upper East Side;50 E. 86th St.;New York;NY;French;;NY;
Dervish Restaurant;Midtown West;146 West 47th Street;New York;NY;Middle Eastern;$$;NY;
Dervish Turkish;Midtown West;146 West 47th Street;New York;NY;Middle Eastern;$$;NY;
Desnuda;East Village;122 E 7th St;New York;NY;Seafood \ Eclectic;$$$;NY;
Devi;Flatiron/u. Sq.;8 E 18th St;New York;NY;Indian;$$$$;NY;
Diablo Royale;Greenwich Village;189 W 10th Street btwn W 4th and...;New York;NY;Mexican;;NY;
Diablo Royale;W. Village;;New York;NY;Mexican;;NY;
Dim Sum Go Go;Chinatown;5 E Broadway;New York;NY;Chinese;$;NY;
Dinosaur Bar-B-Que;Harlem;646 W 131st St;New York;NY;American \ Barbeque;$;NY;
Dirt Candy;East Village;;New York;NY;Vegetarian & Organic;;NY;
District;Midtown West;;New York;NY;American;;NY;
Ditch Plains;Greenwich Village;29 Bedford St at Downing St;New York;NY;Seafood;;NY;
Ditch Plains;W. Village;;New York;NY;Seafood;;NY;
Ditch Plains;West Village;29 Bedford St.;New York;NY;Seafood;;NY;
Diva Restaurant & Bar;Soho;;New York;NY;Italian;;NY;
Diwan Restaurant;Midtown East;;New York;NY;Indian;;NY;
Django (CLOSED);Midtown East;480 Lexington Avenue;New York;NY;French \ Mediterranean;$$$;NY;
Do Hwa;Greenwich Village;55 Carmine St;New York;NY;Korean;$$;NY;
Do Hwa;W. Village;;New York;NY;Korean;;NY;
DoSirak;Greenwich Village;30 E 13th St btwn Fifth Ave and...;New York;NY;Korean;;NY;
Docks Oyster Bar & Seafood Grill;Upper W. Side;;New York;NY;Seafood;;NY;
Dok Suni's;E. Village;;New York;NY;;;NY;
Dok Suni's;East Village;119 First Ave;New York;NY;Korean;$$;NY;
Dok Sunis Restaurant;East Village;119 First Ave;New York;NY;Korean;$$;NY;
Dolce Vita (CLOSED);;181 Grand Street;New York;NY;;;NY;
Dolce Vita (CLOSED);Soho;181 Grand St btwn Baxter and Mulberry...;New York;NY;;;NY;
Doma;West Village;;New York;NY;Cafés;;NY;
Don Pedro's;Upper East Side;1865 Second Ave;New York;NY;Caribbean;$$;NY;
Donguri;Upper E. Side;309 E 83rd St;New York;NY;Japanese;$$$;NY;
Donut Pub;Chelsea;;New York;NY;Cafés & diners;;NY;
Dos Caminos Park;Gramercy Park;373 Park Ave South;New York;NY;Mexican;$$;NY;
Dos Caminos Soho;Soho;475 West Broadway;New York;NY;Mexican;$$$;NY;
Double Crown;East Village;;New York;NY;Australian & New Zealand;;NY;
Doughnut Plant;Lower E. Side;;New York;NY;Cafés & diners;;NY;
Dovetail;Upper West Side;;New York;NY;American;;NY;
Downtown Cipriani;Soho;376 West Broadway-between Broome and Spring Sts;New York;NY;Italian;;NY;
Doyers Vietnamese Restaurant;Chinatown;11-13 Doyers St;New York;NY;Asian \ Vietnamese;$;NY;
Druids;Midtown West;;New York;NY;American;;NY;
Duane Park Cafe;Tribeca;157 Duane St;New York;NY;American \ American Regional;$$$;NY;
Ducale;Upper West Side;392 Columbus Ave-at 79th St;New York;NY;Italian;;NY;
Dumpling Man;East Village;;New York;NY;Asian: Pan-Asian;;NY;
Dylan Prime;Tribeca;62 Laight St;New York;NY;Steakhouse \ Steakhouses;$$$$$;NY;
Dylan's Candy Bar;Upper East Side;;New York;NY;Food or Beverage Shop;;NY;
E.A.T.;Upper E. Side;1064 Madison Avenue;New York;NY;American;$$;NY;
EN Japanese Brasserie;Greenwich Village;435 Hudson St at Leroy St;New York;NY;Japanese;;NY;
EN Japanese Brasserie;West Village;;New York;NY;Japanese;;NY;
Earth NYC;Chelsea;;New York;NY;Indian;;NY;
Earthen Oven;Upper West Side;;New York;NY;Indian;;NY;
East Boat Restaurant Inc;Chinatown;;New York;NY;Seafood;;NY;
East Of Eighth;;254 West 23rd St;New York;NY;;;NY;
East of Eighth Restaurant;Chelsea;;New York;NY;American;;NY;
Eat-pisode;Lower East Side;;New York;NY;Thai;;NY;
Eatery;Midtown West;798 9th Ave;New York;NY;American \ Eclectic;$;NY;
Egg Custard King Two Cafe;Chinatown;;New York;NY;Australian & New Zealand;;NY;
Eight Mile Creek;Little Italy;240 Mulberry St;New York;NY;Australian \ Australian & New Zealand;$$;NY;
El Castillo De Jagua Restaurant;Lower E. Side;;New York;NY;Caribbean: Dominican;;NY;
El Centro;Midtown West;;New York;NY;Mexican;;NY;
El Charro Restaurant;Greenwich Village;4 Charles St;New York;NY;Spanish;$$$;NY;
El Cid (CLOSED);Chelsea;228 W 18th St-between Seventh and Eighth Aves;New York;NY;Latin American: Venezuelan;;NY;
El Cocotero;Chelsea;;New York;NY;Latin American: Venezuelan;;NY;
El Faro Restaurant;W. Village;823 Greenwich St;New York;NY;Spanish;$$;NY;
El Maguey y La Tuna;Lower East Side;;New York;NY;Mexican;;NY;
El Parador;Murray Hill;325 E 34th St;New York;NY;Mexican;$$;NY;
El Parador Cafe;Midtown East;;New York;NY;Mexican;;NY;
El Parador Cafe Inc;Midtown East;;New York;NY;Mexican;;NY;
El Parador Cafe Inc;Murray Hill;325 E 34th St;New York;NY;Mexican;$$;NY;
El Paso;Greenwich Village;134 W Houston St btwn MacDougal and...;New York;NY;Mexican;;NY;
El Paso Taqueria;Upper East Side;1642 Lexington Ave btwn 103rd and 104th...;New York;NY;Mexican;;NY;
El Pote Espanol Restaurant;Murray Hill;718 2nd Ave;New York;NY;Spanish;$$;NY;
El Quijote Bar & Restaurant Inc;Chelsea;;New York;NY;Spanish;;NY;
El Quinto Pino;Chelsea;;New York;NY;Spanish;;NY;
El Rey del Sol;East Village;;New York;NY;Mexican;;NY;
El Rey del Sol;Greenwich Village;232 W 14th St btwn Seventh and Eighth...;New York;NY;Mexican;;NY;
El Rio Grande;Midtown East;160 East 38th Street;New York;NY;Southwestern;$$$;NY;
Elaine's;Upper East Side;1703 Second Ave;New York;NY;American \ Italian;$$$;NY;
Elaine’s;Upper East Side;1703 Second Ave;New York;NY;American \ Italian;$$$;NY;
Elard Corp;Upper East Side;1703 Second Ave;New York;NY;American;$$$;NY;
Elephant & Castle;W. Village;;New York;NY;American;;NY;
Elephant & Castle;West Village;The, 58 E First St;New York;NY;French \ American;$$;NY;
Elephant and Castle;Greenwich Village;68 Greenwich Ave btwn Sixth Ave and...;New York;NY;Eclectic;;NY;
Elettaria;Greenwich Village;33 W 8th St at MacDougal St;New York;NY;Eclectic;;NY;
Eleven Madison Park;Gramercy / Flatiron;11 Madison Ave;New York;NY;American \ American Creative;$$$$$;NY;
Elmo;Chelsea;156 Seventh Ave;New York;NY;American;$$;NY;
Elyssa Dido;Lower East Side;85 Orchard St at Broome St;New York;NY;Middle Eastern;;NY;
Empanada Mama;Midtown West;;New York;NY;Latin American;;NY;
Empire Diner;Chelsea;;New York;NY;Cafés & diners;;NY;
Employees Only;Greenwich Village;510 Hudson St btwn Christopher and West...;New York;NY;American Creative;;NY;
Employees Only;West Village;510 Hudson St;New York;NY;European \ American Creative;$$$;NY;
En Japanese Brasserie;W. Village;435 Hudson St;New York;NY;Japanese;$$$;NY;
Energy Kitchen;Midtown West;;New York;NY;American;;NY;
Ennio & Michael Ristorante;Greenwich Village;539 La Guardia Pl btwn Bleecker and W...;New York;NY;;;NY;
Epicerie Cafe Charbon;East Village;170 Orchard St;New York;NY;French;$$;NY;
Epicerie Cafe Charbon;Lower E. Side;;New York;NY;French;;NY;
Epices Du Traiteur;Upper West Side;103 W 70th St;New York;NY;Mediterranean;$$;NY;
Epices Inc;Upper West Side;103 W 70th St;New York;NY;Mediterranean;$$;NY;
Epices du Traiteur;Upper W. Side;;New York;NY;Mediterranean;;NY;
Epices du Traiteur;Upper West Side;103 W 70th St;New York;NY;Mediterranean;$$;NY;
Erminia Italian Restaurant;Upper E. Side;250 E 83rd St;New York;NY;Italian;$$$;NY;
Erminia Ristorante;Upper East Side;;New York;NY;Italian;;NY;
Esashi Japanese Restaurant Corp;East Village;;New York;NY;Japanese;;NY;
Esca;Midtown West;402 W 43rd St;New York;NY;Italian;$$$$;NY;
Esperanto;E. Village;;New York;NY;Latin American;;NY;
Esperanto Cafe;West Village;145 Ave C;New York;NY;Nuevo Latino \ Latin American;$$;NY;
Essex Restaurant;Lower East Side;120 Essex St;New York;NY;American \ Eclectic;$;NY;
Estancia 460;Midtown West;460 Greenwich St;New York;NY;Argentinean \ Argentine;$$;NY;
Estancia 460;Tribeca;;New York;NY;Argentine;;NY;
Estiatorio Milos Restaurant;Midtown West;125 West 55th Street;New York;NY;Greek;$$$$;NY;
Etats Unis Restaurant;Upper E. Side;242 E 81st St;New York;NY;American \ American Creative;$$$;NY;
Etcetera Etcetera;Midtown West;;New York;NY;Mediterranean;;NY;
Etcetera Etcetera;Theater District;352 W 44th St;New York;NY;Italian \ Mediterranean;$;NY;
Ethiopian Restaurant;Upper East Side;The, 1582 York Ave;New York;NY;African \ African: Ethiopian;$;NY;
Ethos;Midtown East;495 Third Ave btwn 33rd and 34th Sts;New York;NY;Greek;;NY;
Etrusca;Midtown West;;New York;NY;Italian;;NY;
Eva's Health Food;;11 W. 8th Street;New York;NY;;;NY;
Evergreen Shanghai;Midtown East;10 E 38th St-between Fifth and Madison Aves;New York;NY;Chinese;;NY;
Excellent Pork Chop House;Chinatown;;New York;NY;Chinese;;NY;
Extra Virgin;W. Village;259 W 4th St;New York;NY;Mediterranean;$$;NY;
F&B;Chelsea;;New York;NY;Belgian;;NY;
F. Illi Ponte Ristorante;Tribeca;;New York;NY;Italian;;NY;
FR.OG;Soho;71 Spring Street;New York;NY;French;$$$;NY;
Fabio Piccolo Fiore;Midtown East;230 E 44th St at Second Ave;New York;NY;Eclectic;;NY;
Fagiolini Restaurant Inc;Murray Hill;;New York;NY;;;NY;
Fairway Cafe and Steakhouse;Upper West Side;;New York;NY;American;;NY;
Falai;Lower E. Side;;New York;NY;Cafés & diners;;NY;
Falai Panetteria;Lower E. Side;;New York;NY;Cafés & diners;;NY;
Falai Panetteria;Lower East Side;68 Clinton St;New York;NY;Italian \ Cafés & diners;$$$;NY;
Fanelli's Cafe;Soho;;New York;NY;American;;NY;
Fat Hippo;;71 Clinto St.;New York;NY;;;NY;
Fatty Crab;Meatpacking District;643 Hudson Street;New York;NY;Indonesian \ Asian: Pan-Asian;$$;NY;
Felidia Ristorante Inc;Midtown East;243 East 58th Street;New York;NY;Italian;$$$$;NY;
Festival Mexicano Restaurant;Lower East Side;;New York;NY;Mexican;;NY;
Fiamma (CLOSED);Soho;;New York;NY;Italian;;NY;
Fiamma Osteria;Soho;206 Spring Street;New York;NY;Italian;$$$;NY;
Fig & Olive - Fifth Avenue;Midtown East;;New York;NY;Mediterranean;;NY;
Film Center Cafe;Midtown West;635 9th Avenue;New York;NY;American;$$;NY;
Fiorini;Midtown East;;New York;NY;Italian;;NY;
First Hungarian Literary Society;Upper East Side;;New York;NY;Eastern European;;NY;
Fish;Greenwich Village;280 Bleecker St;New York;NY;Seafood;$$;NY;
Fish;W. Village;;New York;NY;Seafood;;NY;
Fishtail by David Burke;Upper East Side;;New York;NY;American Creative;;NY;
Fitzer's;Midtown East;;New York;NY;British & Irish;;NY;
Fitzgerald Edibles;Midtown West;;New York;NY;British & Irish;;NY;
Five Points;E. Village;;New York;NY;American;;NY;
Five Points;Nolita;31 Great Jones Street;New York;NY;American;$$$;NY;
Fives;Midtown West;;New York;NY;American Creative;;NY;
Flea Market Cafe;E. Village;;New York;NY;French;;NY;
Fleur de Sel;Flatiron;5 E 20th St;New York;NY;French;$$$$$;NY;
Fleur de Sel;Gramercy / Flatiron;;New York;NY;French;;NY;
Flex Mussels;Upper East Side;;New York;NY;Eclectic;;NY;
Flor de Mayo;Upper West Side;;New York;NY;Latin American;;NY;
Flor de Sol Restaurant;Tribeca;;New York;NY;Spanish;;NY;
Florent (CLOSED);Meatpacking District;69 Gansevoort St;New York;NY;American \ French;$;NY;
Forge;Tribeca;134 Reade St;New York;NY;American;$$$$;NY;
Forlini's Restaurant;Chinatown;;New York;NY;;;NY;
Franchia;Midtown East;;New York;NY;Korean;;NY;
Franchia;Murray Hill;12 Park Ave;New York;NY;Korean;$$;NY;
Francisco's Centro Vasco;;159 W 23rd St;New York;NY;;;NY;
Francisco's Centro Vasco;Chelsea;;New York;NY;Seafood;;NY;
Frank;E. Village;;New York;NY;Italian;;NY;
Frank;East Village;88 Second Ave;New York;NY;Italian;$;NY;
Frankie & Johnnie's Steakhouse;Midtown West;32 W 37th St;New York;NY;Steakhouse \ Steakhouses;$$$;NY;
Frankie & Johnnie's Steakhouse - Manhattan;Midtown West;;New York;NY;Steakhouse \ Steakhouses;$$$;NY;
Frankie and Johnnie's Steakhouse;Midtown West;;New York;NY;Steakhouses;;NY;
Frankies 17 Clinton Street Spuntino;Lower East Side;;New York;NY;Italian;;NY;
Fraunces Tavern Restaurant;Financial District;;New York;NY;American;;NY;
Frederick's Bar & Lounge;Midtown West;8 West 58th Street;New York;NY;Asian;$$$;NY;
Frederick's Madison;Upper E. Side;768 Madison Ave;New York;NY;Mediterranean;$$$$;NY;
FreeFoods NYC;Midtown West;;New York;NY;Cafés & diners;;NY;
Freemans;Lower E. Side;;New York;NY;American;;NY;
Freemans;Lower East Side;Freeman Alley;New York;NY;American;$$;NY;
French Roast Cafe;Greenwich Village;2340 Broadway at 85th St;New York;NY;Cafés;;NY;
French Roast Cafe;Upper West Side;2340 Broadway;New York;NY;Breakfast \ Cafés;$;NY;
Fresco by Scotto Restaurant;Midtown East;;New York;NY;Italian;;NY;
Fresh;Tribeca/soho;105 Reade St;New York;NY;Seafood;$$$;NY;
Friedman's Lunch;Chelsea;;New York;NY;American;;NY;
Friend House 2;East Village;;New York;NY;Thai;;NY;
Friend of a Farmer;Gramercy;77 Irving Pl;New York;NY;American;$;NY;
Fuleen Seafood Restaurant;Chinatown;;New York;NY;Chinese;;NY;
Fulton;Upper East Side;;New York;NY;Seafood;;NY;
Funayama;West Village;;New York;NY;Japanese;;NY;
Funky Diner (CLOSED);Upper West Side;466 Columbus Ave.;New York;NY;American;$;NY;
Gaam;Midtown West;;New York;NY;Indian;;NY;
Gabriel's Bar And Restaurant;Upper W. Side;11 W 60th St;New York;NY;Italian;$$$;NY;
Gabriela's;Upper W. Side;;New York;NY;Mexican;;NY;
Gabriela's Restaurante y Tequila Bar;Upper West Side;688 Columbus Avenue;New York;NY;Mexican \ Italian;$$;NY;
Gaby Restaurant;Midtown West;;New York;NY;French;;NY;
Galanga;Greenwich Village;;New York;NY;Thai;;NY;
Gallagher's Steakhouse;Midtown West;228 W 52nd St;New York;NY;Steakhouse \ Steakhouses;$$$$;NY;
Gallo Nero;Midtown West;228 W 52nd St;New York;NY;Steakhouse \ Italian;$$$$;NY;
Garden Court Cafe;Upper East Side;725 Park Ave-Btwn 70th & 71st St;New York;NY;;;NY;
Gari;Upper W. Side;;New York;NY;Japanese;;NY;
Garlic Bob's Brick Oven Pizza;Upper W. Side;;New York;NY;Japanese;;NY;
Gascogne;Chelsea;158 8th Avenue;New York;NY;French;$$$;NY;
Gavroche;West Village;212 W 14th St;New York;NY;French;$$$;NY;
Gazala's Place;Midtown West;709 Ninth Ave at 49th St;New York;NY;Middle Eastern;;NY;
Geisha Restaurant;Upper E. Side;33 E 61st St;New York;NY;Japanese \ Asian: Pan-Asian;$$$$;NY;
Gemma;East Village;;New York;NY;Italian;;NY;
Gena's Grill;East Village;;New York;NY;Italian;;NY;
Gennaro Restaurant;Upper W. Side;665 Amsterdam Ave;New York;NY;Italian;$$;NY;
George O'Neill's;Midtown East;;New York;NY;Steakhouses;;NY;
Georgia's Eastside BBQ;Lower East Side;;New York;NY;Barbeque;;NY;
Ghenet Restaurant;Nolita;284 Mulberry St;New York;NY;African \ African: Ethiopian;$;NY;
Giano;East Village;;New York;NY;Italian;;NY;
Gigino Restaurant;Tribeca;;New York;NY;Italian;;NY;
Gigino at Wagner Park;Financial/battery Pk;;New York;NY;Italian;;NY;
Gilt;Midtown East;;New York;NY;Eclectic;;NY;
Ginger (CLOSED);Harlem;;New York;NY;Chinese;;NY;
Ginger (CLOSED);Upper East Side;1400 Fifth Ave;New York;NY;Chinese;$;NY;
Gino;Upper E. Side;;New York;NY;Italian;;NY;
Giorgione;Soho;;New York;NY;Italian;;NY;
Giorgione 508;Soho;;New York;NY;Italian;;NY;
Girasole Restaurant;Upper E. Side;;New York;NY;Italian;;NY;
Gnocco Cucina and Tradizione;East Village;337 E 10th St-between Aves A and B;New York;NY;Italian;;NY;
Gobo - Upper East Side;Upper East Side;;New York;NY;Vegetarian & Organic;;NY;
Gold St.;Financial/battery Pk;;New York;NY;Cafés & diners;;NY;
Golden Unicorn;Chinatown/little Italy;18 E Broadway;New York;NY;Chinese;;NY;
Gonzalez Y Gonzalez;Soho;625 Broadway;New York;NY;Mexican;$$$;NY;
Gonzo;W. Village;;New York;NY;Italian;;NY;
Good;West Village;89 Greenwich St;New York;NY;American;$$;NY;
Good Enough To Eat;Upper W. Side;;New York;NY;American;;NY;
Good Enough to Eat;Upper West Side;483 West Amsterdam Avenue;New York;NY;American;$;NY;
Good Stuff Diner;West Village;;New York;NY;Cafés & diners;;NY;
Good World Bar and Grill;Lower E. Side;;New York;NY;Eclectic;;NY;
Goodburger;Midtown East;;New York;NY;American;;NY;
Goodies;Chinatown;1 E Broadway;New York;NY;Chinese;$;NY;
Gordon Ramsay at The London;Midtown West;;New York;NY;Eclectic;;NY;
Gotham Bar and Grill;Greenwich Village;12 E 12th St;New York;NY;American \ American Creative;$$$$;NY;
Gottino;West Village;;New York;NY;Italian;;NY;
Grace's Trattoria;Upper E. Side;201 E 71st St;New York;NY;Italian;$$$;NY;
Gradisca;Greenwich Village;126 W 13th St btwn Sixth and Seventh...;New York;NY;Italian;;NY;
Gradisca;W. Village;;New York;NY;Italian;;NY;
Graffiti;East Village;;New York;NY;Eclectic;;NY;
Gramercy Tavern Corp;Gramercy / Flatiron;;New York;NY;American Creative;;NY;
Gramercy Tavern Corp;Union Square;42 E 20th St;New York;NY;American \ American Creative;$$$$;NY;
Grand Central Oyster Bar & Restaurant;Midtown East;89 E 42nd Street, Grand Central Terminal (Lower L;New York;NY;Seafood;$$;NY;
Grand Sichuan;Chinatown;;New York;NY;Chinese;;NY;
Grand Tier Restaurant;Upper West Side;;New York;NY;Cafés;;NY;
Grano Trattoria;Greenwich Village;21 Greenwich Ave at 10th St;New York;NY;Italian;;NY;
Grano Trattoria;W. Village;;New York;NY;Italian;;NY;
Gray's Papaya;Hell's Kitchen;539 8th Avenue;New York;NY;Fast Food;$;NY;
Great Jones Cafe;E. Village;;New York;NY;American Regional;;NY;
Great Jones Cafe;Nolita;54 Great Jones St;New York;NY;Southern \ American Regional;$;NY;
Great N.Y. Noodle Town;Chinatown;28 Bowery;New York;NY;Chinese;$;NY;
Greenwich Grill & Sushi Azabu;Tribeca;428 Greenwich St;New York;NY;Californian \ Eclectic;$$$;NY;
Greenwich Steak & Burger (CLOSED);Tribeca;;New York;NY;Steakhouses;;NY;
Grifone;Midtown East;244 E 46th St;New York;NY;Italian;$$$;NY;
Grom;Upper West Side;;New York;NY;Italian;;NY;
Grotta Del Mare;Lower East Side;;New York;NY;Italian;;NY;
Grotto;Lower East Side;;New York;NY;Italian;;NY;
Grove St. Brasserie;W. Village;;New York;NY;;;NY;
Guantanamera;Midtown West;;New York;NY;Latin American;;NY;
Gusto Grilled Organics;West Village;;New York;NY;Argentine;;NY;
Gusto Ristorante e Bar Americano;W. Village;;New York;NY;Italian;;NY;
Gyu-Kaku - East Village;East Village;;New York;NY;Japanese;;NY;
Gyu-kaku;Midtown East;;New York;NY;Japanese;;NY;
HQ;;90 Thompson St;New York;NY;;;NY;
HQ (CLOSED);Soho;90 Thompson St;New York;NY;American;;NY;
Hacienda de Argentina;Upper E. Side;;New York;NY;Argentine;;NY;
Hakata Tonton;West Village;;New York;NY;Japanese;;NY;
Haku Sushi;Upper West Side;;New York;NY;Japanese;;NY;
Hallo Berlin;Midtown West;;New York;NY;German;;NY;
Hampton Chutney Co.;Upper West Side;;New York;NY;Indian;;NY;
Han Bat;Midtown West;;New York;NY;Korean;;NY;
Hangawi;Murray Hill;12 E 32nd Street;New York;NY;Korean;$$$;NY;
Harlem Fried Chicken;Harlem;;New York;NY;American Regional;;NY;
Harry Cipriani;Midtown East;;New York;NY;Italian;;NY;
Harry’s Steak & Cafe;Financial/battery Pk;;New York;NY;Steakhouses;;NY;
Haru;Upper E. Side;433 Amsterdam Ave;New York;NY;Japanese;$$;NY;
Haru;Upper East Side;;New York;NY;Japanese;;NY;
Haru Food Svc;Upper E. Side;433 Amsterdam Ave;New York;NY;Japanese;$$;NY;
Hasaki Restaurant;E. Village;;New York;NY;Japanese;;NY;
Hasaki Restaurant;East Village;210 E Ninth St;New York;NY;Sushi \ Japanese;$$;NY;
Hatsuhana Park;Midtown East;237 Park Ave;New York;NY;Sushi;$$$$;NY;
Havana Alma de Cuba;West Village;94 Christopher St;New York;NY;Cuban;$$;NY;
Havana New York;Midtown West;;New York;NY;Caribbean: Cuban;;NY;
Haveli Restaurant Inc;E. Village;100 Second Ave;New York;NY;Indian;$$;NY;
Hawaiian Tropic Zone (CLOSED);Midtown West;;New York;NY;American Creative;;NY;
Hea;East Village;145 E. 13th St.;New York;NY;Pan-Asian \ Japanese;$$$;NY;
Heartbeat;Midtown West;;New York;NY;Vegetarian & Organic;;NY;
Heartbeat at W New York;Midtown East;;New York;NY;Vegetarian & Organic;;NY;
Hearth;E. Village;403 E 12th St;New York;NY;American;$$$$;NY;
Hedeh;E. Village;;New York;NY;Japanese;;NY;
Hedeh;Nolita;57 Great Jones St;New York;NY;Sushi \ Japanese;$$$;NY;
Heidelberg Restaurant;Upper E. Side;;New York;NY;German;;NY;
Heidelberg Restaurant;Upper East Side;1648 2nd Ave;New York;NY;German;$$;NY;
Hi-Life Restaurant & Lounge;Upper East Side;;New York;NY;American;;NY;
Highline;Meatpacking District;835 Washington St;New York;NY;Asian \ Thai;$$;NY;
Hill Country Barbecue;Chelsea;30 W. 26th St.;New York;NY;Barbecue \ Barbeque;$$;NY;
Hiroko's Place;Soho;;New York;NY;;;NY;
Hispaniola;Harlem;839 W 181st St;New York;NY;Asian \ Caribbean;$$;NY;
Hoi An;Tribeca;;New York;NY;Vietnamese;;NY;
Holy Basil;E. Village;;New York;NY;Asian \ Thai;$;NY;
Holy Basil Thai Bar & Restaurant;E. Village;149 Second Ave;New York;NY;Asian;$;NY;
Home;Greenwich Village;20 Cornelia St;New York;NY;American;$$;NY;
Home;W. Village;;New York;NY;American;;NY;
Hop Kee;Chinatown;;New York;NY;Chinese;;NY;
Horus Kebab House;East Village;;New York;NY;Mediterranean;;NY;
Houston's;Midtown East;153 E 53rd St;New York;NY;American;$$;NY;
Hsf Restaurant;Chinatown;46 Bowery;New York;NY;Chinese;$;NY;
Hudson Cafeteria;Midtown West;;New York;NY;American;$$$;NY;
Hudson River Cafe;Harlem;697 West 133rd ST.;New York;NY;American;$$;NY;
Hunan Park Restaurant;;235 Columbus Ave;New York;NY;;;NY;
Hundred Acres;Soho;;New York;NY;American;;NY;
I Coppi;E. Village;432 E Ninth St;New York;NY;Italian;$$$;NY;
I Sodi;Greenwich Village;105 Christopher St;New York;NY;Italian;$$$;NY;
I Sodi;West Village;;New York;NY;Italian;;NY;
I Tre Merli;Soho;;New York;NY;Italian;;NY;
I Tre Merli Bistro;West Village;;New York;NY;Italian;;NY;
I Trulli;Gramercy Park;122 E 27th St;New York;NY;Italian;$$$;NY;
Icon;Midtown East;;New York;NY;American;$$$;NY;
Ideya;Soho;349 W Broadway;New York;NY;Caribbean \ Latin American;$$;NY;
Iguana;;240 W 54th St;New York;NY;;;NY;
Il Bagatto;E. Village;192 E Second St;New York;NY;Italian;$$;NY;
Il Bordello;Chelsea;191 Seventh Ave;New York;NY;Steakhouse \ Italian;$$$;NY;
Il Brigante;Financial/battery Pk;214 Front St.;New York;NY;Italian;$$;NY;
Il Buco Restaurant;Nolita;47 Bond St;New York;NY;Italian;$$$;NY;
Il Cantinori Restaurant Inc;Greenwich Village;32 East 10th St;New York;NY;Italian;$$$$;NY;
Il Corso;Midtown West;;New York;NY;Italian;;NY;
Il Gattopardo;Midtown West;33 W 54th St;New York;NY;Italian;$$$;NY;
Il Giglio;Financial/battery Pk;;New York;NY;Italian;;NY;
Il Giglio;Tribeca/soho;81 Warren St;New York;NY;Italian;$$$$;NY;
Il Laboratorio del Gelato;Lower East Side;95 Orchard St btwn Broome and Delancey...;New York;NY;Cafés & diners;;NY;
Il Mulino;Greenwich Village;86 W 3rd St;New York;NY;Italian;$$$$;NY;
Il Nido Restaurant;Midtown East;;New York;NY;Italian;;NY;
Il Pellicano;Midtown East;;New York;NY;Italian;;NY;
Il Postino;Midtown West;;New York;NY;Italian;;NY;
Il Vagabondo Restaurant;Midtown East;;New York;NY;Italian;;NY;
Il Valentino;Midtown East;;New York;NY;Italian;$$$;NY;
Il Valentino Inc;Midtown East;330 East 56th Street;New York;NY;Italian;$$$;NY;
In Padella;E. Village;;New York;NY;Italian;;NY;
Inagiku;Midtown East;;New York;NY;Sushi \ Japanese;$$$$;NY;
Inagiku Japanese Restaurant at the Waldo;Midtown East;111 East 49th Street;New York;NY;Sushi;$$$$;NY;
Indian Bread Co.;Greenwich Village;194 Bleecker St btwn Sixth Ave and...;New York;NY;Indian;;NY;
Indigo Indian Bistro;Midtown East;;New York;NY;Indian;;NY;
Indochine;E. Village;430 Lafayette St;New York;NY;French \ Vietnamese;$$$;NY;
Indochine;Greenwich Village;;New York;NY;Vietnamese;;NY;
Indus Valley;Upper West Side;2636 Broadway;New York;NY;Indian;$$;NY;
Industria Argentina;Tribeca;;New York;NY;Argentine;;NY;
Inside Park at St. Bart’s;Midtown East;109 E 50th St-at Park Ave;New York;NY;American;;NY;
Insieme;Midtown West;;New York;NY;Italian;$$$$;NY;
Ippudo NY;East Village;65 4th Ave;New York;NY;Japanese;$$$;NY;
Iron Sushi;Upper East Side;355 E 78th St btwn First and Second...;New York;NY;Japanese;;NY;
Isabella's Restaurant;Upper W. Side;359 Columbus Ave;New York;NY;American \ Mediterranean;$$;NY;
Ise Japanese Restaurant;Financial/battery Pk;;New York;NY;Japanese;;NY;
Ishikura Restaurant;East Village;;New York;NY;;;NY;
Island Burgers & Shakes;Midtown West;766 9th Ave;New York;NY;American;$;NY;
Island Burgers And Shakes;Midtown West;766 9th Ave;New York;NY;American;$;NY;
Islero;Midtown East;;New York;NY;Spanish;;NY;
It's a Dominican Thing (CLOSED);Chelsea;144 W 19th St;New York;NY;Caribbean;$;NY;
Ithaka;Upper E. Side;308 E 86th St;New York;NY;Greek;$$$;NY;
Itzocan Bistro;Upper East Side;1575 Lexington Avenue;New York;NY;Mexican;;NY;
Itzocan Cafe;East Village;;New York;NY;Mexican;;NY;
Ivo & Lulu;Soho;;New York;NY;French;;NY;
Izakaya Ten;Chelsea;;New York;NY;Japanese;;NY;
J.G. Melon;Upper E. Side;;New York;NY;American;;NY;
Jackson Hole Burgers;;232 E 64th St;New York;NY;;;NY;
Jack’s Luxury Oyster Bar;East Village;;New York;NY;Seafood;;NY;
Jacques Torres;Upper West Side;285 Amsterdam Ave-between 73rd and 74th Sts;New York;NY;Cafés & diners;;NY;
Jacques-Imo's;Upper West Side;366 Columbus Ave;New York;NY;Creole-Cajun;$$;NY;
Jacques’ Brasserie;Upper West Side;366 Columbus Ave;New York;NY;Creole-Cajun \ French;$$;NY;
Jaipur's Indian Cuisine;Midtown East;1007 2nd Avenue;New York;NY;Indian;$;NY;
Jane;Greenwich Village;100 W Houston St;New York;NY;American;$$$;NY;
Japonais;Gramercy;;New York;NY;Japanese;;NY;
Japonica Restaurant;Greenwich Village;100 University Pl;New York;NY;Sushi \ Japanese;$$$;NY;
Jarnac Restaurant;W. Village;328 W 12th St;New York;NY;French;$$$;NY;
Jean Claude Restaurant;Soho;137 Sullivan St;New York;NY;French;;NY;
Jean Georges;Upper W. Side;;New York;NY;French;$$$$$;NY;
Jean Georges Restaurant;Upper W. Side;1 Central Park W;New York;NY;French;$$$$$;NY;
Jeeb;Lower East Side;154 Orchard St-between Stanton and Rivington Sts;New York;NY;Thai;;NY;
Jekyll & Hyde Club;Greenwich Village;1409 Ave Of The Americas;New York;NY;American;$$;NY;
Jeollado;East Village;;New York;NY;Japanese;;NY;
Jerry's (CLOSED);Soho;101 Prince St;New York;NY;American;$$;NY;
Jewel Bako;E. Village;;New York;NY;Japanese;;NY;
Jewel Bako Makimono;E. Village;;New York;NY;Japanese;;NY;
Jewel Of India Restaurant;Midtown West;15 W 44th St;New York;NY;Indian;$$;NY;
Jezebel;Midtown West;630 Ninth Ave;New York;NY;Southern;$$$;NY;
Jiannetto's Pizza & Catering;Midtown East;;New York;NY;Italian: Pizza;;NY;
Jimmy's No. 43;East Village;;New York;NY;;;NY;
Jing Fong Restaurant;Chinatown;;New York;NY;Chinese;;NY;
Jo Jo Restaurant;Upper E. Side;160 E 64th St;New York;NY;French;$$$$;NY;
Joe Allen Restaurant;Midtown West;;New York;NY;American;;NY;
Joe Broadway Steak House;Midtown West;;New York;NY;American;;NY;
Joe's Pizza;Greenwich Village;7 Carmine St;New York;NY;Pizza;$;NY;
JoeDoe;East Village;45 East 1st St btwn 1st and 2nd Aves;New York;NY;American;;NY;
John's Of 12th Street;East Village;302 E 12th St;New York;NY;Italian;$$;NY;
Johnny Utah's;;25 W. 51st St.;New York;NY;;;NY;
Johnny Utah's;Midtown West;;New York;NY;American;;NY;
Jojo;Upper East Side;160 E 64th St btwn Lexington and 3rd...;New York;NY;;;NY;
Josephina;Upper West Side;;New York;NY;American;;NY;
Josie's;Upper W. Side;300 Amsterdam Avenue;New York;NY;International;$$;NY;
Juan Valdez Café;Midtown East;;New York;NY;Cafés;;NY;
Jubilee;Midtown East;;New York;NY;French;;NY;
Jules;E. Village;65 St Marks Pl;New York;NY;French \ American Regional;$$;NY;
Jules Bistro;E. Village;65 St Marks Pl;New York;NY;French;$$;NY;
Kabab Factory;Murray Hill;101 Lexington Avenue;New York;NY;Indian;$$;NY;
Kafana;East Village;116 Ave C btwn E 7th and 8th Sts;New York;NY;Eastern European;;NY;
Kai;Upper E. Side;822 Madison Ave;New York;NY;Japanese;$$$$;NY;
Kaijou;Financial District;21 South End Street;New York;NY;Japanese;$$;NY;
Kambi Ramen House;East Village;;New York;NY;Japanese;;NY;
Kampuchea Restaurant;Lower East Side;;New York;NY;Asian: Cambodian;;NY;
Kang Suh;Midtown West;1250 Broadway;New York;NY;Korean;$$;NY;
Kanoyama;East Village;175 Second Ave;New York;NY;Sushi \ Japanese;$$;NY;
Karen's on Astor;West Village;;New York;NY;;;NY;
Kasadela;E. Village;;New York;NY;Japanese;;NY;
Kashkaval;Midtown West;;New York;NY;Indian;;NY;
Kashmir;Midtown West;;New York;NY;Indian;;NY;
Kati Roll Company;West Village;;New York;NY;Vegetarian & Organic;;NY;
Katz's Deli;Lower E. Side;205 East Houston Street;New York;NY;Deli;$;NY;
Keens Steak House;Midtown West;72 W 36th St;New York;NY;Steakhouse \ Steakhouses;$$$;NY;
Kefi;Upper W. Side;222 W. 79th St.;New York;NY;Greek;$$$;NY;
Kefi (CLOSED);Upper W. Side;222 W. 79th St.;New York;NY;Greek;$$$;NY;
Kellari Taverna;Midtown West;19 W 44th St;New York;NY;Greek;$$;NY;
Kelley & Ping;Soho;127 Greene St;New York;NY;Asian;$;NY;
Kenka;East Village;;New York;NY;Japanese;;NY;
Khushie Indian Kitchen;Lower East Side;;New York;NY;;;NY;
Khyber Pass;E. Village;;New York;NY;Afghan;;NY;
Kin Khao;Soho;171 Spring Street;New York;NY;Asian \ Thai;$$;NY;
Kin Khao Restaurant;Soho;171 Spring Street;New York;NY;Asian;$$;NY;
King's Carriage House;Upper E. Side;251 E 82nd St;New York;NY;Continental;$$$;NY;
Kingswood;Greenwich Village;121 W 10th St btwn Greenwich and 6th...;New York;NY;Australian & New Zealand;;NY;
Kitaro Japanese Restaurant Inc;Upper E. Side;;New York;NY;Japanese;;NY;
Kitchen Club;Nolita;;New York;NY;;;NY;
Kittichai;Soho;;New York;NY;Thai;;NY;
Kión;East Village;;New York;NY;Eclectic;;NY;
Klee;Chelsea;200 9th Avenue;New York;NY;American \ Eclectic;$$$;NY;
Klong;East Village;7 St Marks Pl;New York;NY;Asian \ Thai;$;NY;
Knickerbocker Bar & Grill;Greenwich Village;33 University Pl;New York;NY;American;$$$;NY;
Knife + Fork Restaurant & Wine Bar;East Village;;New York;NY;Eclectic;;NY;
Ko Sushi;Upper East Side;;New York;NY;Japanese;;NY;
Kobe Club - New York;Midtown West;;New York;NY;Steakhouses;;NY;
Kobma Thai;West Village;;New York;NY;Japanese;;NY;
Koi;Midtown West;;New York;NY;Asian \ Japanese;$$$$;NY;
Koi - New York;Midtown West;;New York;NY;Japanese;;NY;
Kong Kee Food;Chinatown;;New York;NY;Chinese;;NY;
Korea Palace;Midtown East;;New York;NY;Korean;;NY;
Korean Temple Cuisine;East Village;;New York;NY;;;NY;
Kori;Tribeca;253 Church St;New York;NY;Korean;$$;NY;
Kr.space untitled;Midtown West;;New York;NY;Korean;;NY;
Krunch Pizza Bar;Midtown East;;New York;NY;Italian;;NY;
Kum Gang San;Midtown West;49 W 32nd St;New York;NY;Korean;$$;NY;
Kuma Inn;Lower E. Side;113 Ludlow St;New York;NY;Southeast Asian \ Asian: Pan-Asian;$$;NY;
Kura Sushi Japanese Restaurant;East Village;;New York;NY;Japanese;;NY;
Kuruma Zushi Restaurant;Midtown West;;New York;NY;Sushi \ Japanese;$$$$$;NY;
Kurve;East Village;;New York;NY;Asian: Pan-Asian;;NY;
Kushi-Q;Midtown East;;New York;NY;Japanese;;NY;
KushiQ;Midtown East;;New York;NY;Japanese;;NY;
Kyma;Midtown West;300 W 46th St;New York;NY;Greek;$$$;NY;
Kyo Ya;East Village;94 E 7th St;New York;NY;Japanese;$$$$;NY;
Kyotofu;Midtown West;;New York;NY;Cafés & diners;;NY;
L'Allegria;Theater;623 9th Ave;New York;NY;Italian;$$;NY;
L'Atelier de Joel Robuchon - Four Seasons Hotel New York;Midtown East;57 E. 57th Street;New York;NY;French;$$$$$;NY;
L'Ecole;Soho;462 Broadway;New York;NY;French;$$$;NY;
L'Entrecote (CLOSED);;1057 First Ave.;New York;NY;;;NY;
L'Impero;Midtown East;45 Tudor City Pl;New York;NY;Italian;$$$$;NY;
L.E.S. Sandwicherie;Lower East Side;;New York;NY;Cafés;;NY;
La Barra Cevicheria;Lower East Side;;New York;NY;Mexican;;NY;
La Belle Vie;Chelsea;184 Eighth Ave;New York;NY;French;$$;NY;
La Bergamote;Chelsea;169 Ninth Ave;New York;NY;French;$;NY;
La Boite en Boise;Upper W. Side;75 W 68th St;New York;NY;French;$$$;NY;
La Bonbonniere;West Village;;New York;NY;French;;NY;
La Bonne Soupe;Midtown West;;New York;NY;French;;NY;
La Bottega Caffe;Chelsea;;New York;NY;Italian;;NY;
La Carne Grill;Midtown East;;New York;NY;Kosher;;NY;
La Colombe Torrefaction;Tribeca;;New York;NY;Cafés & diners;;NY;
La Fonda Boricua;Upper East Side;;New York;NY;Caribbean: Puerto Rican;;NY;
La Fonda Del Sol;Midtown East;;New York;NY;Spanish;;NY;
La Gioconda;Midtown East;;New York;NY;Italian;;NY;
La Goulue (CLOSING APRIL 2009);Upper E. Side;;New York;NY;French;;NY;
La Grenouille Restaurant;Midtown West;3 E 52nd St;New York;NY;French;$$$$;NY;
La Grolla;;413 Amsterdam Ave;New York;NY;;;NY;
La Grolla Ristorante;;413 Amsterdam Ave;New York;NY;;;NY;
La Lanterna di Vittorio;Greenwich Village;129 MacDougal St btwn 3rd and 4th Sts;New York;NY;Italian: Pizza;;NY;
La Luncheonette-jean Francois;Chelsea;130 10th Ave;New York;NY;French;$$;NY;
La Masseria;Midtown West;;New York;NY;Italian;;NY;
La Mediterranee;Midtown East;;New York;NY;Italian;;NY;
La Mela Ristorante;Little Italy;167 Mulberry St;New York;NY;Italian;$$;NY;
La Paella East;E. Village;;New York;NY;Spanish;;NY;
La Paella East;East Village;214 E Ninth St;New York;NY;Spanish;$$;NY;
La Palapa;E. Village;;New York;NY;Mexican;;NY;
La Palapa;East Village;214 E Ninth St;New York;NY;Spanish \ Mexican;$$;NY;
La Palapa;Greenwich Village;77 St Marks Pl;New York;NY;Mexican;$$;NY;
La Palapa Cocina Mexicana;East Village;214 E Ninth St;New York;NY;Spanish \ Mexican;$$;NY;
La Palapa Cocina Mexicana;W. Village;;New York;NY;Mexican;;NY;
La Petite Auberge Inc;Gramercy;;New York;NY;French;;NY;
La Pizza Fresca;Flatiron/u. Sq.;;New York;NY;;;NY;
La Pizza Fresca Ristorante;Union Square;31 E 20th St;New York;NY;Italian;$$;NY;
La Rosita;Upper W. Side;;New York;NY;Caribbean;;NY;
La Rural;Upper West Side;;New York;NY;Argentine;;NY;
La Sirène;Soho;;New York;NY;French;;NY;
La Taza de Oro;Chelsea;96 Eighth Ave;New York;NY;Caribbean \ Caribbean: Puerto Rican;$;NY;
La Tour;;1319 3rd Ave.;New York;NY;French;$$$$;NY;
La Vela;Upper W. Side;373 Amsterdam Ave;New York;NY;Italian;$$;NY;
La Vineria;Midtown West;;New York;NY;Italian;;NY;
La Zarza;East Village;;New York;NY;Spanish;;NY;
Lan;E. Village;56 Third Ave;New York;NY;Sushi \ Japanese;$$;NY;
Lan Cafe;E. Village;56 Third Ave;New York;NY;Sushi \ Vietnamese;$$;NY;
Lan Japanese Restaurant;East Village;56 Third Ave;New York;NY;Sushi;$$;NY;
Land;;450 Amsterdam Ave;New York;NY;;;NY;
Land Northeast Thai;Upper East Side;1565 Second Avenue;New York;NY;Thai;;NY;
Land Northeast Thai;Upper W. Side;450 Amsterdam Ave;New York;NY;Thai;$$;NY;
Land Thai Kitchen;Upper W. Side;450 Amsterdam Ave;New York;NY;Thai;$$;NY;
Landmarc Restaurant;Gramercy Park;179 W Broadway;New York;NY;French;$$$;NY;
Landmark Tavern;Midtown West;;New York;NY;American;;NY;
Las Ramblas;W. Village;;New York;NY;Spanish;;NY;
Lassi;Greenwich Village;28 Greenwich Ave at Charles St;New York;NY;Indian;;NY;
Lassi;West Village;;New York;NY;Indian;;NY;
Lattanzi Ristorante;Midtown West;;New York;NY;Italian;;NY;
Lavagna;E. Village;;New York;NY;Italian;;NY;
Lavagna;East Village;545 E. Fifth St.;New York;NY;Italian;$$$;NY;
Lazzara's Pizza Cafe;Midtown West;221 W 38th St-Btwn 7th & 8th Ave;New York;NY;Italian: Pizza;;NY;
Le Bateau Ivre Inc;Midtown East;;New York;NY;French;;NY;
Le Bateau Ivre Inc;Midtown West;155 W 51st St;New York;NY;Seafood \ French;$$$$$;NY;
Le Beaujolais;Midtown West;155 W 51st St;New York;NY;Seafood \ French;$$$$$;NY;
Le Biarritz Restaurant;Midtown West;;New York;NY;French;;NY;
Le Bilboquet;Upper E. Side;25 E 63rd St;New York;NY;French;$$$;NY;
Le Boeuf A La Mode;Upper E. Side;539 E 81st St;New York;NY;French;$$$;NY;
Le Boeuf a la Mode;Upper East Side;539 E 81st St;New York;NY;French;$$$;NY;
Le Charlot;Upper East Side;19 E 69th St-between Madison and Park Aves;New York;NY;French;;NY;
Le Cirque;Midtown East;;New York;NY;French;;NY;
Le Croissant;Midtown West;;New York;NY;Vietnamese;;NY;
Le Gamin Café;West Village;522 Hudson St;New York;NY;French \ Cafés;$;NY;
Le Gigot;Greenwich Village;18 Cornelia St;New York;NY;French;$$$;NY;
Le Gigot;W. Village;;New York;NY;French;;NY;
Le Gigot;West Village;522 Hudson St;New York;NY;French;$;NY;
Le Jardin Bistro;Nolita;25 Cleveland Pl;New York;NY;French;$$$;NY;
Le Lupanar;Lower East Side;;New York;NY;French;;NY;
Le Marais;Midtown West;403 W 43rd Street;New York;NY;French \ Kosher;$$$;NY;
Le Miu;East Village;107 Ave. A;New York;NY;Sushi \ Japanese;$$$;NY;
Le Miu (CLOSED);East Village;;New York;NY;Japanese;;NY;
Le Monde;Harlem;2885 Broadway;New York;NY;French;$$;NY;
Le Monde;Upper West Side;2885 Broadway-between 112th and 113th Sts;New York;NY;French;;NY;
Le Pain Quotidien;Soho;50 W 72nd St btwn Central Park West and...;New York;NY;Belgian;;NY;
Le Pere Pinard;Lower E. Side;175 Ludlow St;New York;NY;French;$$;NY;
Le Père Pinard;Lower East Side;;New York;NY;French;;NY;
Le Périgord;Midtown East;;New York;NY;French;;NY;
Le Refuge;Upper E. Side;;New York;NY;French;;NY;
Le Singe Vert;Chelsea;;New York;NY;French;;NY;
Le Souk;E. Village;;New York;NY;Moroccan;;NY;
Le Souk;Midtown East;47 Ave B;New York;NY;African \ Moroccan;$$;NY;
Le Tableau (CLOSED);East Village;511 E 5th St btwn Aves A and B;New York;NY;French;;NY;
Le Veau d'Or;Upper East Side;;New York;NY;French;;NY;
Le Zie;Chelsea;172 Seventh Ave;New York;NY;Italian;$$;NY;
Lederhosen;W. Village;;New York;NY;German;;NY;
Leela Lounge & Restaurant;Greenwich Village;;New York;NY;Indian;;NY;
Les Enfants Terribles;Lower East Side;37 Canal St;New York;NY;African \ African: Pan-African;$$;NY;
Les Halles;Gramercy Park;411 Park Ave S;New York;NY;French;$$$;NY;
Levain Bakery;Upper W. Side;;New York;NY;Cafés;;NY;
Levana;Upper W. Side;;New York;NY;Kosher;;NY;
Lever House Restaurant;Midtown East;;New York;NY;American;;NY;
Lexington Candy Shop;Upper East Side;;New York;NY;Cafés & diners;;NY;
Li Hua;Chinatown;;New York;NY;Korean;;NY;
Life Cafe;E. Village;;New York;NY;American;;NY;
Lilys Restaurant And Bar;Midtown East;;New York;NY;Eclectic;;NY;
Lima's Taste;W. Village;122 Christopher St;New York;NY;South American \ Peruvian;$;NY;
Lime Leaf;Upper West Side;;New York;NY;Thai;;NY;
Lisca;Upper West Side;;New York;NY;Italian;;NY;
Little Giant;Lower E. Side;85 Orchard St;New York;NY;American \ Cafés & diners;$$$$;NY;
Little Havana Restaurant;W. Village;;New York;NY;Caribbean: Cuban;;NY;
Little Owl;West Village;90 Bedford Street;New York;NY;American;$$$;NY;
Lobster Place;Chelsea;;New York;NY;Seafood;;NY;
Lola;Soho;;New York;NY;French;;NY;
Lombardi's;Nolita;32 Spring St;New York;NY;Pizza \ Italian: Pizza;$;NY;
Lomito;Soho;300 Spring St;New York;NY;Argentinean \ Argentine;$$$;NY;
Lomito (CLOSED);Soho;;New York;NY;Argentine;;NY;
Londel's Supper Club;Harlem;2620 Frederick Douglas Blvd;New York;NY;Southern;$$;NY;
Loreley Restaurant & Biergaerten;Lower E. Side;;New York;NY;German;;NY;
Loreley Restaurant & Biergaerten;Lower East Side;7 Rivington St.;New York;NY;German;;NY;
Lorenzo and Maria's Kitchen;Upper E. Side;;New York;NY;Food or Beverage Shop;;NY;
Los Dados;Meatpacking District;;New York;NY;Mexican;;NY;
Los Dos Molinos;Gramercy;119 E 18th St;New York;NY;Southwestern \ American Regional;$$;NY;
Loside;Lower East Side;157 E Houston Street;New York;NY;American;$;NY;
Lowe's Caribbean Restaurant;Harlem;;New York;NY;;;NY;
Luca Lounge;E. Village;;New York;NY;Italian;;NY;
Lucien;E. Village;14 1st Ave;New York;NY;French;$$;NY;
Lucky Cheng's;E. Village;;New York;NY;Asian: Pan-Asian;;NY;
Lucky Strike;Soho;;New York;NY;French;;NY;
Lucy Latin Kitchen;Flatiron;35 E 18th St;New York;NY;Nuevo Latino \ Latin American;$$$;NY;
Lugo Caffe;Midtown West;;New York;NY;Italian;;NY;
Lugo Caffé;Midtown West;;New York;NY;Italian;;NY;
Luke's Bar and Grill;Upper E. Side;;New York;NY;American;;NY;
Lumi Restaurant;Upper E. Side;;New York;NY;Italian;;NY;
Lunetta;Gramercy / Flatiron;;New York;NY;Italian;;NY;
Lupa;Greenwich Village;170 Thompson St;New York;NY;Italian;$$$$;NY;
Lupe's East L.A. Kitchen;Soho;110 6th Ave-At Watts St;New York;NY;;;NY;
Lure Fishbar;Soho;;New York;NY;Seafood;;NY;
Lusardi's;Upper E. Side;1494 Second Ave;New York;NY;Italian;$$$$;NY;
Luxee;Lower East Side;;New York;NY;Japanese;;NY;
Luzia's;;429 Amsterdam Ave.;New York;NY;;;NY;
L’Artusi;West Village;;New York;NY;Italian;;NY;
M. Rohrs’ House of Fine Teas and Coffees;Upper East Side;;New York;NY;Cafés & diners;;NY;
Macao Trading Company;Tribeca;;New York;NY;Eclectic;;NY;
Macaron Cafe;Midtown West;16 W 36 St btwn Broadway and 7th Aves;New York;NY;French;;NY;
Macchiato Espresso Bar;Midtown East;;New York;NY;French;;NY;
Macelleria;Meatpacking District;48 Gansevoort St;New York;NY;Italian;$$$;NY;
Macondo;Lower East Side;157 E Houston St btwn Eldridge and...;New York;NY;Latin American;;NY;
Madaleine Mae (CLOSED);Upper West Side;461 Columbus Ave at 82nd St;New York;NY;American;;NY;
Madison & Vine;Midtown East;;New York;NY;American;;NY;
Madison Bistro;Murray Hill/kips Bay;238 Madison Ave;New York;NY;French;$$$;NY;
Madras Cafe;E. Village;;New York;NY;Indian;;NY;
Madras Mahal;Gramercy;;New York;NY;Indian;;NY;
Mai House;Tribeca;186 Franklin Street;New York;NY;Vietnamese;$$$;NY;
Maia;East Village;98 Ave B btwn 6th and 7th Sts;New York;NY;Turkish;;NY;
Maison;Midtown West;;New York;NY;French;;NY;
Malatesta Trattoria;W. Village;649 Washington St;New York;NY;Italian;$$;NY;
Maloney & Porcelli Restaurant;Midtown East;37 E 50th St;New York;NY;Steakhouse \ Steakhouses;$$$$;NY;
Maloney and Porcelli;Midtown East;37 E 50th St;New York;NY;Steakhouse;$$$$;NY;
Mama Mexico;Midtown East;2672 Broadway;New York;NY;Mexican;$$;NY;
Mama Mexico -;;214 E. 49th St.;New York;NY;;;NY;
Mama's Food Shop;E. Village;200 E Third St;New York;NY;American;$;NY;
Mamlouk;E. Village;211 East 4th St;New York;NY;Middle Eastern;$$$;NY;
Mamlouk Restaurant;E. Village;211 East 4th St;New York;NY;Middle Eastern;$$$;NY;
Mamoun's Falafel;Greenwich Village;;New York;NY;Middle Eastern;;NY;
Mamoun's Falafel Restaurant;Greenwich Village;119 MacDougal St.;New York;NY;Middle Eastern;;NY;
Mamá Mexico;Upper West Side;;New York;NY;Mexican;;NY;
Mana;Upper W. Side;;New York;NY;Vegetarian & Organic;;NY;
Mandarin Court;Chinatown;61 Mott St;New York;NY;Chinese;$;NY;
Mandoo Bar;Midtown West;2 W 32nd St;New York;NY;Korean;$;NY;
Mangez Avec Moi;Financial/battery Pk;;New York;NY;Vietnamese;;NY;
Mangia e Bevi;Midtown West;;New York;NY;Italian;;NY;
Mangiarini;Upper East Side;;New York;NY;Italian;;NY;
Manhattan Bistro Inc;Soho;129 Spring St;New York;NY;French;;NY;
Manhattan Heroes Corp;Chelsea;;New York;NY;;;NY;
Maoz Vegetarian;West Village;;New York;NY;Vegetarian & Organic;;NY;
Mara's Homemade;East Village;342 E Sixth St;New York;NY;Creole-Cajun \ Mexican;$$;NY;
Maracas Bar and Grill;West Village;;New York;NY;Mexican;;NY;
Mara’s Homemade;East Village;;New York;NY;American Regional;;NY;
Mardigras Pizza;Financial/battery Pk;;New York;NY;American Regional;;NY;
Mare;Chelsea;198 Eighth Ave;New York;NY;Seafood;$$;NY;
Maremma;East Village;;New York;NY;;;NY;
Maremma;West Village;228 W 10th St;New York;NY;Italian;$$$;NY;
Margon;Midtown West;;New York;NY;Caribbean;;NY;
Marinella Restaurant;Greenwich Village;49 Carmine St at Bedford St;New York;NY;Italian;;NY;
Marinella Restaurant;W. Village;;New York;NY;Italian;;NY;
MarkJoseph Steakhouse;Financial/battery Pk;261 Water St;New York;NY;Steakhouse \ Steakhouses;$$$$;NY;
Market Diner;Midtown West;;New York;NY;American;;NY;
Market Table;West Village;;New York;NY;American;;NY;
Markt;Chelsea;;New York;NY;Belgian;;NY;
Markt;Flatiron;676 6th Avenue;New York;NY;Belgian;$$$;NY;
Maroons (CLOSED);Chelsea;244 W 16th St;New York;NY;Southern \ Caribbean: Jamaican;$$;NY;
Marseille Restaurant;Midtown West;630 Ninth Ave;New York;NY;French;$$$;NY;
Maruzzella Ristorante;Upper East Side;;New York;NY;Italian;;NY;
Mary's Fish Camp;W. Village;64 Charles St;New York;NY;Seafood;$$;NY;
Mary’s Fish Camp;W. Village;;New York;NY;Seafood;;NY;
Mas;W. Village;;New York;NY;French;;NY;
Mas (Farmhouse);Greenwich Village;39 Downing St;New York;NY;American;$$$$;NY;
Masala Bollywood;Gramercy;;New York;NY;Indian;;NY;
Massimo al Ponte Vecchio;Greenwich Village;;New York;NY;Italian;;NY;
Matador;West Village;;New York;NY;Spanish;;NY;
Match 65;Upper East Side;65 0(fka Paris Match)29 E 65th St-;New York;NY;;;NY;
Matilda;East Village;;New York;NY;Eclectic;;NY;
Matsugen;Tribeca;;New York;NY;Japanese;;NY;
Matsuri;Chelsea;;New York;NY;Japanese;;NY;
MauiWowi Hawaiian Coffees & Smoothies;Upper E. Side;;New York;NY;Food or Beverage Shop;;NY;
Max;E. Village;1274 Amsterdam Ave;New York;NY;Italian;$;NY;
Maya;Midtown East;1191 First Avenue;New York;NY;Mexican;$$$$;NY;
Maya;Upper E. Side;;New York;NY;Mexican;;NY;
Maya - New York;Upper East Side;;New York;NY;Mexican;;NY;
Maz Mezcal Mexican Restaurant;Upper E. Side;;New York;NY;Mexican;;NY;
Maze;Midtown West;;New York;NY;Eclectic;;NY;
McCormick & Schmick's Seafood - New York;Midtown West;;New York;NY;Seafood;;NY;
Meade's;Financial/battery Pk;;New York;NY;Seafood;;NY;
Medina;Chelsea;;New York;NY;Moroccan;;NY;
Mediterranean;Upper E. Side;1260 Second Ave;New York;NY;Italian;$$;NY;
Megu;Tribeca;62 Thomas St;New York;NY;Japanese;$$$$$;NY;
Melba’s;Harlem;;New York;NY;American Regional;;NY;
Meltemi;Midtown East;905 First Ave;New York;NY;Greek;$$$;NY;
Mercadito;E. Village;;New York;NY;Mexican;;NY;
Mercadito;West Village;179 Ave B;New York;NY;Mexican;$$;NY;
Mercadito Cantina;East Village;100 Seventh Ave South-at Grove St;New York;NY;Mexican;;NY;
Mercadito Grove;Greenwich Village;100 Seventh Ave So at Grove St;New York;NY;Mexican;;NY;
Mercadito Grove;W. Village;100 Seventh Ave S;New York;NY;Mexican;$$;NY;
Mercat;East Village;100 Seventh Ave S;New York;NY;Mexican \ Spanish;$$;NY;
Mercer Kitchen;Soho;45 Bond Street;New York;NY;Spanish;$$$$;NY;
Merkato 55;Meatpacking District;;New York;NY;African: Pan-African;;NY;
Mesa Grill Restaurant;Flatiron;102 5th Ave;New York;NY;Southwestern \ American Regional;$$$$;NY;
Mesa Grill Restaurant;Gramercy / Flatiron;;New York;NY;American Regional;;NY;
Meskel Ethiopian Restaurant;E. Village;;New York;NY;African: Ethiopian;;NY;
Meskerem;;468 W. 47th St.;New York;NY;Ethiopian;;NY;
Metisse;Upper W. Side;239 W 105th St;New York;NY;French;$$$;NY;
Metisse French Bistro;Upper West Side;239 W 105th St;New York;NY;French;$$$;NY;
Metrazur;Midtown East;404 Grand Central Terminal at Park Ave;New York;NY;;;NY;
Metro Marche;Midtown West;;New York;NY;French;;NY;
Metsovo (CLOSED);Upper West Side;65 W 70th St at Columbus Ave;New York;NY;;;NY;
Mexicana Mama;W. Village;525 Hudson St;New York;NY;Mexican;$$;NY;
Mezzaluna;Upper E. Side;1295 3rd Ave;New York;NY;American \ Italian;$$;NY;
Mezzogiorno;Soho;;New York;NY;Italian;;NY;
Mi Cocina (CLOSED);W. Village;57 Jane St;New York;NY;Mexican;$$$;NY;
Michael's Pub At The Park — Lombardy Hotel;Midtown East;24 W 55th St;New York;NY;Californian;$$$$;NY;
Michaels Restaurant;Midtown West;;New York;NY;American;;NY;
Mickey Mantle's;Midtown West;42 Central Park South;New York;NY;American;$$$;NY;
Mickey Mantle's Restaurant;Midtown West;42 Central Park South;New York;NY;American;$$$;NY;
Mill Korean;Harlem;2895 Broadway;New York;NY;Korean;$;NY;
Minca;East Village;536 E 5th St-between Aves A and B;New York;NY;Asian: Pan-Asian;;NY;
Minetta Tavern;Greenwich Village;113 Macdougal Street;New York;NY;Italian \ Eclectic;$$$;NY;
Mingala Burmese;Upper East Side;;New York;NY;Asian: Burmese;;NY;
Mint Restaurant;Midtown East;;New York;NY;Indian;;NY;
Miracle Bar & Grill (CLOSED);W. Village;415 Bleecker St;New York;NY;Southwestern;$$;NY;
Miracle Grill (CLOSED);E. Village;;New York;NY;American Regional;;NY;
Miracle Grill (CLOSED);West Village;415 Bleecker St;New York;NY;Southwestern \ American Regional;$$;NY;
Mishima;Midtown East;164 Lexington Ave btwn 30th and 31st Sts;New York;NY;Japanese;;NY;
Miss Maude's Spoonbread Too;Harlem;547 Lenox Ave;New York;NY;Southern \ American Regional;$;NY;
Mitchel London Foods;Midtown West;;New York;NY;Italian: Pizza;;NY;
Miyagi Japanese Restaurant;Greenwich Village;220 W 13th St btwn Seventh and...;New York;NY;Japanese;;NY;
Miyagi Japanese Restaurant;W. Village;;New York;NY;Japanese;;NY;
Mo Pitkin's (CLOSED);East Village;34 Ave A;New York;NY;Jewish;$$;NY;
Mobay Uptown Restaurant & Barbecue;Harlem;17 W 125th St;New York;NY;Caribbean;$;NY;
Moda;Midtown West;;New York;NY;Italian;;NY;
Mofongo Depot;Upper West Side;931 Amsterdam Ave;New York;NY;Nuevo Latino \ Caribbean;$$;NY;
Moksha;Financial/battery Pk;;New York;NY;Indian;;NY;
Molyvos Restaurant;Midtown West;871 7th Avenue;New York;NY;Greek;$$$;NY;
Momofuku Bakery and Milk Bar;East Village;;New York;NY;Japanese;;NY;
Momofuku Milk Bar and Bakery;E. Village;163 First Ave;New York;NY;Chinese;$$$$;NY;
Momofuku Noodle Bar;E. Village;;New York;NY;Japanese;;NY;
Momofuku Noodle Bar;East Village;163 First Ave;New York;NY;Chinese \ Korean;$$$$;NY;
Momofuku Ssam Bar;E. Village;;New York;NY;Korean;;NY;
Momofuku Ssam Bar;East Village;171 First Ave.;New York;NY;Chinese \ Korean;$$$;NY;
Momofuku Ssäm Bar;East Village;207 2nd Ave;New York;NY;Asian \ Korean;$$$;NY;
Momoya;Chelsea;;New York;NY;Japanese;;NY;
Mon Petit Cafe;Upper East Side;801 Lexington Ave;New York;NY;French;$$;NY;
Monkey Bar (Closed for renovations);Midtown East;;New York;NY;American \ Asian: Pan-Asian;$$$$;NY;
Monster Sushi;Midtown West;;New York;NY;Japanese;;NY;
Montebello Ristorante Italiano;Midtown East;120 E 56th St;New York;NY;Italian;$$$;NY;
Montien Thai Cuisine Mtc;E. Village;;New York;NY;Thai;;NY;
Montparnasse;Midtown East;;New York;NY;French;;NY;
Mooncake Foods;Soho;28 Watts St-between Sixth Ave and Thompson St;New York;NY;Asian: Pan-Asian;;NY;
Moondance Diner Inc;Soho;80 6th Ave;New York;NY;Cafés & diners;;NY;
Morandi;Greenwich Village;211 Waverly Place;New York;NY;Italian;$$$;NY;
Morandi;W. Village;;New York;NY;Italian;;NY;
Morimoto New York;Chelsea;88 10th Ave;New York;NY;Japanese;$$$$;NY;
Morning Star Restaurant;Midtown West;;New York;NY;Italian;;NY;
Morrell Wine Bar & Cafe;Midtown East;1 Rockefeller Plaza;New York;NY;American \ Italian;$$$;NY;
Morrell Wine Bar and Cafe;Midtown West;1 Rockefeller Plaza;New York;NY;American \ Italian;$$$;NY;
Morton's, The Steakhouse;Midtown West;551 5th Ave-At 45th St;New York;NY;;;NY;
Moustache;E. Village;;New York;NY;Middle Eastern;;NY;
Moustache;East Village;90 Bedford Street;New York;NY;Middle Eastern;$;NY;
Mr. Chow;Midtown East;324 E 57th St;New York;NY;Chinese;$$$$;NY;
Mr. Jones;Gramercy;;New York;NY;Eclectic;;NY;
Mrs Lee & Shabu Shabu Wok;West Village;121 University Pl;New York;NY;Asian;$;NY;
Mudspot;East Village;;New York;NY;Cafés & diners;;NY;
Mughlai;Upper W. Side;320 Columbus Ave;New York;NY;Indian;$$;NY;
Mustang Sallys Saloon;Chelsea;324 Seventh Avenue;New York;NY;American;$$;NY;
Muzzarella Pizza;East Village;;New York;NY;Italian: Pizza;;NY;
My Befana (CLOSED);Soho;116 West Houston St btwn Sullivan and...;New York;NY;Mediterranean;;NY;
Métisse French Bistro;Upper West Side;;New York;NY;French;;NY;
Naima;Chelsea;;New York;NY;Italian;;NY;
Naka Naka;Chelsea;;New York;NY;Japanese;;NY;
Nanoosh Mediterranean Hummus Bar;Upper West Side;;New York;NY;Middle Eastern;;NY;
Native;Harlem;;New York;NY;Caribbean;;NY;
Natori;East Village;;New York;NY;Japanese;;NY;
Natsumi;Midtown West;226 W 50th St btwn 8th Ave and Broadway;New York;NY;;;NY;
Nature Works Health Food;Midtown West;;New York;NY;Middle Eastern;;NY;
Naya Mezze and Grill;Midtown East;1057 Second Ave-between 55th and 56th Sts;New York;NY;Middle Eastern;;NY;
Nebraska Steak House;Wall Street;15 Stone St;New York;NY;Steakhouse;$$$$;NY;
Negril Village;Greenwich Village;70 W 3rd St btwn La Guardia Pl and...;New York;NY;Caribbean: Jamaican;;NY;
Nello's;Upper E. Side;;New York;NY;Italian;;NY;
Nelson Blue;Financial/battery Pk;233 Front Street;New York;NY;British \ Australian & New Zealand;$$;NY;
Neo Sushi;Upper West Side;2298 Broadway;New York;NY;Sushi;$$$$;NY;
Neptune Room;Upper W. Side;511 Amsterdam Ave;New York;NY;Seafood;$$$$;NY;
Nero D' Avola;Meatpacking District;46 Gansevoort St;New York;NY;Italian;$$$;NY;
New Bo Ky Restaurant;Chinatown;80 Bayard St;New York;NY;Asian \ Chinese;$;NY;
New Chao Chow Restaurant;Chinatown;;New York;NY;;;NY;
New Green Bo;Chinatown;;New York;NY;Previews;;NY;
New Pasteur Restaurant;Chinatown;;New York;NY;;;NY;
New Yeah Shanghai Deluxe;Chinatown;;New York;NY;Chinese;;NY;
New York Kom Tang Kal Bi House;Midtown West;;New York;NY;Korean;;NY;
New York Noodle Town;Chinatown;;New York;NY;Chinese;;NY;
New York Noodle Town;Soho;28 Bowery at Bayard Street;New York;NY;Asian \ Chinese;$;NY;
Nha Trang Centre;Chinatown;87 Baxter St;New York;NY;Asian \ Vietnamese;$;NY;
Nha Trang Restaurant;Chinatown;87 Baxter St;New York;NY;Asian;$;NY;
Nice;Chinatown;35 E Broadway;New York;NY;Chinese;$;NY;
Nice Matin;Upper W. Side;;New York;NY;French;;NY;
Nice Restaurant;Chinatown;;New York;NY;Chinese;;NY;
Nick & Toni's Café;Upper West Side;;New York;NY;Mediterranean;;NY;
Nick And Toni's Cafe;Upper W. Side;;New York;NY;Mediterranean;;NY;
Nick's;Upper East Side;1814 Second Ave;New York;NY;Italian;$;NY;
Nicky's Vietnamese Sandwiches;East Village;150 E 2nd St;New York;NY;American \ Vietnamese;$;NY;
Nicole's;Midtown East;10 East 60th Street;New York;NY;British;$$;NY;
Niko's Mediterranean Grill;Upper W. Side;2161 Broadway;New York;NY;Greek;$;NY;
Niko's Mediterranean Grill & Bistro;Upper W. Side;2161 Broadway;New York;NY;Greek;$;NY;
Niko's Mediterranean Grill and Bistro;Upper West Side;2161 Broadway;New York;NY;Greek;$;NY;
Nino's Bellissima Pizza;Midtown East;890 Second Ave.;New York;NY;Italian;$$$;NY;
Ninth Street Espresso;E. Village;;New York;NY;Cafés;;NY;
Nippon Restaurant;Midtown East;;New York;NY;Japanese;;NY;
Nirvana Indian Culinary Bliss;Midtown East;;New York;NY;Indian;;NY;
Nissho Japanese Restaurant;Midtown West;;New York;NY;Italian;;NY;
Nizza;Midtown West;;New York;NY;Italian;;NY;
Noah's Ark;Lower East Side;;New York;NY;Kosher;;NY;
Noble Food and Wine;Nolita;7 Spring Street;New York;NY;American;$$$;NY;
Nobu 57;Midtown West;;New York;NY;Japanese;;NY;
Nobu Fifty Seven;Midtown West;40 W 57th St;New York;NY;Japanese;$$$$$;NY;
Nobu Next Door;Tribeca;105 Hudson St;New York;NY;Sushi;$$$$;NY;
Nocello;Midtown West;257 West 55th St;New York;NY;Italian;$$$;NY;
Nocello;Theater;257 West 55th Street;New York;NY;Italian;$$$$;NY;
Noche Mexicana;Upper W. Side;;New York;NY;Mexican;;NY;
Nomad;E. Village;;New York;NY;African: Pan-African;;NY;
Nonna;Upper W. Side;;New York;NY;Italian;;NY;
Nonna;Upper West Side;520 Columbus Ave;New York;NY;Italian;;NY;
Nooch;Chelsea;;New York;NY;Thai;;NY;
Noodle Bar;West Village;;New York;NY;Chinese;;NY;
Noodle Bar Lower East Side;Greenwich Village;172 Orchard St at Stanton St;New York;NY;Asian: Pan-Asian;;NY;
Nook's Coffee Shop;Midtown West;;New York;NY;Eclectic;;NY;
Nori;East Village;;New York;NY;Japanese;;NY;
Norma's at Le Parker Meridien;Midtown West;118 West 57th Street;New York;NY;American;$$;NY;
North Square Restaurant and Lounge;Greenwich Village;;New York;NY;American \ American Creative;$$$$;NY;
Notaro Ristorante;Midtown East;;New York;NY;Italian;;NY;
Nougatine;;1 Central Park West;New York;NY;American;$$$$;NY;
Nougatine and Mistral Terrace;Upper West Side;;New York;NY;French;;NY;
Novecento;Soho;343 W Broadway;New York;NY;South American \ Argentine;$$$;NY;
Novecento New York;Soho;;New York;NY;Argentine;;NY;
Novitas Restaurant;Gramercy;102 E 22nd Street;New York;NY;Italian;$$$;NY;
Nyonya Cuisine Penang;Little Italy;194 Grand Street;New York;NY;Malaysian \ Asian: Malaysian;$;NY;
O Mai;Chelsea;;New York;NY;Vietnamese;;NY;
Obika Mozzarella Bar;Midtown East;;New York;NY;Italian;;NY;
Ocean Grill;Upper W. Side;384 Columbus Ave;New York;NY;Seafood;$$$;NY;
Ocean Grill New York;Upper West Side;;New York;NY;Seafood;;NY;
Oceana Restaurant;Midtown East;55 E 54th St;New York;NY;Seafood;$$$$;NY;
Odessa;E. Village;;New York;NY;Eastern European;;NY;
Odessa Café;E. Village;;New York;NY;Eastern European;;NY;
Oklahoma Smoke BBQ;Harlem;;New York;NY;Barbeque;;NY;
Olana;Gramercy / Flatiron;;New York;NY;Eclectic;;NY;
Old Devil Moon (CLOSED);E. Village;511 E 12th St;New York;NY;Southern \ American Regional;$;NY;
Old Devil Moon (CLOSED);East Village;;New York;NY;American Regional;;NY;
Old Homestead Restaurant;Meatpacking District;56 9th Ave;New York;NY;Steakhouse;$$$$;NY;
Old Homestead Restaurant Inc;Meatpacking District;56 9th Ave;New York;NY;Steakhouse;$$$$;NY;
Old Homestead Steak House;Chelsea;;New York;NY;Steakhouses;;NY;
Old San Juan;Midtown West;;New York;NY;Caribbean: Puerto Rican;;NY;
Oliva;Lower E. Side;161 East Houston Street;New York;NY;American \ Spanish;$$;NY;
Olives NY;Union Square;201 Park Ave S - W Hotel;New York;NY;Mediterranean;$$$;NY;
Olympic Restaurant;Midtown West;;New York;NY;Kosher;;NY;
Omen Restaurant;Soho;;New York;NY;Japanese;;NY;
Omido;Midtown West;;New York;NY;Japanese;;NY;
Once Upon A Tart . . .;Soho;135 Sullivan Street;New York;NY;American;$;NY;
One;Meatpacking District;1 Little West 12th St;New York;NY;American \ Eclectic;$$$;NY;
One If By Land, Two If By Sea;Greenwich Village;Two If by Sea, 17 Barrow St;New York;NY;American;$$$$;NY;
One if by Land, Two if by Sea;Greenwich Village;;New York;NY;Two if by Sea;;NY;
Onieal's Grand Street;Soho;174 Grand St;New York;NY;American;$$$;NY;
Ono;Meatpacking District;;New York;NY;Sushi \ Japanese;$$$$;NY;
Open the Sesame;Lower East Side;198A Orchard St.;New York;NY;Thai;$;NY;
Oriental Food Restaurant;Chinatown;14 Elizabeth St;New York;NY;Chinese;$;NY;
Oriental Garden;Chinatown;14 Elizabeth St;New York;NY;Chinese;$;NY;
Orologio Restaurant;E. Village;;New York;NY;Italian;;NY;
Orsay;Upper E. Side;;New York;NY;French;;NY;
Orso Restaurant;Midtown West;;New York;NY;Italian;;NY;
Osso Buco;E. Village;;New York;NY;Cafés & diners;;NY;
Osteria Gelsi;Midtown West;120 W 55th St;New York;NY;Italian;$$$$;NY;
Osteria Laguna;Midtown East;507 Ninth Ave;New York;NY;Italian;$$$;NY;
Osteria Laguna Restaurant;Midtown East;;New York;NY;Italian;;NY;
Osteria al Doge;Midtown West;;New York;NY;Italian;;NY;
Osteria del Circo;Midtown West;;New York;NY;Italian;;NY;
Osteria del Sole (CLOSED);W. Village;;New York;NY;Italian;;NY;
Ostia;Greenwich Village;113 Seventh Ave. S.;New York;NY;Small Plates \ Spanish;$$;NY;
Ostia;W. Village;;New York;NY;Spanish;;NY;
Otafuku;E. Village;;New York;NY;Japanese;;NY;
Otto Enoteca Pizzeria;Greenwich Village;1 Fifth Ave;New York;NY;Italian \ Italian: Pizza;$$$$;NY;
Otto Enoteca and Pizzeria;Greenwich Village;1 Fifth Ave;New York;NY;Italian \ Italian: Pizza;$$$$;NY;
Ouest;Upper W. Side;2315 Broadway;New York;NY;American \ American Creative;$$$$;NY;
Outback Steakhouse;Flatiron;60 W 23rd St;New York;NY;Steakhouse;$$;NY;
Ozu;Upper West Side;;New York;NY;Asian: Pan-Asian;;NY;
Ozu Restaurant;Upper W. Side;;New York;NY;Asian: Pan-Asian;;NY;
P.J. Clarke's;;915 Third Ave;New York;NY;;;NY;
PDT;East Village;113 St Marks Pl btwn First Ave and Ave A;New York;NY;;;NY;
Pacific Grill;Financial/battery Pk;;New York;NY;Seafood;;NY;
Padre Figlio;Midtown East;;New York;NY;Italian;;NY;
Paladar;Lower E. Side;161 Ludlow St;New York;NY;Nuevo Latino \ Latin American;$$;NY;
Palma;West Village;;New York;NY;Italian;;NY;
Palá;Lower East Side;;New York;NY;Italian: Pizza;;NY;
Pam Real Thai Encore;Midtown West;404 W 49th St;New York;NY;Asian \ Thai;$;NY;
Pam Real Thai Food;Midtown West;404 W 49th St;New York;NY;Asian \ Thai;$;NY;
Pampa;Upper West Side;768 Amsterdam Avenue;New York;NY;South American;$$;NY;
Pampano Restaurant;Midtown East;209 E 49th St;New York;NY;Mexican;$$$;NY;
Pampano Taqueria;Midtown East;209 E 49th St;New York;NY;Mexican;$$$;NY;
Pamplona;Gramercy / Flatiron;;New York;NY;Spanish;;NY;
Pangea;E. Village;;New York;NY;Mediterranean;;NY;
Panya Bakery (CLOSED);E. Village;;New York;NY;Japanese;;NY;
Papatzul;Soho;;New York;NY;Mexican;;NY;
Papaya King;Upper E. Side;;New York;NY;American;;NY;
Papillon Bistro;Midtown East;22 East 54th Street;New York;NY;French;;NY;
Papillon Bistro and Bar;Midtown East;;New York;NY;French;;NY;
Paradiso;East Village;;New York;NY;French;;NY;
Paradou;Meatpacking District;8 Little W 12th St;New York;NY;French;$$;NY;
Paradou;W. Village;;New York;NY;French;;NY;
Paradou Marché (CLOSED);Lower East Side;;New York;NY;Eclectic;;NY;
Paris Commune;W. Village;99 Bank St;New York;NY;Continental \ French;$$;NY;
Paris Match;Upper E. Side;;New York;NY;French;;NY;
Park Avenue Cafe;Upper East Side;100 East 63rd St (@ Park Avenue);New York;NY;American;$$$$;NY;
Park Avenue Winter;Upper East Side;;New York;NY;American Creative;;NY;
Park Cafe;Midtown West;;New York;NY;Eclectic;;NY;
Park East Grill;Upper East Side;1564 2nd Avenue;New York;NY;Jewish;$;NY;
Parlor Steakhouse;Upper East Side;1600 3rd Ave;New York;NY;Steakhouse \ Steakhouses;$$$$;NY;
Parma Restaurant;Upper E. Side;;New York;NY;Italian;;NY;
Pasha Restaurant;Upper West Side;;New York;NY;Turkish;;NY;
Pasita;West Village;;New York;NY;Latin American: Venezuelan;;NY;
Pastis;Meatpacking District;9 Ninth Ave;New York;NY;French;$$$;NY;
Pata Negra;East Village;;New York;NY;Spanish;;NY;
Patisserie des Ambassades;Chelsea;161 W 22nd St btwn Sixth and Seventh...;New York;NY;African: Senegalese;;NY;
Patroon;Midtown East;;New York;NY;American;;NY;
Patsy's Italian Restaurant;Midtown West;236 W 56th St;New York;NY;Italian;$$$;NY;
Paul's;East Village;131 2nd avenue;New York;NY;American;$$;NY;
Payard Patisserie & Bistro;Upper East Side;1032 Lexington Avenue;New York;NY;French;$$$;NY;
Payard Patisserie and Bistro;Upper E. Side;;New York;NY;French;;NY;
Payard Patisserie and Bistro;Upper East Side;1032 Lexington Avenue;New York;NY;French;;NY;
Peacock Alley;Midtown East;;New York;NY;French;;NY;
Peanut Butter and Company;W. Village;;New York;NY;Seafood;;NY;
Pearl Oyster Bar;Greenwich Village;18 Cornelia Street;New York;NY;Seafood;$$$;NY;
Pearl Oyster Bar;W. Village;;New York;NY;Seafood;;NY;
Pearl on the Sushi;Midtown West;;New York;NY;Japanese;;NY;
Peasant;Nolita;194 Elizabeth St;New York;NY;Italian;$$$;NY;
Peep;Soho;;New York;NY;Thai;;NY;
Pegu Club;Soho;77 W Houston St btwn W Broadway and...;New York;NY;Thai;;NY;
Peking Duck House;Chinatown;;New York;NY;Chinese;;NY;
Pellegrino's;Chinatown;;New York;NY;Italian;;NY;
Penang;Upper E. Side;;New York;NY;Asian: Malaysian;;NY;
Penelope;Murray Hill/kips Bay;159 Lexington Ave;New York;NY;American \ Cafés;$;NY;
Pepe Giallo;Chelsea;;New York;NY;;;NY;
Pepe Giallo To Go;Chelsea;;New York;NY;Italian;;NY;
Pepe Rosso To Go;Soho;149 Sullivan St;New York;NY;Italian;$;NY;
Pepe Rosso to Go;Soho;;New York;NY;Italian;;NY;
Pepe Verde To Go;W. Village;;New York;NY;Italian;;NY;
Per Lei;Upper East Side;10 Columbus Circle, 4th Fl (60th St);New York;NY;American \ Italian;$$$$$;NY;
Pera Mediterranean Brasserie;Midtown East;303 Madison Avenue;New York;NY;Mediterranean;$$$$;NY;
Perbacco;E. Village;234 E Fourth St;New York;NY;Italian;$$$;NY;
Peri Ela;Upper East Side;1361 Lexington Avenue;New York;NY;Turkish;$$;NY;
Perilla Restaurant;Greenwich Village;9 Jones Street;New York;NY;American;$$$$;NY;
Perilla Restaurant;West Village;;New York;NY;American;;NY;
Periyali Restaurant;Flatiron/u. Sq.;35 W 20th St;New York;NY;Greek;$$$$;NY;
Perle;Financial District;;New York;NY;French;;NY;
Perry Bistro;W. Village;;New York;NY;American;;NY;
Perry St;West Village;176 Perry St;New York;NY;French \ American;$$$$;NY;
Perry St.;W. Village;;New York;NY;American;;NY;
Perry Street;Greenwich Village;176 Perry St at West Side Highway;New York;NY;American;;NY;
Perry Street;W. Village;;New York;NY;American;;NY;
Persepolis;Upper E. Side;;New York;NY;Middle Eastern;;NY;
Pershing Square Cafe;Midtown East;;New York;NY;American;;NY;
Persimmon Kimchi House;East Village;;New York;NY;Korean;;NY;
Pescatore Restaurant;Midtown East;955-957 2nd Ave;New York;NY;Indian \ Italian;$$$;NY;
Petite Abeille;Greenwich Village;466 Hudson St btwn Barrow and Grove Sts;New York;NY;Belgian;;NY;
Petite Abeille;W. Village;;New York;NY;Belgian;;NY;
Petrossian - New York;Midtown West;;New York;NY;Russian;;NY;
Petrossian Boutique & Cafe;Midtown West;;New York;NY;Russian;;NY;
Philip Marie Restaurant;Greenwich Village;569 Hudson St at 11th St;New York;NY;American;;NY;
Philip Marie Restaurant;W. Village;569 Hudson St;New York;NY;American;$$$;NY;
Philippe Chow;Upper East Side;;New York;NY;Chinese;;NY;
Philly Slim's Cheesesteaks;Midtown West;789 Ninth Ave btwn 52nd and 53rd Sts;New York;NY;American;;NY;
Pho Bang Restaurant;Chinatown;;New York;NY;Vietnamese;;NY;
Pho Viet Huong;Chinatown;;New York;NY;Vietnamese;;NY;
Phoenix Garden Restaurant;Midtown East;;New York;NY;Chinese;;NY;
Piadina;Greenwich Village;57 W 10th St;New York;NY;Italian;$$;NY;
Piano Due;Midtown West;151 W 51st St;New York;NY;Italian;$$$$;NY;
Picasso;Midtown East;303 East 56th Street;New York;NY;;;NY;
Piccolo Angolo;West Village;621 Hudson St;New York;NY;Italian;$$;NY;
Picholine;Upper W. Side;35 W 64th St;New York;NY;Mediterranean \ French;$$$$;NY;
Picnick;Financial/battery Pk;;New York;NY;Cafés & diners;;NY;
Pietrasanta Restaurant;Midtown West;;New York;NY;Italian;;NY;
Pig Heaven Restaurant;Midtown West;1540 Second Ave;New York;NY;Chinese;$$;NY;
Pig Heaven Restaurant;Upper E. Side;;New York;NY;Chinese;;NY;
Pigalle;Midtown West;790 Eighth Ave at 48th St;New York;NY;French;;NY;
Pinch and S'MAC;Upper West Side;474 Columbus Ave-At 83rd St;New York;NY;American;;NY;
Ping's Seafood;Chinatown;22 Mott St;New York;NY;Chinese;$;NY;
Ping's Seafood Restaurant;Chinatown;22 Mott St;New York;NY;Chinese;$;NY;
Pink Pony;Lower East Side;;New York;NY;French;;NY;
Pintxos;Soho;;New York;NY;Spanish;;NY;
Pio Pio;Upper East Side;;New York;NY;Peruvian;;NY;
Pio Pio Salon;Upper East Side;;New York;NY;Peruvian;;NY;
Pio Pio Salon;Upper West Side;1746 First Ave-between 90th and 91st Sts;New York;NY;Peruvian;;NY;
Piola;E. Village;;New York;NY;Italian;;NY;
Piola;East Village;48 E 12th St-between Broadway and University Pl;New York;NY;Italian;;NY;
Pisticci;Harlem;125 La Salle St;New York;NY;Italian;$;NY;
Pizza Gruppo;East Village;186 Ave B-between 11th and 12th Sts;New York;NY;Italian: Pizza;;NY;
Planet Thailand 212;Chelsea;;New York;NY;Asian: Pan-Asian;;NY;
Po;Greenwich Village;31 Cornelia St;New York;NY;Italian;$$$;NY;
Po Restaurant;Greenwich Village;31 Cornelia St;New York;NY;Italian;$$$;NY;
Podunk;East Village;;New York;NY;Cafés & diners;;NY;
Poke Restaurant;;343 E. 85th St.;New York;NY;Sushi;$$;NY;
Pomaire Restaurant Inc;Midtown West;;New York;NY;Latin American: Chilean;;NY;
Pommes Frites;;123 2nd Ave;New York;NY;Belgian;$;NY;
Pongal;Gramercy;;New York;NY;Indian;;NY;
Pongal Inc;Murray Hill;110 Lexington Ave.;New York;NY;Indian;$$;NY;
Popover Cafe;Upper W. Side;551 Amsterdam Ave;New York;NY;American;$;NY;
Porchetta;East Village;110 East 7th Street;New York;NY;Italian;$$$;NY;
Porters;Chelsea;216 Seventh Avenue;New York;NY;American;$$;NY;
Positano;Little Italy;122 Mulberry St;New York;NY;Italian;$$;NY;
Post House;Upper E. Side;;New York;NY;Steakhouse \ Steakhouses;$$$$;NY;
Posto;Gramercy;;New York;NY;Italian: Pizza;;NY;
Potluck;Chelsea;;New York;NY;Asian: Pan-Asian;;NY;
Pranna;Gramercy / Flatiron;;New York;NY;Asian: Pan-Asian;;NY;
Prem-on Thai;Greenwich Village;138 W Houston St;New York;NY;Thai;$$;NY;
Prime Burger;Midtown East;;New York;NY;Cafés & diners;;NY;
Prime Grill;Midtown East;60 E 49th St;New York;NY;Jewish;$$$$;NY;
Primehouse New York;Gramercy / Flatiron;;New York;NY;Steakhouses;;NY;
Primitivo Osteria (CLOSED);West Village;202 West 14th Street;New York;NY;Italian;$$$;NY;
Provence;Soho;38 Macdougal Street;New York;NY;French;$$;NY;
Prune;E. Village;54 E First St;New York;NY;American \ American Creative;$$$;NY;
Public;Nolita;210 Elizabeth St;New York;NY;International \ Eclectic;$$$;NY;
Public House;Midtown East;140 E 41st St-between Lexington and Third Aves;New York;NY;American;;NY;
Pukk;East Village;71 First Ave;New York;NY;Thai;$;NY;
Pure Food and Wine;Gramercy;54 Irving Pl;New York;NY;Vegetarian \ Vegetarian & Organic;$$$$;NY;
Pure Food and Wine;Gramercy / Flatiron;;New York;NY;Vegetarian & Organic;;NY;
Puttanesca Italian Restaurant;Midtown West;859 9th Avenue;New York;NY;Italian;$$;NY;
Pylos Restaurant;E. Village;128 E Seventh St;New York;NY;Greek;$$;NY;
Pyramida Foods;Upper E. Side;;New York;NY;Middle Eastern;;NY;
Pão!;Soho;;New York;NY;Portuguese;;NY;
Quality Meats;Midtown West;57 W 58th St;New York;NY;Steakhouse \ Steakhouses;$$$$;NY;
Quatorze Bis Restaurant;Upper E. Side;;New York;NY;French;;NY;
Queen of Sheba;Midtown West;;New York;NY;African: Ethiopian;;NY;
Quintessence (CLOSED);East Village;;New York;NY;Vegetarian & Organic;;NY;
R.U.B.;Chelsea;208 W 23rd St-between Seventh and Eighth Aves;New York;NY;Barbeque;;NY;
Rack & Soul;Upper West Side;2818 Broadway;New York;NY;Barbecue \ American Regional;$$;NY;
Radio Perfecto;E. Village;190 Ave B;New York;NY;American;$$;NY;
Rafaella To Go Chelsea;Chelsea;;New York;NY;Cafés;;NY;
Rai Rai Ken;East Village;;New York;NY;Japanese;;NY;
Rain West - CLOSED;Upper West Side;100 West 82nd Street;New York;NY;Asian;$$;NY;
Rainbow Grill (CLOSED);Midtown West;;New York;NY;Italian;;NY;
Rainbow Room (CLOSED);Midtown West;;New York;NY;Italian;;NY;
Rainbow Room Grill (CLOSED);Midtown West;;New York;NY;Italian;;NY;
Ramen Setagaya;East Village;;New York;NY;Japanese;;NY;
Rao's;Harlem;455 East 114th St;New York;NY;Italian;$$$$;NY;
Raoul's;Soho;180 Prince St;New York;NY;French;$$$;NY;
Rare Bar & Grill (CLOSED);West Village;;New York;NY;American;;NY;
Rayuela;Lower East Side;;New York;NY;Latin American;;NY;
Re Sette;Midtown West;;New York;NY;Italian;;NY;
Ready to Eat;W. Village;;New York;NY;American;;NY;
Rectangles;Upper East Side;;New York;NY;Middle Eastern;;NY;
Red Bamboo Vegetarian Soul Café;Greenwich Village;140 W 4th St btwn MacDougal St and...;New York;NY;Vegetarian & Organic;;NY;
Red Egg;Chinatown;;New York;NY;Eclectic;;NY;
Red Mango;West Village;;New York;NY;Food or Beverage Shop;;NY;
Redeye Grill;Midtown West;890 Seventh Ave;New York;NY;American \ Seafood;$$$;NY;
Regional Restaurant;Upper W. Side;;New York;NY;Italian;;NY;
Regional Thai Taste Restaurant;Chelsea;;New York;NY;Thai;;NY;
Remi Restaurant;Midtown West;145 W 53rd St;New York;NY;Italian;$$$;NY;
Republic;Union Square;37 Union Square W;New York;NY;Asian \ Asian: Pan-Asian;$;NY;
Restaurant Ichimura;Midtown East;1026 Second Ave btwn 54th and 55th Sts;New York;NY;Japanese;;NY;
Resto;Gramercy / Flatiron;111 E. 29th Street;New York;NY;Belgian;$$;NY;
Resto Leon;East Village;;New York;NY;French;;NY;
Retsina;Midtown East;;New York;NY;Greek;;NY;
Reunion;Midtown West;;New York;NY;Greek;;NY;
Revel;Meatpacking District;10 Little W. 12th Street;New York;NY;International;$$$$;NY;
Revival Restaurant Bar Lounge;Harlem;2367 Frederick Douglass Blvd;New York;NY;Caribbean \ American;$$;NY;
Rheon Café;Soho;;New York;NY;Cafés & diners;;NY;
Rhong Tiam;Greenwich Village;541 La Guardia Pl-between Bleecker and W 3rd Sts;New York;NY;Thai;;NY;
Ribot;Midtown East;;New York;NY;Mediterranean;;NY;
Rice & Beans Restaurant;Midtown West;744 9th Ave;New York;NY;South American;$;NY;
Rice to Riches;Chinatown;;New York;NY;Cafés & diners;;NY;
Riingo;Midtown East;;New York;NY;Japanese;$$$$;NY;
Riingo Restaurant;Midtown East;205 E. 45th St;New York;NY;Japanese;$$$$;NY;
Rinconcito Mexicano;Midtown West;;New York;NY;Peruvian;;NY;
Risotteria;Greenwich Village;270 Bleecker St at Morton St;New York;NY;Italian;;NY;
Risotteria;W. Village;;New York;NY;Italian;;NY;
Risotteria;West Village;270 Bleecker St;New York;NY;Italian;;NY;
Robert's Steakhouse;Midtown West;741 Ninth Ave;New York;NY;Italian;$$$;NY;
Roc;Tribeca;;New York;NY;Italian;;NY;
Rocco Ristorante;Greenwich Village;181 Thompson St;New York;NY;Italian;$$;NY;
Rock Center Café;Midtown West;2 W 50th St;New York;NY;American;$$$;NY;
Rocking Horse Cafe;Chelsea;182 Eighth Ave;New York;NY;Mexican;$$;NY;
Rolf's;Gramercy;;New York;NY;German;;NY;
Rolf's;Gramercy/flatiron;281 Third Ave.;New York;NY;German;$$;NY;
Ronnybrook Farm Dairy;Chelsea;;New York;NY;Food or Beverage Shop;;NY;
Roomali;Gramercy;;New York;NY;Indian;;NY;
Rosa Mexicano Lincoln Center;Upper West Side;61 Columbus Avenue;New York;NY;;;NY;
Rothmann's Steakhouse & Grill;Midtown East;;New York;NY;Steakhouses;;NY;
Roti Plus;Harlem;;New York;NY;Caribbean;;NY;
Roti Roll Bombay Frankie;Upper West Side;;New York;NY;Eclectic;;NY;
Rouge Tomate;Upper East Side;;New York;NY;Eclectic;;NY;
Royale;E. Village;;New York;NY;American;;NY;
Royale Cafe + Pastry;West Village;;New York;NY;Cafés & diners;;NY;
Rub Bbq;;208 W 23rd St;New York;NY;;;NY;
Ruby Foo's;Midtown West;1626 Broadway at 49th St;New York;NY;;;NY;
Ruby Foo's (CLOSED);Upper West Side;2182 Broadway-Btwn 77th & 78th St;New York;NY;;;NY;
Rue 57;Midtown West;;New York;NY;French;;NY;
Russ & Daughters;Lower E. Side;;New York;NY;Food or Beverage Shop;;NY;
Russian Samovar Restaurant;Midtown West;256 W 52nd St;New York;NY;Continental \ Russian;$$$;NY;
Russian Tea Room - NYC;Midtown West;;New York;NY;Russian;;NY;
Ruth's Chris Steak House;Midtown West;148 West 51st Street;New York;NY;Steakhouse;$$$$;NY;
S.O.B.'s;Soho;200 Varick St;New York;NY;Brazilian;$;NY;
SEA;East Village;;New York;NY;Thai;;NY;
STK;Meatpacking District;;New York;NY;Steakhouses;;NY;
SUteiShi;Financial District;;New York;NY;Japanese;;NY;
Sachiko's on Clinton;Lower East Side;25 Clinton St;New York;NY;Japanese;$$$;NY;
Sacred Chow;Greenwich Village;227 Sullivan Street;New York;NY;Vegetarian \ Vegetarian & Organic;$;NY;
Safran;Chelsea;;New York;NY;Vietnamese;;NY;
Sahara East Restaurant;E. Village;;New York;NY;Middle Eastern;;NY;
Sahara Grill (CLOSED);Midtown West;;New York;NY;Turkish;;NY;
Saigon 48;Midtown West;;New York;NY;Vietnamese;;NY;
Saigon Banh Mi Bakery;Chinatown;;New York;NY;Thai;;NY;
Saju;Midtown West;120 W 44th St btwn Sixth Ave and...;New York;NY;Eclectic;;NY;
Sakagura Restaurant;Midtown East;;New York;NY;Japanese;;NY;
Sake Hana;Upper West Side;466 Amsterdam Ave-between 82nd and 83rd Sts;New York;NY;Japanese;;NY;
Sal Anthony's S.P.Q.R.;Little Italy;133 Mulberry St;New York;NY;Italian;$$;NY;
Sala;E. Village;;New York;NY;Spanish;;NY;
Sala;Nolita;344 Bowery;New York;NY;Spanish;$$;NY;
Salaam Bombay;Tribeca;319 Greenwich St;New York;NY;Indian;$$;NY;
Salam Cafe And Restaurant;W. Village;;New York;NY;Middle Eastern;;NY;
Salmon River;Midtown East;;New York;NY;Seafood;;NY;
Salmon River;Murray Hill;3 East 40th Street;New York;NY;Seafood;$$;NY;
Salsa y Salsa;Chelsea;;New York;NY;Mexican;;NY;
Salt;Soho;;New York;NY;American;;NY;
Salt Bar;Lower East Side;29 Clinton St;New York;NY;American;$$$;NY;
Salud Restaurant and Bar;;142 Beekman Street;New York;NY;;;NY;
Salute!;Murray Hill;270 Madison Ave;New York;NY;Italian;$;NY;
Sambuca;Upper W. Side;20 W 72nd St;New York;NY;Italian;$$;NY;
Sammy's Roumanian;Lower E. Side;;New York;NY;Eastern European;;NY;
Sammy's Roumanian Steak House;Lower East Side;157 Chrystie St;New York;NY;European \ Eastern European;$$$;NY;
San Pietro Restaurant;Midtown East;;New York;NY;Italian;;NY;
Sanctuary Tea;Soho;;New York;NY;Cafés & diners;;NY;
Sandobe;E. Village;;New York;NY;Japanese;;NY;
Sandro Serafina;Upper E. Side;;New York;NY;Italian;;NY;
Sandwich Planet;Midtown West;;New York;NY;American;;NY;
Sangam;West Village;;New York;NY;Indian;;NY;
Sangria 46;Midtown West;;New York;NY;Spanish;;NY;
Sant Ambroeus Ltd;Upper East Side;;New York;NY;Italian;;NY;
Santa Fe;Upper W. Side;73 W 71st St;New York;NY;Southwestern;$$;NY;
Sanur Restaurant;Chinatown;;New York;NY;Asian: Malaysian;;NY;
Sapa (CLOSED);Chelsea;43 West 24th Street;New York;NY;Asian \ Vietnamese;$$$;NY;
Sapphire Indian;Upper W. Side;1845 Broadway;New York;NY;Indian;$$$;NY;
Saravanaas;Gramercy;;New York;NY;Indian;;NY;
Sardi's;Midtown West;234 West 44th Street;New York;NY;Continental \ American;$$$;NY;
Sarge's Deli;Midtown East;;New York;NY;American;;NY;
Sarge's Deli & Restaurant;Murray Hill;548 Third Avenue;New York;NY;Deli;$;NY;
Sasabune;Upper E. Side;;New York;NY;Japanese;;NY;
Satsko;Lower East Side;;New York;NY;Asian: Pan-Asian;;NY;
Saucy;Upper East Side;1409 York Avenue;New York;NY;International \ Eclectic;$$;NY;
Savann Restaurant;Upper W. Side;414 Amsterdam Ave;New York;NY;French;$$;NY;
Savore Ristorante;Soho;;New York;NY;Italian;;NY;
Savoy Restaurant;Soho;;New York;NY;American Creative;;NY;
Scaletta;Midtown West;50 W 77th St;New York;NY;Italian;$$$;NY;
Scaletta Restaurant;Midtown West;50 W 77th St;New York;NY;Italian;$$$;NY;
Scalinatella Restaurant;Upper East Side;201 East 61st Street;New York;NY;Italian;$$$$;NY;
Scalini Fedeli;Tribeca;165 Duane St;New York;NY;Italian;$$$$;NY;
Scarlatto;Midtown West;250 W 47th St;New York;NY;Italian;$$;NY;
Scarpetta;Meatpacking District;355 W 14th St;New York;NY;Italian;$$$$;NY;
Schiller's Liquor Bar;Lower E. Side;;New York;NY;Eclectic;;NY;
Schiller's Liquor Bar;Lower East Side;131 Rivington St;New York;NY;International \ Eclectic;$$;NY;
Schnipper's Quality Kitchen;Midtown West;;New York;NY;American;;NY;
Sea;East Village;75 Second Ave;New York;NY;Asian;$;NY;
Sea Grill;Midtown West;19 West 49th Street;New York;NY;Seafood;$$$$;NY;
Seasonal;Midtown West;132 W 58th St-Btwn 6th & 7th Ave;New York;NY;;;NY;
Sel et Poivre;Upper E. Side;;New York;NY;French;;NY;
Sel et Poivre;Upper East Side;853 Lexington Avenue;New York;NY;French;;NY;
Seo Japanese Restaurant;Midtown West;;New York;NY;Japanese;;NY;
Seoul Station;East Village;81 St Marks Pl btwn 1st and 2nd Aves;New York;NY;Korean;;NY;
Sequoia;Wall Street;Pier 17;New York;NY;Seafood;$$;NY;
Serafina Fabulous Grill;Upper East Side;1022 Madison Ave-between 78th and 79th Sts;New York;NY;Italian;;NY;
Serafina Fabulous Pizza;Upper E. Side;;New York;NY;Italian;;NY;
Serafina Fabulous Pizza;Upper East Side;1022 Madison Ave-between 78th and 79th Sts;New York;NY;Italian;;NY;
Serafina on Lafayette;East Village;;New York;NY;Italian;;NY;
Serendipity 3;Upper East Side;225 E 60th St;New York;NY;American;$;NY;
Setacci;Greenwich Village;420 Hudson St at Leroy St;New York;NY;Italian;;NY;
Sette Mezzo;Upper E. Side;;New York;NY;Italian;;NY;
Sevilla Restaurant & Bar;W. Village;62 Charles St& West 4th St;New York;NY;Spanish;$$;NY;
Seymour Burton (CLOSED);East Village;;New York;NY;American;;NY;
Sezz Medi';Harlem;1260 Amsterdam Ave;New York;NY;Mediterranean;$$;NY;
Sfoglia;Upper E. Side;1402 Lexington Avenue;New York;NY;Italian;$$$$;NY;
Shabu-Shabu 70;Upper East Side;;New York;NY;Japanese;;NY;
Shabu-Tatsu Downtown;E. Village;;New York;NY;Japanese;;NY;
Shaburi;Midtown East;125 E 39th St btwn Park and Lexington...;New York;NY;Japanese;;NY;
Shaburi;Murray Hill/kips Bay;125 E 39th St;New York;NY;Japanese;$$$;NY;
Shaffer City Oyster Bar And Grill;Flatiron/u. Sq.;5 W 21st St;New York;NY;Seafood;$$$;NY;
Shake Shack;Upper West Side;366 Columbus Ave;New York;NY;American;$$;NY;
Shalizar;Upper East Side;;New York;NY;Middle Eastern: Persian;;NY;
Shang;Lower East Side;;New York;NY;Chinese;;NY;
Shanghai Cuisine;Chinatown;;New York;NY;Chinese;;NY;
Shanghai Mong;Midtown West;;New York;NY;Chinese;;NY;
Shanghai Pavilion;Upper E. Side;;New York;NY;Chinese;;NY;
Sharaku Japanese Restaurant;E. Village;;New York;NY;Japanese;;NY;
Sharz Cafe & Wine Bar;Upper E. Side;;New York;NY;American;;NY;
Sheng Wang;Lower East Side;;New York;NY;Chinese;;NY;
Shima Restaurant;E. Village;;New York;NY;Japanese;;NY;
Shimizu Sushi Restaurant;Midtown West;;New York;NY;Japanese;;NY;
Shopsin's;Lower East Side;;New York;NY;Cafés & diners;;NY;
Shorty's;Midtown West;576 Ninth Ave at 41st St;New York;NY;American;;NY;
Shula's Steak House;Midtown West;270 W 43rd St;New York;NY;American \ Steakhouses;$$$$;NY;
Shun Lee Cafe;Upper W. Side;;New York;NY;Chinese;;NY;
Shun Lee Cafe;Upper West Side;43 W 65th St;New York;NY;Chinese;;NY;
Shun Lee Palace East;Midtown East;155 E 55th Street;New York;NY;Chinese;$$$;NY;
Shun Lee West Lincoln Ctr;Upper West Side;43 W 65th St btwn Central Park West and...;New York;NY;Chinese;;NY;
Sidecar at P.J. Clarke's;Midtown East;;New York;NY;American;;NY;
Sigiri;E. Village;;New York;NY;Indian: Sri Lankan;;NY;
Silver Moon Bakery;Upper W. Side;;New York;NY;Cafés & diners;;NY;
Silverleaf Tavern;Midtown East;;New York;NY;American;;NY;
Singas Famous Pizza;East Village;;New York;NY;Italian: Pizza;;NY;
Sinigual - NY;Midtown East;;New York;NY;Turkish;;NY;
Sip Sak;Midtown East;928 Second Ave;New York;NY;Middle Eastern \ Turkish;$;NY;
Sistina;Upper E. Side;;New York;NY;Italian;;NY;
Sitar Indian Cuisine Inc;Midtown West;;New York;NY;Indian;;NY;
Skylight Diner Inc;Midtown West;;New York;NY;Cafés & diners;;NY;
Slane;West Village;102 MacDougal St;New York;NY;Irish;$$;NY;
Slice;Upper East Side;1413 Second Ave-between 73rd and 74th Sts;New York;NY;Italian: Pizza;;NY;
Smith & Mills;Tribeca;;New York;NY;Eclectic;;NY;
Smith & Wollensky - New York;Midtown East;;New York;NY;Steakhouses;;NY;
Smith's;Greenwich Village;79 MacDougal St btwn Bleecker and W...;New York;NY;;;NY;
Smokin' Q (CLOSED);Upper East Side;;New York;NY;Barbeque;;NY;
Smorgas Chef;Midtown East;;New York;NY;Scandinavian;;NY;
Snack;Soho;;New York;NY;Greek;;NY;
Snack Dragon Taco Shack;East Village;;New York;NY;Greek;;NY;
Snack Taverna;W. Village;63 Bedford St;New York;NY;Greek;$$;NY;
Soba Totto;Midtown East;;New York;NY;Japanese;;NY;
Soba-Ya;E. Village;229 E Ninth St;New York;NY;Asian \ Japanese;$;NY;
SobaKoh;E. Village;;New York;NY;Japanese;;NY;
Socarrat Paella Bar;Chelsea;;New York;NY;Spanish;;NY;
Sofrito;Midtown East;;New York;NY;Caribbean: Puerto Rican;;NY;
Sol Y Sombra - Manhattan;Upper West Side;462 Amsterdam Ave;New York;NY;Spanish;$;NY;
Solera;Midtown East;216 E 53rd St;New York;NY;Spanish;$$$;NY;
Solo;Midtown East;;New York;NY;Kosher;;NY;
Son Cubano Restaurant;Meatpacking District;361 Greenwich St;New York;NY;Cuban \ Caribbean: Cuban;$$$;NY;
Song 7.2;East Village;;New York;NY;Asian: Pan-Asian;;NY;
Sonia Rose;Lower East Side;;New York;NY;French;;NY;
Sookk;Upper West Side;;New York;NY;Asian: Pan-Asian;;NY;
Sorella;Lower East Side;;New York;NY;Italian;;NY;
Sosa Borella;Midtown West;;New York;NY;Italian;;NY;
Soto;Greenwich Village;357 Sixth;New York;NY;Sushi \ Japanese;$$$;NY;
Soto;West Village;;New York;NY;Japanese;;NY;
Souen;Soho;210 Sixth Ave-at Prince St;New York;NY;Vegetarian & Organic;;NY;
Soul Fixins;Midtown West;444 W 42nd St-between Ninth and Tenth Aves;New York;NY;American Regional;;NY;
Soul Fixins';Midtown West;371 W 34th St-At 9th Ave;New York;NY;American Regional;;NY;
South Gate;Midtown West;;New York;NY;American;;NY;
SouthWest NY;Financial District;;New York;NY;American Regional;;NY;
Southern Hospitality BBQ;Upper East Side;;New York;NY;Barbeque;;NY;
Southside Cafe;Theater;252 W 47th Street;New York;NY;Italian;$$;NY;
Soy;Lower East Side;;New York;NY;Japanese;;NY;
Soy Luck Club;West Village;;New York;NY;Vegetarian & Organic;;NY;
Spain Restaurant;W. Village;;New York;NY;Spanish;;NY;
Spanky's BBQ (CLOSED);Midtown West;;New York;NY;Barbeque;;NY;
Sparks Steak House;Midtown East;210 E 46th Street;New York;NY;Steakhouse \ Steakhouses;$$$;NY;
Spice;Greenwich Village;;New York;NY;Thai;;NY;
Spice Cove;East Village;104 Second Ave.;New York;NY;Thai \ Indian;$$;NY;
Spice Market;Meatpacking District;403 W 13th St;New York;NY;Malaysian \ Indian;$$$;NY;
Spiga;Upper West Side;1561 Second Ave;New York;NY;Italian;$$$;NY;
Spigolo;Upper E. Side;1561 Second Ave;New York;NY;Italian;$$$;NY;
Spitzer's Corner;Lower East Side;;New York;NY;American;;NY;
Spoons Squared Inc;Midtown East;;New York;NY;American;;NY;
Spotlight Live;Theater;1604 Broadway;New York;NY;American;$$$$;NY;
Spotlight Live (CLOSED);Midtown West;;New York;NY;American;;NY;
Spotted Pig;West Village;The, 314 W 11th St;New York;NY;British;$$$;NY;
Spring Street Natural Restaurant;Nolita;62 Spring St;New York;NY;Vegetarian \ Vegetarian & Organic;$;NY;
Spring Street Natural Restaurant;Soho;62 Spring St at Lafayette St;New York;NY;Vegetarian & Organic;;NY;
Square Diner Corp;Tribeca;;New York;NY;Cafés & diners;;NY;
Square Meal;Upper East Side;30 E 92nd St btwn 5th Ave and Madison...;New York;NY;American;;NY;
St. Dymphna's;E. Village;;New York;NY;British & Irish;;NY;
Staghorn Steakhouse;Midtown West;;New York;NY;Steakhouses;;NY;
Stand;Greenwich Village;24 E. 12th Street;New York;NY;American;$;NY;
Stanton Social;Lower East Side;99 Stanton St;New York;NY;International;$$$;NY;
Stanton Social Club;;99 Stanton Street;New York;NY;Small Plates;$$$;NY;
Stella Del Mare;Murray Hill;346 Lexington Avenue;New York;NY;Italian;$$$;NY;
Stella Maris;Financial/battery Pk;213 Front St.;New York;NY;European \ French;$$;NY;
Sticky Fingers;Lower E. Side;;New York;NY;Thai;;NY;
Strip House - New York;Greenwich Village;13 E 12th St;New York;NY;Steakhouse \ Steakhouses;$$$;NY;
Suba (CLOSED);Lower E. Side;109 Ludlow St;New York;NY;Spanish;$$$;NY;
Suba (CLOSED);Lower East Side;;New York;NY;Spanish;;NY;
Sueños;Chelsea;311 W 17th St;New York;NY;Mexican;$$$;NY;
Sugiyama;Midtown West;251 W 55th St;New York;NY;Japanese;$$$$;NY;
Sullivan Street Bakery;Midtown West;;New York;NY;Food or Beverage Shop;;NY;
Sumile;W. Village;;New York;NY;Japanese;;NY;
Sundaes and Cones;East Village;;New York;NY;Cafés;;NY;
Supermac;Chelsea;;New York;NY;American;;NY;
Supper;E. Village;156 E Second St;New York;NY;Italian;$$;NY;
Sura: The King's Meal;West Village;;New York;NY;Korean;;NY;
Surf City Squeeze;W. Village;302 Bleecker St;New York;NY;Indian \ American;$$;NY;
Surf City Squeeze;West Village;;New York;NY;Indian;;NY;
Surya;Greenwich Village;302 Bleecker St btwn Seventh Ave South...;New York;NY;Indian;;NY;
Surya;W. Village;302 Bleecker St;New York;NY;Indian;$$;NY;
Sushi Ann;Midtown East;38 E 51st St btwn Madison and Park Aves;New York;NY;;;NY;
Sushi Azabu;Tribeca;;New York;NY;Japanese;;NY;
Sushi Hana;Upper E. Side;;New York;NY;Japanese;;NY;
Sushi Samba;Flatiron/u. Sq.;245 Park Ave South;New York;NY;Sushi \ Japanese;$$$;NY;
Sushi Samba on 7th Ave;Greenwich Village;87 Seventh Ave So at Barrow St;New York;NY;Japanese;;NY;
Sushi Samba on 7th Ave;W. Village;;New York;NY;Japanese;;NY;
Sushi Seki;Upper E. Side;1143 1st Ave;New York;NY;Sushi \ Japanese;$$$;NY;
Sushi Yasuda;Midtown West;204 E 43rd St;New York;NY;Japanese;$$$$$;NY;
Sushi Zen;Midtown West;204 E 43rd St;New York;NY;Japanese;$$$$$;NY;
Sushi of Gari;Upper E. Side;;New York;NY;Japanese;;NY;
Sushi of Gari 46;Midtown West;;New York;NY;Japanese;;NY;
Sushi-tei Restaurant;Midtown East;;New York;NY;Japanese;;NY;
Sushiden Madison Av;Midtown West;;New York;NY;Japanese;;NY;
Swagat Indian Cuisine;;411a Amsterdam Ave;New York;NY;;;NY;
Sweet-n-Tart Cafe (CLOSED);Chinatown;;New York;NY;Chinese;;NY;
Swifty's;Upper E. Side;;New York;NY;American;;NY;
Swing 46 Jazz & Supper Club;Theater;349 W. 46 St;New York;NY;American;$$$;NY;
Swissing Restaurant;Midtown West;;New York;NY;Eclectic;;NY;
Swizz;Midtown West;310 W 53rd St;New York;NY;Swiss \ Eclectic;$$;NY;
Swizz Restaurant and Wine Bar;Midtown West;310 W 53rd St btwn Eighth and Ninth...;New York;NY;Eclectic;;NY;
Sylvia’s;Harlem;;New York;NY;American Regional;;NY;
Symposium Greek Restaurant;Upper E. Side;;New York;NY;Greek;;NY;
Symposium Greek Restaurant;Upper West Side;544 West 113th Street Frnt;New York;NY;Greek;;NY;
Szechuan Gourmet;Midtown West;;New York;NY;Chinese;;NY;
S’MAC;East Village;;New York;NY;American;;NY;
T Salon;Chelsea;;New York;NY;Cafés & diners;;NY;
T-BAR Steak & Lounge;Upper East Side;;New York;NY;Steakhouses;;NY;
T-Bar Steak and Lounge;Upper East Side;;New York;NY;Steakhouses;;NY;
Taam Tov;Midtown West;;New York;NY;Kosher;;NY;
Tabla Bread Bar;Gramercy / Flatiron;11 Madison Ave;New York;NY;Indian;$$$$;NY;
Tabla Frankie Cart;Flatiron;;New York;NY;Indian;;NY;
Table d'Hote;Upper E. Side;;New York;NY;French;;NY;
Taboon;Midtown West;773 10th Ave;New York;NY;Mediterranean \ Middle Eastern;$$$;NY;
Taco Taco Inc;Upper E. Side;;New York;NY;Mexican;;NY;
Tafu;Midtown East;;New York;NY;Cafés & diners;;NY;
Tagine Dining Gallery and Lounge;Midtown West;;New York;NY;Moroccan;;NY;
Tahini (fka Kosher Village);East Village;23 Third Ave at St Marks Pl;New York;NY;;;NY;
Tai Hong Lau;Chinatown;;New York;NY;Thai;;NY;
Tailor;Soho;525 Broome St-between Thompson and Sullivan Sts;New York;NY;Cafés & diners;;NY;
Taim;Greenwich Village;222 Waverly Pl btwn Perry and W 11th Sts;New York;NY;;;NY;
Takahachi;E. Village;;New York;NY;Japanese;;NY;
Takahachi Tribeca Restaurant;Tribeca;145 Duane St;New York;NY;Japanese;$$;NY;
Taksim;East Village;99 Second Ave btwn 5th and 6th Sts;New York;NY;Turkish;;NY;
Talay Restaurant;Harlem;701 W 135th St;New York;NY;Thai \ Asian: Pan-Asian;$$$;NY;
Tang Pavilion;Midtown West;65 W 55th St;New York;NY;Chinese;$$;NY;
Tanti Baci Caffe;W. Village;;New York;NY;Italian;;NY;
Tanti Baci Flower Room;W. Village;;New York;NY;Italian;;NY;
Tao;Midtown East;42 E 58th Street;New York;NY;Asian \ Asian: Pan-Asian;$$$;NY;
Tao Asian Bistro;Midtown East;;New York;NY;Asian: Pan-Asian;;NY;
Taormina;Little Italy;147 Mulberry St;New York;NY;Italian;$$;NY;
Tarallucci E Vino;Gramercy / Flatiron;;New York;NY;Cafés;;NY;
Tartine;W. Village;253 W 11th St;New York;NY;French;$;NY;
Tasca (CLOSED);Greenwich Village;130 Seventh Avenue So at W 10th St;New York;NY;Spanish;;NY;
Taste;Upper East Side;;New York;NY;American;;NY;
Tatany 52 Inc;Midtown East;;New York;NY;Japanese;;NY;
Tavern on the Green;Upper W. Side;;New York;NY;American;;NY;
Tavern on the Green;Upper West Side;Central Park W.;New York;NY;American;;NY;
Taïm;West Village;;New York;NY;Middle Eastern;;NY;
Tea & Sympathy;W. Village;108 Greenwich Ave;New York;NY;British \ British & Irish;$;NY;
Tea & Sympathy;West Village;;New York;NY;British & Irish;;NY;
Tea and Sympathy;Greenwich Village;108 Greenwich Ave near Jane St;New York;NY;;;NY;
Teany Cafe;Lower East Side;90 Rivington Street;New York;NY;Cafés;;NY;
Tebaya;Chelsea;;New York;NY;Japanese;;NY;
Ted's Montana Grill;Midtown West;110 W 51st St btwn Sixth and Seventh...;New York;NY;American;;NY;
Telepan;Midtown West;72 West 69th Street;New York;NY;American;$$$$;NY;
Telepan;Upper W. Side;;New York;NY;American;;NY;
Telephone Bar & Grill;E. Village;;New York;NY;American;;NY;
Telephone Bar and Grill;E. Village;;New York;NY;American;;NY;
Tello's Ristorante;Chelsea;263 W 19th St;New York;NY;Italian;$$;NY;
Temple Bar;E. Village;;New York;NY;Korean;;NY;
Teodora;Midtown East;;New York;NY;Italian;;NY;
Terroir;East Village;;New York;NY;Eclectic;;NY;
Tet;East Village;83 Ave A btwn 5th and 6th Sts;New York;NY;Vietnamese;;NY;
Thai Orchid;Midtown East;;New York;NY;Thai;;NY;
Thai on Clinton;Lower East Side;;New York;NY;Thai;;NY;
Thalassa Restuarant;Tribeca;;New York;NY;Greek;;NY;
Thalia Kitchen;Midtown West;;New York;NY;American;;NY;
The American;Nolita;235 Mulberry St.;New York;NY;American;$;NY;
The Cafe Carlyle;;35 E 76 St;New York;NY;;;NY;
The Carlyle Restaurant;Upper East Side;35 E 76th St at Madison Ave;New York;NY;French;;NY;
The Cupping Room Cafe, Inc.;Soho;359 West Broadway;New York;NY;American;;NY;
The E.U.;E. Village;;New York;NY;Eclectic;;NY;
The E.U. (CLOSED);East Village;;New York;NY;Eclectic;;NY;
The Elephant;East Village;;New York;NY;Thai;;NY;
The Four Seasons Restaurant;Midtown East;99 E 52nd St;New York;NY;Continental \ American Creative;$$$$;NY;
The Great Burrito;Upper West Side;;New York;NY;Mexican;;NY;
The Green Table;Chelsea;;New York;NY;Vegetarian & Organic;;NY;
The Harrison;Tribeca;355 Greenwich St;New York;NY;American;$$$;NY;
The House;Gramercy / Flatiron;121 E. 17th Street;New York;NY;Mediterranean \ Eclectic;$$$$;NY;
The John Dory;Chelsea;;New York;NY;British & Irish;;NY;
The Libertine;Financial District;;New York;NY;American;;NY;
The Little Owl;W. Village;;New York;NY;Mediterranean;;NY;
The Mercer Kitchen;Soho;;New York;NY;American Creative;;NY;
The Mercury Dime;East Village;96 Second Ave-between 5th and 6th Sts;New York;NY;Seafood;;NY;
The Modern - Dining Room;Midtown West;;New York;NY;American Creative;;NY;
The Morgan Dining Room;Midtown East;;New York;NY;American;;NY;
The New French;Greenwich Village;522 Hudson St;New York;NY;French \ Eclectic;$$$;NY;
The New French;West Village;;New York;NY;Eclectic;;NY;
The Noho Star;East Village;;New York;NY;American;;NY;
The Odeon Ice Cream Cart;Tribeca;;New York;NY;Cafés & diners;;NY;
The Orchard;Lower E. Side;;New York;NY;Italian;;NY;
The Organic Grill;East Village;;New York;NY;Vegetarian & Organic;;NY;
The Palm - NYC One;Midtown East;;New York;NY;Steakhouses;;NY;
The Palm Court (CLOSED);Midtown East;;New York;NY;French;;NY;
The Palm Too;Midtown East;;New York;NY;Steakhouses;;NY;
The Palm West Side;Midtown West;;New York;NY;Steakhouses;;NY;
The Park;Chelsea;;New York;NY;American;;NY;
The Pizzeria;West Village;310 W Fourth St;New York;NY;American \ Mediterranean;$$$;NY;
The Place;Greenwich Village;142 W 10th St;New York;NY;American \ Mediterranean;$$$;NY;
The Place;W. Village;310 W Fourth St;New York;NY;American \ Mediterranean;$$$;NY;
The Prime Grill;Midtown East;;New York;NY;Kosher;;NY;
The Red Cat;Chelsea;;New York;NY;American;;NY;
The Redhead;East Village;349 E. 13th Street;New York;NY;American;$$$;NY;
The Round Table at the Algonquin Hotel;Midtown West;;New York;NY;Russian;;NY;
The Russian Tea Room;Midtown West;;New York;NY;Russian;;NY;
The Sea Grill Restaurant;Midtown West;;New York;NY;Seafood;;NY;
The Shark Bar Restaurant;Upper West Side;;New York;NY;American Regional;;NY;
The Sheep Meadow Cafe;Upper West Side;;New York;NY;American;;NY;
The Smith;East Village;;New York;NY;American;;NY;
The Soda Shop;Tribeca;;New York;NY;Cafés & diners;;NY;
The Spotted Pig;Greenwich Village;314 W 11th St at Greenwich St;New York;NY;Eclectic;;NY;
The Spotted Pig;W. Village;;New York;NY;Eclectic;;NY;
The Stanton Social;Lower East Side;;New York;NY;Eclectic;;NY;
The Waverly Inn And Garden;W. Village;;New York;NY;American;;NY;
The West Branch;Upper West Side;;New York;NY;Eclectic;;NY;
The Yoghurt Place II;Soho;;New York;NY;American;;NY;
Think Coffee;West Village;;New York;NY;Cafés & diners;;NY;
Thor;Lower E. Side;;New York;NY;American;$$$$;NY;
Three Of Cups;East Village;83 First Ave;New York;NY;Italian;$;NY;
Three of Cups;E. Village;;New York;NY;Italian;;NY;
Tia Pol;Chelsea;205 Tenth Ave;New York;NY;Spanish;$$;NY;
Tides Seafood;Lower East Side;102 Norfolk St-Btwn Delancey & Rivington St;New York;NY;Seafood;;NY;
Tien Garden Inc;Lower East Side;;New York;NY;Vegetarian & Organic;;NY;
Tiengarden Vegan Restaurant;Lower East Side;;New York;NY;Vegetarian & Organic;;NY;
Tintol (CLOSED);Midtown West;;New York;NY;Portuguese;;NY;
Tiny's Giant Sandwich Shop;Lower East Side;;New York;NY;Cafés;;NY;
Tocqueville;Union Square;1 E 15th St;New York;NY;American \ American Creative;$$$$;NY;
Tokyo Bar;Tribeca;;New York;NY;Japanese;;NY;
Tokyo Pop (CLOSED);Upper West Side;;New York;NY;Japanese;;NY;
Toledo Restaurant;Midtown East;6 E 36th St btwn Fifth and Madison Aves;New York;NY;Spanish;;NY;
Toledo Restaurant;Midtown West;;New York;NY;Spanish;;NY;
Toloache;Midtown West;;New York;NY;Mexican;;NY;
Tomo (CLOSED);Harlem;2850 Broadway;New York;NY;Sushi \ Japanese;$;NY;
Tomoe Sushi;Greenwich Village;172 Thompson St;New York;NY;Sushi \ Japanese;$$;NY;
Tony's Di Napoli Midtown;Midtown West;;New York;NY;Italian;;NY;
Top of the Tower — Beekman Tower Hotel;Midtown East;;New York;NY;American;;NY;
Tossed;Gramercy;;New York;NY;American;;NY;
Tout Va Bien;Midtown West;;New York;NY;French;;NY;
Trata Estiatorio;Upper E. Side;;New York;NY;Greek;;NY;
Trattoria Dopo Teatro;Midtown West;900 Seventh Ave;New York;NY;Italian;$$$;NY;
Trattoria Spaghetto;W. Village;;New York;NY;Italian;;NY;
Trattoria Trecolori Inc;Midtown West;;New York;NY;Italian;;NY;
Tre;Lower East Side;;New York;NY;Italian;;NY;
Tre Dici Steak;Chelsea;;New York;NY;Italian;;NY;
Tree;East Village;;New York;NY;French;;NY;
Trestle on Tenth;Chelsea;;New York;NY;American Creative;;NY;
Tribeca Grill Reservations;Tribeca;;New York;NY;American;;NY;
Tribeca Grill Reservations;Tribeca - Downtown;375 Greenwich St;New York;NY;American;$$$;NY;
Tribeca Hana;Tribeca;;New York;NY;Italian;;NY;
Trinity Place;Financial District;;New York;NY;American;;NY;
Trio Restaurant & Bar;Midtown East;49 West 44th Street;New York;NY;French \ Mediterranean;$$$$;NY;
Troy Turkish Grill;Midtown West;539 9th Ave;New York;NY;Turkish;$;NY;
Tsampa;E. Village;212 E Ninth St;New York;NY;Southeast Asian \ Asian: Tibetan;$;NY;
Tse Yang Restaurant;Midtown East;34 East 51st Street;New York;NY;Chinese;$$$;NY;
Tu Do Restaurant Corp;Chinatown;;New York;NY;;;NY;
Tuck Shop;East Village;;New York;NY;Australian & New Zealand;;NY;
Turkish Cuisine;Midtown West;631 9th Ave;New York;NY;Middle Eastern;$$;NY;
Turkish Kitchen;Gramercy;;New York;NY;Turkish;;NY;
Turkish Kitchen;Midtown East;386 Third Ave;New York;NY;Turkish;$$$$;NY;
Turks & Frogs Tribeca;Tribeca;;New York;NY;Turkish;;NY;
Turkuaz Fine Turkish Cuisine;Upper West Side;2637 Broadway;New York;NY;Turkish;;NY;
Turquoise Seafood Restaurant;Upper E. Side;;New York;NY;Seafood;;NY;
Tuscan Square (CLOSED);Midtown West;16 W 51st St;New York;NY;Italian;$$$;NY;
Typhoon Lounge;E. Village;;New York;NY;Japanese;;NY;
Udon West;Midtown East;;New York;NY;Japanese;;NY;
Uguale;W. Village;;New York;NY;Italian;;NY;
Ukrainian East Village Restaurant;E. Village;;New York;NY;Eastern European;;NY;
Umbertos Clam House;Chinatown;;New York;NY;Italian;;NY;
Una Pizza Napoletana;E. Village;;New York;NY;Italian: Pizza;;NY;
Uncle Jack's Steakhouse;Midtown West;;New York;NY;Steakhouses;;NY;
Uncle Jack's Steakhouse - Westside;Midtown West;;New York;NY;Steakhouses;;NY;
Uncle Moes Burritos;Chelsea;;New York;NY;Mexican;;NY;
Uncle Nick's Greek Cuisine;Midtown West;747 9th Ave;New York;NY;Greek;$$;NY;
Union Square Ballroom Lounge;Union Square;21 E 16th St;New York;NY;American;$$$$;NY;
University Place Restaurant;E. Village;;New York;NY;Thai;;NY;
Upstairs Bouley Bakery & Market;Tribeca;130 W Broadway, 2nd Fl;New York;NY;International \ American Creative;$$$;NY;
Ushiwakamaru;Greenwich Village;136 W Houston St btwn MacDougal and...;New York;NY;;;NY;
Uskudar;Upper East Side;1405 Second Ave;New York;NY;Middle Eastern;$$;NY;
Utsav;Midtown West;;New York;NY;Indian;$$$;NY;
Uva;Upper E. Side;;New York;NY;Italian;;NY;
Vai;Upper West Side;;New York;NY;Italian;;NY;
Vai Restaurant and Wine Bar;Upper East Side;225 W 77th St-between Broadway and Amsterdam Ave;New York;NY;Italian;;NY;
Valbella;Greenwich Village;421 W 13th St btwn Ninth Ave and...;New York;NY;Italian;;NY;
Valbella;Meatpacking District;;New York;NY;Italian;;NY;
Varietal;Chelsea;138 W. 25th Street;New York;NY;American;$$$$;NY;
Vatan Indian Restaurant;Gramercy Park;409 Third Ave;New York;NY;Indian;$$;NY;
Vegetarian Dim Sum House;Chinatown;;New York;NY;Vegetarian & Organic;;NY;
Veniero's;East Village;342 E 11th St;New York;NY;American;$;NY;
Veritas;Gramercy / Flatiron;;New York;NY;American Creative;;NY;
Veritas;Union Square;43 E 20th St;New York;NY;American \ American Creative;$$$$;NY;
Veselka Restaurant;E. Village;;New York;NY;Eastern European;;NY;
Veselka Restaurant;East Village;144 2nd Ave;New York;NY;American \ Eastern European;$;NY;
Vespa Cibobouno;Upper East Side;1625 Second Ave;New York;NY;Italian;;NY;
Via Brasil Inc;Midtown West;34 W 46 St;New York;NY;South American;$$;NY;
Via Delle Zoccolette;East Village;;New York;NY;Italian;;NY;
Via dei Mille;Soho;;New York;NY;Italian;;NY;
ViceVersa;Midtown West;;New York;NY;Italian;;NY;
Viceroy;Chelsea;;New York;NY;;;NY;
Vico Madison Av Ristorante;Upper E. Side;1302 Madison Ave;New York;NY;Italian;$$$;NY;
Vico Madison Av Ristorante;Upper East Side;;New York;NY;Italian;;NY;
Viet Café;Tribeca;;New York;NY;Vietnamese;;NY;
Villa Berulia Restaurant Inc;Midtown East;;New York;NY;Italian;;NY;
Villa Mosconi Restaurant;Greenwich Village;69 Macdougal St;New York;NY;Italian;$$$;NY;
Village Natural;West Village;;New York;NY;Vegetarian & Organic;;NY;
Village Natural Restaurant;W. Village;;New York;NY;Vegetarian & Organic;;NY;
Village Yokocho;East Village;;New York;NY;Japanese;;NY;
Vince & Eddie's;Upper W. Side;;New York;NY;American;;NY;
Vince and Eddie's;Upper West Side;;New York;NY;American;;NY;
Vincent's;Little Italy;119 Mott St;New York;NY;Italian;$$;NY;
Vino 313;Midtown East;;New York;NY;Italian;;NY;
Vintage Irving;Union Square;118A E. 15th St.;New York;NY;Small Plates \ Mediterranean;$$$;NY;
Vintage New York Wine Bar;Soho;;New York;NY;American;;NY;
Virgil's Real Barbecue;Midtown West;;New York;NY;Barbeque;;NY;
Vittorio Cucina (CLOSED);W. Village;;New York;NY;Italian;;NY;
Vong - New York;Midtown East;200 East 54th St;New York;NY;Thai;$$$$;NY;
Vuli Restaurant;Midtown East;;New York;NY;Eclectic;;NY;
Vynl;Midtown West;754 Ninth Ave-between 50th and 51st Sts;New York;NY;Eclectic;;NY;
Waikiki Wally's;East Village;101 East 2nd Street;New York;NY;Hawaiian;$$$;NY;
Waldy's Wood Fired Pizza and Penne;Chelsea;800 6th Ave.;New York;NY;;;NY;
Walker's;Tribeca/soho;16 N Moore St;New York;NY;American;$;NY;
Wallse;Greenwich Village;344 W 11th St at Washington St;New York;NY;;;NY;
Wallse;W. Village;344 W 11th St;New York;NY;Austrian;$$$$;NY;
Wallsé;West Village;344 W 11th St;New York;NY;Austrian;$$$$;NY;
Waverly Inn;Greenwich Village;16 Bank St at Waverly Pl;New York;NY;;;NY;
Waverly Restaurant;West Village;;New York;NY;;;NY;
Wawa Canteen;Greenwich Village;;New York;NY;Korean;;NY;
Wd-50;Murray Hill;50 Clinton St;New York;NY;American;$$$$;NY;
Westville East;East Village;210 W 10th St;New York;NY;American;$;NY;
Whym;Midtown West;;New York;NY;American;;NY;
Wichcraft;Midtown West;;New York;NY;American;;NY;
Wicked Wolf Restaurant;Upper E. Side;;New York;NY;American;;NY;
Wild Ginger;West Village;;New York;NY;Asian: Pan-Asian;;NY;
Wildwood Barbeque;Gramercy;225 Park Avenue South;New York;NY;Barbecue \ Barbeque;$$$;NY;
Win49 (CLOSED);Lower E. Side;;New York;NY;Japanese;;NY;
Wo Hop Restaurant;;17 Mott St;New York;NY;;;NY;
Wogie's Bar and Grill;Greenwich Village;39 Greenwich Ave at Charles St;New York;NY;American;;NY;
Wogies Bar & Grill;West Village;39 Greenwich Ave;New York;NY;American;$;NY;
Wollensky's Grill;Midtown East;205 East 49th Street;New York;NY;American \ Steakhouses;$$$;NY;
Wollenskys Grill;Midtown West;23 W 32nd St;New York;NY;Korean \ Steakhouses;$$;NY;
Won Jo;Midtown West;23 W 32nd St;New York;NY;Korean;$$;NY;
Wondee Siam II;Midtown West;;New York;NY;Thai;;NY;
Wondee Siam III;Midtown West;;New York;NY;Thai;;NY;
Woo Chon;Midtown West;;New York;NY;Korean;;NY;
Woo Lae Oak;Soho;148 Mercer St;New York;NY;Korean;$$$;NY;
World Cup Cafe Inc;Upper E. Side;;New York;NY;American;;NY;
Wu Liang Ye;Midtown East;;New York;NY;Chinese;;NY;
Xunta;E. Village;;New York;NY;Spanish;;NY;
Xunta Tapas Bar;East Village;174 First Ave;New York;NY;Spanish;$;NY;
Yaffa Cafe;E. Village;;New York;NY;American;;NY;
Yaffa's Tea Room;Tribeca;;New York;NY;Eclectic;;NY;
Yakitori Taisho;E. Village;;New York;NY;Japanese;;NY;
Yakitori Torys;Midtown East;251 W. 55th St., 2nd fl;New York;NY;Japanese;$$$;NY;
Yama 49;Midtown East;38-40 Carmine St;New York;NY;Sushi \ Japanese;$$;NY;
Yatagan Kebab House;W. Village;;New York;NY;Middle Eastern;;NY;
Yerba Buena;East Village;23 Avenue A at E 2nd St;New York;NY;Latin American;;NY;
York Grill;Upper East Side;;New York;NY;American;;NY;
York Indian Cuisine;Upper E. Side;;New York;NY;American;;NY;
You-Chun;Midtown West;;New York;NY;Korean;;NY;
Yozakura Kushiyaki Bar;Lower East Side;168 Ludlow St;New York;NY;Japanese;$;NY;
Yuca Bar & Restaurant;East Village;111 Ave A;New York;NY;Nuevo Latino \ Latin American;$;NY;
Yuka;;1557 2nd Ave;New York;NY;;;NY;
Yuki Sushi;Upper West Side;656 Amsterdam Ave;New York;NY;Sushi;$;NY;
Yuva;Midtown East;;New York;NY;Indian;;NY;
Zabar's Café;Upper West Side;2245 Broadway;New York;NY;Deli;$;NY;
Zabar's Deli & Gourmet Foods;Upper West Side;2245 Broadway;New York;NY;Deli;$;NY;
Zaitzeff;East Village;;New York;NY;Japanese;;NY;
Zakuro;West Village;;New York;NY;Japanese;;NY;
Zarela Restaurant;Midtown East;953 Second Ave;New York;NY;Mexican;$$$;NY;
Zebú Grill;Upper East Side;305 E 92nd St;New York;NY;South American \ Brazilian;$$;NY;
Zen Burger (CLOSED);Midtown East;465 Lexington Ave btwn 45th and 46th Sts;New York;NY;American;;NY;
Zen Palate;Midtown West;;New York;NY;Vegetarian & Organic;;NY;
Zen Palate (Closed);Union Square;34 East Union Sq;New York;NY;Vegetarian \ Vegetarian & Organic;$;NY;
Zereouè Restaurant and Bar;Midtown East;;New York;NY;African: West African;;NY;
Zerza;E. Village;304 E Sixth St;New York;NY;Moroccan;$$;NY;
Zerza Mediterrano;E. Village;304 E Sixth St;New York;NY;Moroccan;$$;NY;
Zesty Pizzeria;Upper E. Side;;New York;NY;Turkish;;NY;
Zeytin;Upper West Side;519 Columbus Ave;New York;NY;Turkish;$$;NY;
Zibetto Espresso Bar;Midtown West;;New York;NY;Previews;;NY;
Ziggiz;Gramercy;;New York;NY;American;;NY;
Zip Burger (CLOSED);Midtown East;300 1/2 E 52nd St at 2nd Ave;New York;NY;;;NY;
Zipper Factory Tavern (CLOSED);Midtown West;336 W 37th St btwn 8th and 9th St;New York;NY;;;NY;
Zoe;Soho;90 Prince St;New York;NY;American;$$$;NY;
Zoe Restaurant;Soho;90 Prince St;New York;NY;American;$$$;NY;
Zoma;Harlem;2084 Frederick Douglass Blvd.;New York;NY;Ethiopian \ African: Ethiopian;$$;NY;
Zona Rosa;Midtown West;40 W 56th St;New York;NY;Mexican;;NY;
Zona Rosa (CLOSED);Midtown West;;New York;NY;Mexican;;NY;
Zoë;Soho;;New York;NY;American Creative;;NY;
Zucchero E Pomodori;Upper E. Side;;New York;NY;Italian;;NY;
Zucco Le French Diner;Lower E. Side;;New York;NY;French;;NY;
Zum Schneider;E. Village;107 Ave C;New York;NY;German;$;NY;
Zuni;Midtown West;;New York;NY;American Regional;;NY;
Zuni;Theater;598 Ninth Ave;New York;NY;American \ American Regional;$$;NY;
Zutto;Tribeca;77 Hudson Street;New York;NY;Sushi;$$;NY;
Zutto Japanese Restaurant;Tribeca/soho;77 Hudson Street;New York;NY;Sushi;$$;NY;
Zé Cafe;Midtown East;;New York;NY;Eclectic;;NY;
Zócalo (CLOSED);Upper E. Side;;New York;NY;Mexican;;NY;
bar.vetro;Midtown East;222 E 58th St btwn Second and Third Aves;New York;NY;Italian;;NY;
davidburke & donatella;Upper East Side;;New York;NY;American Creative;;NY;
dell'anima;West Village;;New York;NY;Italian;;NY;
i Trulli;Gramercy;;New York;NY;Italian;;NY;
p*ong;Greenwich Village;150 W. 10th Street;New York;NY;Dessert;$$;NY;
wd-50;Lower East Side;;New York;NY;American Creative;;NY;
‘21’ Club;Midtown West;;New York;NY;American;;NY;
’ino;West Village;;New York;NY;Italian;;NY;
’inoteca;Lower East Side;;New York;NY;Italian;;NY;
